<?xml version="1.0" encoding="UTF-8"?>
<kml xmlns="http://www.opengis.net/kml/2.2">
<Document>
 <Folder>
  <name>01 Trani -Torre di Nebbia</name>
  <description></description>
  <Placemark>
   <name>01 Trani -Torre di Nebbia</name>
   <description><![CDATA[
distance: 31 miles
<br>
elevation: 2300 feet
<br>
RWGPS: https://tinyurl.com/5bm968cp
   ]]></description>
   <Style>
    <LineStyle>
     <color>ff0f0fbc</color>
     <width>3</width>
    </LineStyle>
   </Style>
   <LineString>
    <tessellate>1</tessellate>
    <coordinates>
16.4225,41.27705,0 16.4208,41.27556,0 16.41821,41.2731,0 16.41588,41.27452,0 16.41599,41.27399,0
16.41561,41.27352,0 16.41746,41.2724,0 16.41719,41.27177,0 16.41747,41.2713,0 16.41751,41.26944,0
16.41765,41.2683,0 16.41686,41.26656,0 16.41495,41.26711,0 16.41444,41.26642,0 16.41331,41.26552,0
16.41351,41.26358,0 16.41333,41.26227,0 16.41382,41.26113,0 16.41487,41.25808,0 16.41437,41.25645,0
16.41414,41.25395,0 16.41467,41.25383,0 16.4147,41.2524,0 16.41538,41.24949,0 16.41543,41.24869,0
16.41531,41.24587,0 16.41508,41.24369,0 16.4143,41.24288,0 16.41332,41.24059,0 16.41302,41.23837,0
16.41231,41.23603,0 16.4119,41.23579,0 16.41226,41.23539,0 16.41192,41.23399,0 16.41008,41.23165,0
16.40814,41.22831,0 16.40707,41.2271,0 16.40705,41.22655,0 16.40566,41.22428,0 16.40437,41.22289,0
16.4037,41.22194,0 16.40302,41.22142,0 16.40072,41.21769,0 16.39926,41.21608,0 16.39791,41.2153,0
16.39536,41.21242,0 16.39212,41.20798,0 16.39175,41.2066,0 16.39129,41.20573,0 16.38936,41.20456,0
16.38761,41.20291,0 16.38933,41.20008,0 16.38981,41.19906,0 16.38969,41.19413,0 16.38947,41.19313,0
16.38941,41.19179,0 16.38953,41.19054,0 16.39023,41.18855,0 16.39026,41.18786,0 16.3895,41.18413,0
16.38946,41.18287,0 16.39001,41.18046,0 16.39112,41.17698,0 16.3921,41.17512,0 16.39338,41.17336,0
16.39384,41.17253,0 16.39542,41.17188,0 16.39621,41.17055,0 16.39842,41.16782,0 16.40048,41.16601,0
16.40251,41.16483,0 16.40366,41.16385,0 16.40457,41.16278,0 16.40637,41.16162,0 16.4086,41.16064,0
16.40975,41.16032,0 16.40988,41.15855,0 16.40972,41.15591,0 16.40998,41.15477,0 16.40992,41.15411,0
16.40906,41.15295,0 16.40915,41.15255,0 16.40726,41.15239,0 16.40736,41.15155,0 16.40876,41.14966,0
16.40606,41.14633,0 16.40555,41.14584,0 16.40076,41.14206,0 16.40046,41.14189,0 16.40038,41.13807,0
16.39995,41.13649,0 16.39902,41.13499,0 16.39724,41.13178,0 16.39694,41.13143,0 16.39551,41.13043,0
16.39326,41.12812,0 16.39238,41.12769,0 16.39079,41.12637,0 16.38863,41.125,0 16.38801,41.12369,0
16.38506,41.12033,0 16.38473,41.11964,0 16.38287,41.11713,0 16.38128,41.11139,0 16.3803,41.1096,0
16.37915,41.1058,0 16.37784,41.10341,0 16.37738,41.10163,0 16.37763,41.10079,0 16.37745,41.0936,0
16.37747,41.08807,0 16.37738,41.08779,0 16.37446,41.08127,0 16.37335,41.07908,0 16.36747,41.08076,0
16.36623,41.08094,0 16.36391,41.08144,0 16.3581,41.08327,0 16.357,41.08377,0 16.34963,41.0875,0
16.34752,41.08901,0 16.34469,41.09075,0 16.34288,41.09245,0 16.34259,41.09245,0 16.3371,41.0952,0
16.32752,41.09716,0 16.32486,41.09813,0 16.32173,41.09954,0 16.31934,41.09998,0 16.31583,41.10078,0
16.31267,41.10172,0 16.30511,41.10775,0 16.30198,41.11068,0 16.29979,41.11176,0 16.29341,41.11353,0
16.28931,41.11526,0 16.28321,41.11742,0 16.28134,41.11372,0 16.28068,41.11043,0 16.28057,41.10842,0
16.28034,41.10655,0 16.2795,41.10271,0 16.27832,41.09939,0 16.27736,41.09746,0 16.27497,41.09376,0
16.27483,41.09303,0 16.27514,41.09134,0 16.27486,41.09067,0 16.27317,41.08914,0 16.27324,41.08861,0
16.27428,41.0875,0 16.27586,41.08495,0 16.27607,41.08379,0 16.27567,41.08148,0 16.27449,41.07944,0
16.27432,41.07883,0 16.27483,41.07468,0 16.26522,41.07154,0 16.26051,41.0697,0 16.25978,41.06929,0
16.2548,41.06491,0 16.25391,41.06426,0 16.25309,41.06393,0 16.24632,41.06254,0 16.24524,41.06204,0
16.24423,41.06102,0 16.24366,41.06081,0 16.24102,41.06041,0 16.24032,41.06007,0 16.23443,41.05473,0
16.23475,41.05456,0 16.25508,41.05044,0 16.26238,41.04899,0 16.27318,41.0468,0 16.29331,41.04388,0
16.29242,41.04147,0 16.29222,41.04028,0 16.2909,41.03826,0 16.29017,41.03666,0 16.28654,41.03404,0
</coordinates>
   </LineString>
  </Placemark>
 </Folder>
</Document>
</kml>
