<?xml version="1.0" ?>
<kml xmlns="http://www.opengis.net/kml/2.2">
<Document>
 <Folder>
  <name>02 Torre di Nebbia - Gravina</name>
  <description></description>
  <Placemark>
   <name>02 Torre di Nebbia - Gravina</name>
   <description><![CDATA[
distance: 26 miles
<br>
elevation: 850 feet
<br>
link: https://tinyurl.com/4s3b5bex
   ]]></description>
   <Style>
    <LineStyle>
     <color>ff0f0fbc</color>
     <width>3</width>
    </LineStyle>
   </Style>
   <LineString>
    <tessellate>1</tessellate>
    <coordinates>
16.28675,41.03413,0 16.29011,41.03665,0 16.29093,41.03834,0 16.29194,41.03974,0 16.29225,41.04037,0
16.29243,41.04155,0 16.2933,41.04386,0 16.30585,41.04205,0 16.30652,41.0419,0 16.30888,41.04085,0
16.31021,41.04072,0 16.31678,41.04081,0 16.31861,41.04077,0 16.32012,41.04052,0 16.34032,41.03839,0
16.34207,41.03824,0 16.34228,41.03793,0 16.34127,41.03626,0 16.33949,41.03437,0 16.33902,41.03358,0
16.33775,41.03259,0 16.337,41.03217,0 16.33595,41.03079,0 16.33516,41.0301,0 16.33288,41.02736,0
16.3322,41.02603,0 16.33142,41.02518,0 16.33134,41.02464,0 16.33078,41.02382,0 16.3308,41.02168,0
16.33022,41.02048,0 16.33016,41.0194,0 16.3296,41.01844,0 16.32881,41.01799,0 16.3272,41.01616,0
16.3266,41.01583,0 16.32434,41.01336,0 16.32228,41.01137,0 16.32102,41.00942,0 16.31795,41.00499,0
16.31469,41.00343,0 16.31361,41.00309,0 16.31293,41.00249,0 16.31145,41.00089,0 16.31055,41.00057,0
16.31009,41.00011,0 16.31007,40.99958,0 16.30816,40.99781,0 16.30711,40.99754,0 16.30374,40.99624,0
16.30359,40.99542,0 16.30456,40.99394,0 16.30574,40.99281,0 16.30505,40.99211,0 16.30424,40.99098,0
16.30404,40.99009,0 16.30449,40.989,0 16.30653,40.98361,0 16.30784,40.98132,0 16.30722,40.97988,0
16.30722,40.97799,0 16.30681,40.97525,0 16.30645,40.97423,0 16.30673,40.97318,0 16.30417,40.97249,0
16.30119,40.97224,0 16.29967,40.97256,0 16.29898,40.97249,0 16.29522,40.96976,0 16.29357,40.96916,0
16.29027,40.96694,0 16.28975,40.96624,0 16.28836,40.96498,0 16.28707,40.96229,0 16.28679,40.96049,0
16.28484,40.95807,0 16.2831,40.95733,0 16.28224,40.95555,0 16.28091,40.95456,0 16.27662,40.95274,0
16.27555,40.95211,0 16.27516,40.95158,0 16.27508,40.94952,0 16.27312,40.94587,0 16.27111,40.94119,0
16.26986,40.93807,0 16.26885,40.93574,0 16.26881,40.93508,0 16.26793,40.93384,0 16.26634,40.93449,0
16.26387,40.93078,0 16.26169,40.92773,0 16.25508,40.91821,0 16.26426,40.91382,0 16.26557,40.91299,0
16.26928,40.90753,0 16.2722,40.90381,0 16.27613,40.89903,0 16.28175,40.89511,0 16.28771,40.89188,0
16.29194,40.8893,0 16.29655,40.88777,0 16.29834,40.8869,0 16.3022,40.88396,0 16.30537,40.88206,0
16.31342,40.8777,0 16.31638,40.87564,0 16.31994,40.87272,0 16.32471,40.86928,0 16.33164,40.86483,0
16.33941,40.85696,0 16.34383,40.85255,0 16.34505,40.84997,0 16.34838,40.84813,0 16.35921,40.84339,0
16.36154,40.84261,0 16.36527,40.84099,0 16.37291,40.83859,0 16.38012,40.8357,0 16.38338,40.83472,0
16.39004,40.83355,0 16.39313,40.83284,0 16.3948,40.83294,0 16.39763,40.83248,0 16.39879,40.83316,0
16.40055,40.83394,0 16.40197,40.83482,0 16.40368,40.83508,0 16.40536,40.83463,0 16.40737,40.83368,0
16.41205,40.83125,0 16.41505,40.82953,0 16.41673,40.82956,0 16.41707,40.82865,0 16.41676,40.82753,0
16.41474,40.82755,0 16.41431,40.82724,0 16.41425,40.82638,0 16.41466,40.82586,0 16.41803,40.82524,0
16.41876,40.82479,0 16.41725,40.82022,0 16.41822,40.81915,0 16.41865,40.81803,0 16.41806,40.817,0
16.41546,40.81625,0 16.41465,40.81621,0 16.41463,40.81674,0 16.41513,40.8173,0 16.41502,40.81791,0
</coordinates>
   </LineString>
  </Placemark>
 </Folder>
</Document>
</kml>
