<?xml version="1.0" encoding="UTF-8"?>
<kml xmlns="http://www.opengis.net/kml/2.2">
<Document>
 <Folder>
  <name>03 Gravina in Puglia - Matera</name>
  <description></description>
  <Placemark>
   <name>03 Gravina in Puglia - Matera</name>
   <description><![CDATA[
distance: 28 miles
<br>
elevation: 1280 feet
<br>
RWGPS: https://tinyurl.com/munm57kd
   ]]></description>
   <Style>
    <LineStyle>
     <color>ff0fbc74</color>
     <width>3</width>
    </LineStyle>
   </Style>
   <LineString>
    <tessellate>1</tessellate>
    <coordinates>
16.41571,40.81713,0 16.41519,40.81631,0 16.41558,40.81603,0 16.41822,40.81679,0 16.41856,40.81748,0
16.41973,40.81786,0 16.41963,40.81884,0 16.41973,40.82053,0 16.41991,40.82122,0 16.42172,40.82686,0
16.4219,40.82692,0 16.42542,40.82951,0 16.4289,40.83175,0 16.43014,40.83237,0 16.43174,40.83385,0
16.43256,40.83434,0 16.43566,40.83534,0 16.4368,40.83585,0 16.43945,40.83738,0 16.44208,40.83899,0
16.44351,40.83975,0 16.44588,40.84069,0 16.44661,40.8411,0 16.44825,40.84164,0 16.4494,40.84244,0
16.45088,40.84291,0 16.45164,40.84329,0 16.45652,40.84615,0 16.45964,40.84896,0 16.46339,40.85111,0
16.46678,40.85275,0 16.46746,40.85328,0 16.47097,40.85536,0 16.47297,40.85661,0 16.47352,40.85713,0
16.47438,40.85734,0 16.4785,40.85908,0 16.48066,40.86043,0 16.48387,40.86279,0 16.48797,40.86618,0
16.49047,40.86815,0 16.49222,40.86935,0 16.49455,40.87061,0 16.49569,40.87109,0 16.50159,40.87312,0
16.5033,40.87353,0 16.50633,40.87468,0 16.50942,40.87615,0 16.51059,40.87636,0 16.51308,40.87736,0
16.51392,40.87782,0 16.51559,40.87637,0 16.51762,40.87477,0 16.52204,40.86973,0 16.5282,40.86144,0
16.53046,40.85856,0 16.53364,40.85538,0 16.53449,40.85424,0 16.53568,40.85304,0 16.538,40.8512,0
16.54341,40.8473,0 16.54577,40.84492,0 16.55005,40.83905,0 16.55077,40.83833,0 16.55269,40.83804,0
16.55382,40.83798,0 16.55428,40.83751,0 16.55377,40.83735,0 16.55514,40.83272,0 16.55534,40.83189,0
16.55591,40.83147,0 16.55383,40.82983,0 16.55351,40.82808,0 16.55313,40.82713,0 16.55224,40.82242,0
16.55138,40.81945,0 16.54961,40.81522,0 16.5504,40.81484,0 16.55103,40.81373,0 16.55176,40.81298,0
16.55357,40.812,0 16.55525,40.81039,0 16.55561,40.80972,0 16.55573,40.80889,0 16.55548,40.80732,0
16.55401,40.79948,0 16.55346,40.7974,0 16.55299,40.79712,0 16.55156,40.79703,0 16.55154,40.79644,0
16.55104,40.79623,0 16.55176,40.79422,0 16.55304,40.79335,0 16.55247,40.78851,0 16.55393,40.78839,0
16.55457,40.78784,0 16.55508,40.78565,0 16.55638,40.78194,0 16.55908,40.7745,0 16.56004,40.77197,0
16.55943,40.77056,0 16.55653,40.76728,0 16.55559,40.76649,0 16.55349,40.76418,0 16.55327,40.76214,0
16.55243,40.75967,0 16.55233,40.75848,0 16.55256,40.75768,0 16.55305,40.75699,0 16.55377,40.75442,0
16.55319,40.74988,0 16.55278,40.74985,0 16.55262,40.749,0 16.55321,40.74762,0 16.55284,40.74637,0
16.55308,40.74413,0 16.55161,40.74203,0 16.55158,40.74171,0 16.55246,40.73804,0 16.55246,40.73497,0
16.55286,40.73195,0 16.55254,40.73117,0 16.55191,40.73057,0 16.55168,40.72981,0 16.55189,40.72944,0
16.55957,40.72935,0 16.56234,40.72901,0 16.56642,40.72859,0 16.57039,40.72972,0 16.57074,40.72938,0
16.5717,40.72975,0 16.57237,40.72838,0 16.57305,40.72856,0 16.57439,40.7263,0 16.57556,40.72388,0
16.57689,40.72066,0 16.57705,40.72047,0 16.57865,40.71992,0 16.57872,40.7197,0 16.57785,40.71887,0
16.57854,40.71657,0 16.57897,40.71589,0 16.58039,40.71503,0 16.58487,40.71342,0 16.58614,40.71307,0
16.58866,40.71271,0 16.59374,40.71151,0 16.5948,40.71071,0 16.59665,40.70718,0 16.59826,40.70378,0
16.59829,40.70327,0 16.59736,40.6991,0 16.59743,40.69785,0 16.60118,40.69118,0 16.60422,40.68425,0
16.60489,40.68152,0 16.60462,40.68127,0 16.59866,40.68201,0 16.59694,40.68269,0 16.59482,40.683,0
16.59365,40.68363,0 16.59319,40.68365,0 16.59181,40.68319,0 16.59066,40.68209,0 16.59021,40.68189,0
16.59007,40.68048,0 16.58903,40.6799,0 16.58883,40.67952,0 16.58975,40.679,0 16.5917,40.67758,0
16.59338,40.6782,0 16.59401,40.67812,0 16.59577,40.67756,0 16.59655,40.67692,0 16.59732,40.67662,0
16.59905,40.67678,0 16.59943,40.67591,0 16.60002,40.67604,0 16.60026,40.67543,0 16.60143,40.67554,0
16.60584,40.6744,0 16.60727,40.67305,0 16.60809,40.67243,0 16.60904,40.67071,0 16.60882,40.67025,0
16.60906,40.6696,0 16.60891,40.66886,0 16.60785,40.6674,0 16.60628,40.6669,0 16.60639,40.66627,0
16.60849,40.66531,0 16.60998,40.66315,0 16.61008,40.66184,0 16.61037,40.66133,0 16.61086,40.66182,0
16.61309,40.66078,0
</coordinates>
   </LineString>
  </Placemark>
 </Folder>
</Document>
</kml>
