<?xml version="1.0" ?>
<kml xmlns="http://www.opengis.net/kml/2.2">
<Document>
 <Folder>
  <name>04.b Loop from Matera_San_Giuliano_Lake_Crypt_of_Original_Sin</name>
  <description>loop to the lake moving from Ferula Bike Shop. You can find some traffic at the exit of Matera, be careful. You can extend your tour once you are by the lake </description>
  <Placemark>
   <name>04.b Loop from Matera_San_Giuliano_Lake_Crypt_of_Original_Sin</name>
   <description><![CDATA[
loop to the lake moving from Ferula Bike Shop. You can find some traffic at the exit of Matera, be careful. You can extend your tour once you are by the lake
<br>
distance: 21 miles
<br>
elevation: 1663 feet
<br>
link: https://tinyurl.com/mwu543t4
   ]]></description>
   <Style>
    <LineStyle>
     <color>ff9fbc0f</color>
     <width>3</width>
    </LineStyle>
   </Style>
   <LineString>
    <tessellate>1</tessellate>
    <coordinates>
16.60021,40.66425,0 16.59998,40.66438,0 16.59966,40.66359,0 16.59925,40.66354,0 16.59832,40.66422,0
16.59684,40.665,0 16.59577,40.66587,0 16.59501,40.66671,0 16.5941,40.66807,0 16.59452,40.6693,0
16.59557,40.66952,0 16.59716,40.67053,0 16.59677,40.6716,0 16.59705,40.67205,0 16.59801,40.67245,0
16.59845,40.67286,0 16.59895,40.6739,0 16.59588,40.67534,0 16.59595,40.67542,0 16.59234,40.67716,0
16.5917,40.67758,0 16.58689,40.67581,0 16.58566,40.6744,0 16.58395,40.67511,0 16.58299,40.67674,0
16.58214,40.67763,0 16.58202,40.67742,0 16.58012,40.67643,0 16.57907,40.67563,0 16.57681,40.67508,0
16.57625,40.67517,0 16.5743,40.67398,0 16.57349,40.6738,0 16.57319,40.6717,0 16.57379,40.66931,0
16.57336,40.66871,0 16.57205,40.66865,0 16.56912,40.66736,0 16.56785,40.66577,0 16.56779,40.66512,0
16.56933,40.6625,0 16.57056,40.66098,0 16.57031,40.65997,0 16.56869,40.65969,0 16.56524,40.66033,0
16.56433,40.65959,0 16.56409,40.65819,0 16.56383,40.65773,0 16.56378,40.65559,0 16.56526,40.65232,0
16.56592,40.65107,0 16.56763,40.6489,0 16.56754,40.64798,0 16.56578,40.64635,0 16.56376,40.64422,0
16.56071,40.64051,0 16.55871,40.63879,0 16.55807,40.63788,0 16.55739,40.63622,0 16.55562,40.63405,0
16.5547,40.63228,0 16.55402,40.63175,0 16.55368,40.63082,0 16.55151,40.63022,0 16.55023,40.62966,0
16.54941,40.62907,0 16.54875,40.62887,0 16.5473,40.62884,0 16.54635,40.62842,0 16.54014,40.62385,0
16.53988,40.62321,0 16.54046,40.62251,0 16.54225,40.62171,0 16.54252,40.62129,0 16.54204,40.62071,0
16.54052,40.62032,0 16.53805,40.61886,0 16.53585,40.61548,0 16.53862,40.61309,0 16.53872,40.61279,0
16.53788,40.61166,0 16.53752,40.61058,0 16.53705,40.60973,0 16.53733,40.60934,0 16.53839,40.60892,0
16.53865,40.60852,0 16.53844,40.60759,0 16.53903,40.60687,0 16.54105,40.60591,0 16.54186,40.60594,0
16.54237,40.60645,0 16.54304,40.60648,0 16.54492,40.60569,0 16.54598,40.60646,0 16.54781,40.60589,0
16.54899,40.60536,0 16.54975,40.60567,0 16.55161,40.60787,0 16.55265,40.60744,0 16.55587,40.60657,0
16.55694,40.60644,0 16.55782,40.60703,0 16.55774,40.60744,0 16.55695,40.60827,0 16.55747,40.60884,0
16.55724,40.60925,0 16.55473,40.61236,0 16.5548,40.61281,0 16.55853,40.61544,0 16.55864,40.61577,0
16.55709,40.61797,0 16.55855,40.61572,0 16.55829,40.61539,0 16.55599,40.61378,0 16.55516,40.61333,0
16.55413,40.61222,0 16.5532,40.6121,0 16.55192,40.61142,0 16.55075,40.61101,0 16.54521,40.60877,0
16.54446,40.60842,0 16.54232,40.60708,0 16.54242,40.60646,0 16.54186,40.60594,0 16.54105,40.60591,0
16.53903,40.60687,0 16.53851,40.60739,0 16.53865,40.60852,0 16.53839,40.60892,0 16.53733,40.60934,0
16.53705,40.60973,0 16.53752,40.61058,0 16.53788,40.61166,0 16.53868,40.61269,0 16.53826,40.61343,0
16.53585,40.61548,0 16.53805,40.61886,0 16.54052,40.62032,0 16.54204,40.62071,0 16.54252,40.62129,0
16.54225,40.62171,0 16.54046,40.62251,0 16.53988,40.62321,0 16.54014,40.62385,0 16.54635,40.62842,0
16.5473,40.62884,0 16.54875,40.62887,0 16.54941,40.62907,0 16.55023,40.62966,0 16.55151,40.63022,0
16.55368,40.63082,0 16.55402,40.63175,0 16.5547,40.63228,0 16.55562,40.63405,0 16.55739,40.63622,0
16.55807,40.63788,0 16.55871,40.63879,0 16.56071,40.64051,0 16.56376,40.64422,0 16.56578,40.64635,0
16.56754,40.64798,0 16.56763,40.6489,0 16.56592,40.65107,0 16.56526,40.65232,0 16.56391,40.65526,0
16.56372,40.65587,0 16.56385,40.65729,0 16.56433,40.65959,0 16.56492,40.66017,0 16.56566,40.66025,0
16.56869,40.65969,0 16.57016,40.6599,0 16.57051,40.66023,0 16.57056,40.66098,0 16.56933,40.6625,0
16.56779,40.66511,0 16.56785,40.66577,0 16.56912,40.66736,0 16.57205,40.66865,0 16.57398,40.66861,0
16.57561,40.66935,0 16.57713,40.66965,0 16.57677,40.67099,0 16.57607,40.67301,0 16.57659,40.67491,0
16.57681,40.67508,0 16.57907,40.67563,0 16.58012,40.67643,0 16.58202,40.67742,0 16.58288,40.67671,0
16.58388,40.67506,0 16.58579,40.67415,0 16.58626,40.67337,0 16.58816,40.67433,0 16.58941,40.6748,0
16.59001,40.67479,0 16.59117,40.67406,0 16.59172,40.67341,0 16.59215,40.67348,0 16.5931,40.67289,0
16.59299,40.67231,0 16.59537,40.67126,0 16.59564,40.67134,0 16.59892,40.66932,0 16.60006,40.66773,0
16.60017,40.66731,0 16.60122,40.6667,0 16.60219,40.66638,0 16.60234,40.6666,0 16.60448,40.66638,0
16.60092,40.66497,0 16.60027,40.66462,0
</coordinates>
   </LineString>
  </Placemark>
 </Folder>
</Document>
</kml>
