<?xml version="1.0" encoding="UTF-8"?>
<kml xmlns="http://www.opengis.net/kml/2.2">
<Document>
 <Folder>
  <name>04a Loop from Matera Torre Spagnola Belvedere</name>
  <description></description>
  <Placemark>
   <name>04a Loop from Matera Torre Spagnola Belvedere</name>
   <description><![CDATA[
distance: 20 miles
<br>
elevation: 1217 feet
<br>
RWGPS: https://tinyurl.com/mvsyk3ps
   ]]></description>
   <Style>
    <LineStyle>
     <color>ffa70fbc</color>
     <width>3</width>
    </LineStyle>
   </Style>
   <LineString>
    <tessellate>1</tessellate>
    <coordinates>
16.60619,40.66695,0 16.6061,40.66826,0 16.60629,40.67022,0 16.60597,40.67048,0 16.6077,40.67178,0
16.60727,40.67305,0 16.60584,40.6744,0 16.60143,40.67554,0 16.60066,40.67561,0 16.59972,40.67525,0
16.59899,40.67714,0 16.59967,40.67871,0 16.60094,40.67907,0 16.60187,40.6789,0 16.60223,40.67927,0
16.6015,40.68073,0 16.60224,40.68134,0 16.60306,40.68145,0 16.6049,40.68123,0 16.60422,40.68425,0
16.60246,40.68831,0 16.60112,40.69128,0 16.59743,40.69785,0 16.59728,40.69833,0 16.5974,40.69932,0
16.59829,40.70327,0 16.59826,40.70378,0 16.59665,40.70718,0 16.59726,40.70748,0 16.60169,40.71123,0
16.60451,40.7132,0 16.60632,40.71419,0 16.61046,40.7155,0 16.61093,40.71576,0 16.61777,40.7228,0
16.62146,40.72705,0 16.62238,40.7296,0 16.62354,40.73013,0 16.62412,40.73012,0 16.6254,40.72974,0
16.63047,40.72648,0 16.6398,40.72183,0 16.6408,40.72108,0 16.64341,40.71845,0 16.64544,40.71653,0
16.64853,40.71686,0 16.64899,40.71657,0 16.65117,40.7127,0 16.65214,40.71187,0 16.66152,40.70771,0
16.66199,40.70727,0 16.66478,40.70206,0 16.66577,40.70128,0 16.66628,40.70065,0 16.66765,40.69834,0
16.66929,40.69581,0 16.66948,40.69417,0 16.67007,40.69337,0 16.67172,40.69179,0 16.67302,40.68929,0
16.67086,40.68858,0 16.66757,40.68829,0 16.66426,40.68768,0 16.66267,40.68719,0 16.65826,40.68659,0
16.64605,40.68417,0 16.64473,40.68404,0 16.64182,40.68339,0 16.63943,40.68303,0 16.63482,40.68204,0
16.62972,40.68224,0 16.62903,40.68206,0 16.62681,40.68187,0 16.62377,40.68187,0 16.6219,40.68212,0
16.61969,40.68225,0 16.61735,40.68227,0 16.61569,40.68211,0 16.61149,40.68231,0 16.61095,40.68164,0
16.60941,40.68148,0 16.60792,40.68162,0 16.6076,40.68137,0 16.60504,40.68123,0 16.60012,40.68179,0
16.59866,40.68201,0 16.59694,40.68269,0 16.59482,40.683,0 16.59365,40.68363,0 16.59319,40.68365,0
16.59187,40.68323,0 16.59066,40.68209,0 16.59021,40.68189,0 16.59007,40.68048,0 16.58903,40.6799,0
16.58883,40.67952,0 16.59015,40.67873,0 16.5917,40.67758,0 16.59338,40.6782,0 16.59401,40.67812,0
16.59577,40.67756,0 16.59655,40.67692,0 16.59732,40.67662,0 16.59905,40.67678,0 16.59972,40.67525,0
16.60066,40.67561,0 16.60143,40.67554,0 16.60584,40.6744,0 16.60672,40.67362,0 16.60605,40.67306,0
16.60591,40.67044,0 16.60628,40.66964,0 16.60591,40.66843,0 16.60452,40.6674,0 16.60445,40.66719,0
16.60612,40.66729,0 16.6062,40.66692,0
</coordinates>
   </LineString>
  </Placemark>
 </Folder>
</Document>
</kml>
