<?xml version="1.0" encoding="UTF-8"?>
<kml xmlns="http://www.opengis.net/kml/2.2">
<Document>
 <Folder>
  <name>05 Matera to Noci</name>
  <description></description>
  <Placemark>
   <name>05 Matera to Noci</name>
   <description><![CDATA[
distance: 36 miles
<br>
elevation: 1194 feet
<br>
RWGPS: https://tinyurl.com/yr92ha6p
   ]]></description>
   <Style>
    <LineStyle>
     <color>ff0f6dbc</color>
     <width>3</width>
    </LineStyle>
   </Style>
   <LineString>
    <tessellate>1</tessellate>
    <coordinates>
16.60621,40.66685,0 16.6061,40.66864,0 16.60636,40.67003,0 16.60597,40.67047,0 16.60773,40.67182,0
16.60727,40.67305,0 16.60584,40.6744,0 16.60143,40.67554,0 16.60026,40.67543,0 16.60002,40.67604,0
16.59943,40.67591,0 16.59898,40.67714,0 16.59967,40.67871,0 16.60094,40.67907,0 16.60187,40.6789,0
16.60223,40.67927,0 16.60162,40.68025,0 16.60155,40.68085,0 16.60232,40.68136,0 16.60306,40.68145,0
16.6049,40.68123,0 16.60547,40.68133,0 16.60625,40.68208,0 16.60791,40.6816,0 16.60941,40.68148,0
16.61095,40.68164,0 16.61149,40.68231,0 16.61569,40.68211,0 16.61735,40.68227,0 16.61969,40.68225,0
16.6219,40.68212,0 16.62377,40.68187,0 16.62681,40.68187,0 16.62903,40.68206,0 16.62972,40.68224,0
16.63482,40.68204,0 16.63943,40.68303,0 16.64182,40.68339,0 16.64473,40.68404,0 16.64605,40.68417,0
16.65826,40.68659,0 16.66267,40.68719,0 16.66426,40.68768,0 16.66757,40.68829,0 16.67086,40.68858,0
16.67138,40.68869,0 16.67509,40.69005,0 16.6779,40.69089,0 16.68185,40.69255,0 16.68228,40.6933,0
16.68125,40.69761,0 16.68136,40.69821,0 16.68312,40.70064,0 16.6834,40.70082,0 16.686,40.70121,0
16.68686,40.70103,0 16.69276,40.69704,0 16.69362,40.69673,0 16.70052,40.69681,0 16.70462,40.69675,0
16.71158,40.69762,0 16.71257,40.69795,0 16.71507,40.69915,0 16.71669,40.70017,0 16.71957,40.70166,0
16.72602,40.70598,0 16.72736,40.70669,0 16.72951,40.70816,0 16.73164,40.70988,0 16.73289,40.71061,0
16.73449,40.71065,0 16.73783,40.71249,0 16.74492,40.71528,0 16.74701,40.71625,0 16.75123,40.71896,0
16.75244,40.71966,0 16.75666,40.72156,0 16.75838,40.72222,0 16.76162,40.72324,0 16.76445,40.72386,0
16.77041,40.72539,0 16.77375,40.72614,0 16.77443,40.72636,0 16.77528,40.7273,0 16.77939,40.72911,0
16.78578,40.73228,0 16.7868,40.73305,0 16.78877,40.73351,0 16.79142,40.73392,0 16.79602,40.73435,0
16.79676,40.73447,0 16.79819,40.73519,0 16.8014,40.73704,0 16.80384,40.73782,0 16.80535,40.73796,0
16.81062,40.74134,0 16.81385,40.74294,0 16.81765,40.74436,0 16.81821,40.74446,0 16.82619,40.74443,0
16.82706,40.74472,0 16.82817,40.7458,0 16.8284,40.74624,0 16.83545,40.74594,0 16.83695,40.74595,0
16.83901,40.74623,0 16.84026,40.74694,0 16.84209,40.74718,0 16.84441,40.74719,0 16.84529,40.74871,0
16.8474,40.7518,0 16.8473,40.75226,0 16.84837,40.75317,0 16.84956,40.7546,0 16.85095,40.75584,0
16.85256,40.75672,0 16.85427,40.75804,0 16.85522,40.75894,0 16.85807,40.76136,0 16.86169,40.76563,0
16.86209,40.76584,0 16.86282,40.76682,0 16.86464,40.76744,0 16.86618,40.76757,0 16.86801,40.76864,0
16.87051,40.76958,0 16.87116,40.76997,0 16.87287,40.77189,0 16.87352,40.77244,0 16.8754,40.77458,0
16.87706,40.7755,0 16.88005,40.77755,0 16.88238,40.77812,0 16.88356,40.77883,0 16.88547,40.78134,0
16.88665,40.78219,0 16.89074,40.7838,0 16.89289,40.78502,0 16.89476,40.78568,0 16.8959,40.78588,0
16.89828,40.78563,0 16.90237,40.7863,0 16.90383,40.78688,0 16.90477,40.78756,0 16.90784,40.78922,0
16.90963,40.78997,0 16.9111,40.79078,0 16.91321,40.79092,0 16.91446,40.79126,0 16.91504,40.79176,0
16.91619,40.79222,0 16.91534,40.79518,0 16.91523,40.79736,0 16.91527,40.79997,0 16.91544,40.8008,0
16.91775,40.8005,0 16.91785,40.79954,0 16.91852,40.79949,0 16.91853,40.79908,0 16.92203,40.79906,0
16.92429,40.79852,0 16.92417,40.7944,0 16.92791,40.79453,0 16.93091,40.79484,0 16.93227,40.79458,0
16.93362,40.79351,0 16.93493,40.79301,0 16.93619,40.79233,0 16.93864,40.79084,0 16.94141,40.78963,0
16.94303,40.78866,0 16.94363,40.78845,0 16.94611,40.78686,0 16.94697,40.78594,0 16.94943,40.78394,0
16.95111,40.78305,0 16.95176,40.78239,0 16.95336,40.78144,0 16.95423,40.78078,0 16.95522,40.78037,0
16.95802,40.77882,0 16.95838,40.77792,0 16.95994,40.77581,0 16.96271,40.77348,0 16.96416,40.7728,0
16.96546,40.77237,0 16.9749,40.77214,0 16.97496,40.77352,0 16.98677,40.77326,0 16.98857,40.77275,0
16.991,40.77193,0 16.99532,40.77063,0 16.99718,40.77032,0 16.99981,40.77001,0 17.00117,40.76972,0
17.00419,40.76819,0 17.00698,40.76784,0 17.00962,40.76789,0 17.01019,40.76807,0 17.01297,40.76782,0
17.01328,40.76728,0 17.01768,40.76688,0 17.02446,40.76161,0 17.02661,40.76077,0 17.02826,40.75983,0
17.03166,40.75903,0 17.03368,40.75868,0 17.03736,40.75855,0 17.0389,40.75838,0 17.0401,40.75905,0
17.0415,40.75959,0 17.04282,40.76102,0 17.04381,40.76275,0 17.04502,40.76402,0 17.04614,40.76612,0
17.04676,40.76684,0 17.04802,40.7679,0 17.04919,40.76929,0 17.05087,40.77036,0 17.05171,40.77118,0
17.05258,40.77231,0 17.05441,40.77385,0 17.05741,40.77616,0 17.05916,40.77694,0 17.05998,40.77706,0
17.0621,40.77674,0 17.06281,40.77674,0 17.06585,40.77727,0 17.06755,40.77722,0 17.07045,40.77652,0
17.07271,40.77566,0 17.07365,40.7756,0 17.07714,40.77637,0 17.07921,40.77732,0 17.08139,40.77778,0
17.08341,40.77832,0 17.0857,40.7787,0 17.08759,40.77883,0 17.09038,40.77946,0 17.09167,40.78001,0
17.09314,40.78026,0 17.09573,40.78099,0 17.09736,40.78177,0 17.09839,40.78208,0 17.10049,40.78242,0
17.10197,40.78253,0 17.10269,40.78298,0 17.10364,40.78421,0 17.10579,40.78528,0 17.10765,40.78641,0
17.10892,40.78705,0 17.11061,40.78819,0 17.1123,40.78856,0 17.11307,40.78903,0 17.11461,40.7906,0
17.1153,40.79147,0 17.11595,40.79191,0 17.11771,40.79239,0 17.11894,40.79285,0 17.11941,40.79282,0
17.11852,40.79437,0 17.11884,40.79506,0 17.11868,40.79603,0 17.12009,40.79642,0 17.12148,40.79562,0
17.12224,40.79622,0 17.12285,40.79542,0 17.12355,40.79494,0 17.12385,40.79514,0 17.12492,40.79482,0
</coordinates>
   </LineString>
  </Placemark>
 </Folder>
</Document>
</kml>
