<?xml version="1.0" ?>
<kml xmlns="http://www.opengis.net/kml/2.2">
<Document>
 <Folder>
  <name>06 Noci - Alberobello - Locorotondo - Masseria Le Torri</name>
  <description></description>
  <Placemark>
   <name>06 Noci - Alberobello - Locorotondo - Masseria Le Torri</name>
   <description><![CDATA[
distance: 39 miles
<br>
elevation: 1421 feet
<br>
link: https://tinyurl.com/zmwhm7rr
   ]]></description>
   <Style>
    <LineStyle>
     <color>ff0f0fbc</color>
     <width>3</width>
    </LineStyle>
   </Style>
   <LineString>
    <tessellate>1</tessellate>
    <coordinates>
17.1252,40.79481,0 17.12621,40.79357,0 17.12851,40.79343,0 17.13065,40.79283,0 17.13153,40.79208,0
17.1343,40.78995,0 17.13565,40.79061,0 17.13942,40.79127,0 17.14127,40.791,0 17.1436,40.79045,0
17.1446,40.79076,0 17.14594,40.79082,0 17.14679,40.79156,0 17.14816,40.79161,0 17.14982,40.7919,0
17.1521,40.79214,0 17.15306,40.79189,0 17.15422,40.7919,0 17.15636,40.79234,0 17.15801,40.7929,0
17.15943,40.79296,0 17.16024,40.79321,0 17.16159,40.79395,0 17.1645,40.79453,0 17.16672,40.79536,0
17.16769,40.79589,0 17.16842,40.79658,0 17.17005,40.79757,0 17.17227,40.79872,0 17.17347,40.79881,0
17.17475,40.79867,0 17.17615,40.79882,0 17.17902,40.79962,0 17.17985,40.79993,0 17.18178,40.80101,0
17.18377,40.80143,0 17.18336,40.8025,0 17.183,40.8062,0 17.18276,40.80682,0 17.18236,40.80693,0
17.18427,40.80811,0 17.18521,40.80843,0 17.1862,40.80841,0 17.1888,40.80758,0 17.18975,40.80751,0
17.19165,40.80775,0 17.19232,40.80772,0 17.19309,40.80737,0 17.19407,40.80605,0 17.19489,40.80527,0
17.19575,40.80491,0 17.19672,40.80485,0 17.19753,40.80501,0 17.19961,40.80581,0 17.19963,40.80524,0
17.20093,40.80482,0 17.20146,40.80488,0 17.20159,40.80439,0 17.20284,40.80431,0 17.20379,40.80456,0
17.20546,40.80449,0 17.2064,40.80419,0 17.2075,40.8041,0 17.20954,40.80291,0 17.21352,40.79951,0
17.21528,40.79869,0 17.2161,40.79795,0 17.21742,40.79722,0 17.21852,40.79689,0 17.22027,40.79593,0
17.22117,40.7937,0 17.22151,40.79333,0 17.22304,40.79228,0 17.22662,40.78924,0 17.2273,40.78846,0
17.22931,40.78657,0 17.23174,40.78504,0 17.23309,40.78441,0 17.23248,40.784,0 17.233,40.78307,0
17.23552,40.78347,0 17.23824,40.78283,0 17.23925,40.78206,0 17.24127,40.78119,0 17.24377,40.78052,0
17.2441,40.78221,0 17.24327,40.78325,0 17.24371,40.78379,0 17.24441,40.78408,0 17.24477,40.78472,0
17.24469,40.78523,0 17.24706,40.78548,0 17.2497,40.78563,0 17.25158,40.78752,0 17.25231,40.78765,0
17.25369,40.78747,0 17.25463,40.78697,0 17.25556,40.786,0 17.25739,40.78497,0 17.25921,40.78338,0
17.25933,40.7827,0 17.25983,40.78214,0 17.26068,40.78165,0 17.26377,40.7833,0 17.26725,40.78643,0
17.26853,40.78513,0 17.2689,40.78416,0 17.26957,40.78343,0 17.27097,40.78299,0 17.27107,40.78214,0
17.27195,40.78141,0 17.27223,40.78017,0 17.27308,40.77952,0 17.27518,40.77839,0 17.2758,40.77826,0
17.27625,40.77853,0 17.2772,40.77837,0 17.27945,40.77768,0 17.28128,40.77696,0 17.28231,40.77773,0
17.28389,40.77804,0 17.28606,40.77708,0 17.28763,40.77668,0 17.28795,40.77611,0 17.28879,40.77555,0
17.28954,40.77535,0 17.29077,40.774,0 17.29138,40.77298,0 17.29212,40.77273,0 17.29236,40.77207,0
17.29353,40.77122,0 17.29424,40.77088,0 17.29543,40.76951,0 17.29671,40.7685,0 17.29851,40.76774,0
17.30042,40.7676,0 17.30159,40.76724,0 17.30191,40.76629,0 17.3026,40.76603,0 17.30356,40.76604,0
17.30498,40.76535,0 17.30649,40.76385,0 17.30658,40.76346,0 17.3085,40.7641,0 17.30992,40.76498,0
17.31127,40.76617,0 17.31277,40.76542,0 17.31424,40.76492,0 17.31406,40.76454,0 17.31484,40.76378,0
17.31595,40.76197,0 17.31641,40.76218,0 17.31923,40.76225,0 17.32079,40.7627,0 17.32135,40.7624,0
17.32261,40.76127,0 17.32353,40.76064,0 17.32467,40.75883,0 17.3255,40.75788,0 17.32629,40.75655,0
17.32627,40.7559,0 17.32825,40.75298,0 17.32832,40.75257,0 17.32912,40.75207,0 17.33052,40.75221,0
17.33099,40.75271,0 17.331,40.75339,0 17.33174,40.75427,0 17.33387,40.7538,0 17.33568,40.75446,0
17.33561,40.75493,0 17.33623,40.75527,0 17.33779,40.75574,0 17.33903,40.75728,0 17.34085,40.75786,0
17.34134,40.7582,0 17.3415,40.75873,0 17.34228,40.75959,0 17.3428,40.7599,0 17.34426,40.75994,0
17.34653,40.76138,0 17.34774,40.76153,0 17.34869,40.76236,0 17.34937,40.76264,0 17.35079,40.76233,0
17.3517,40.76249,0 17.35404,40.76357,0 17.35562,40.76505,0 17.35604,40.76632,0 17.35696,40.76705,0
17.35808,40.76684,0 17.3604,40.76763,0 17.36416,40.76756,0 17.36453,40.76851,0 17.36383,40.76918,0
17.36398,40.76958,0 17.36473,40.76982,0 17.36516,40.77025,0 17.36761,40.7715,0 17.36779,40.77199,0
17.36733,40.77396,0 17.36741,40.77475,0 17.36629,40.77623,0 17.36582,40.77749,0 17.36658,40.7787,0
17.36572,40.78048,0 17.36474,40.78209,0 17.36444,40.78291,0 17.36489,40.78368,0 17.36509,40.78458,0
17.36408,40.78591,0 17.36057,40.7869,0 17.36047,40.78726,0 17.3596,40.78793,0 17.35838,40.78918,0
17.35509,40.79326,0 17.35388,40.7945,0 17.35287,40.79534,0 17.35051,40.79585,0 17.34983,40.79666,0
17.35108,40.79736,0 17.35062,40.79797,0 17.34982,40.79822,0 17.34821,40.79921,0 17.34672,40.80028,0
17.34647,40.80075,0 17.34428,40.80283,0 17.34493,40.80366,0 17.34689,40.80491,0 17.34574,40.80596,0
17.34583,40.80647,0 17.34491,40.8078,0 17.34409,40.80821,0 17.34375,40.81013,0 17.34337,40.81065,0
17.34211,40.8111,0 17.34168,40.81184,0 17.3403,40.8127,0 17.33966,40.81343,0 17.33838,40.81393,0
17.33627,40.81594,0 17.33559,40.81579,0 17.33399,40.81619,0 17.33333,40.8169,0 17.33162,40.81834,0
17.33101,40.81906,0 17.32977,40.82015,0 17.32905,40.82056,0 17.32746,40.82181,0 17.32701,40.82262,0
17.32608,40.823,0 17.32581,40.82393,0 17.31964,40.82694,0 17.31773,40.82771,0 17.3168,40.82686,0
17.31412,40.82881,0 17.31291,40.82763,0 17.31237,40.82798,0 17.31079,40.82992,0 17.31008,40.83066,0
17.30882,40.83154,0 17.30856,40.832,0 17.30897,40.83387,0 17.30949,40.83442,0 17.30945,40.83552,0
17.30858,40.83854,0 17.3083,40.83904,0 17.3086,40.83972,0 17.30726,40.84082,0 17.30487,40.84166,0
17.30399,40.84237,0 17.30153,40.84621,0 17.29997,40.84735,0 17.29915,40.84823,0 17.29867,40.84986,0
17.29761,40.85166,0 17.29696,40.85307,0 17.29497,40.85651,0 17.29422,40.85725,0 17.29389,40.85787,0
17.29363,40.85917,0 17.29322,40.85993,0 17.29224,40.86121,0 17.29225,40.86288,0 17.29169,40.86336,0
17.29078,40.86359,0 17.28962,40.86355,0 17.28824,40.86329,0 17.28753,40.86342,0 17.28634,40.86461,0
17.28188,40.86642,0 17.28039,40.86732,0 17.27997,40.86774,0 17.27863,40.87016,0 17.27807,40.8723,0
17.27673,40.874,0 17.27518,40.87528,0 17.27284,40.87577,0 17.27065,40.87707,0 17.26899,40.87851,0
17.26836,40.88027,0 17.26819,40.88155,0 17.26737,40.88196,0 17.26707,40.88174,0 17.26495,40.88165,0
17.26078,40.88094,0 17.25981,40.88104,0 17.25972,40.88012,0 17.25946,40.87985,0 17.25835,40.88003,0
17.25756,40.87935,0 17.25682,40.87935,0 17.25589,40.88065,0 17.25588,40.88275,0 17.25506,40.88382,0
17.25302,40.88344,0 17.25246,40.88369,0 17.25186,40.88451,0 17.25132,40.88487,0 17.24998,40.88507,0
17.24877,40.88558,0 17.24807,40.88617,0 17.24752,40.88702,0 17.24689,40.88761,0 17.24625,40.88878,0
17.24604,40.88971,0 17.24538,40.89061,0 17.24347,40.89118,0 17.24248,40.89214,0 17.24159,40.8926,0
17.24004,40.89242,0 17.23826,40.89461,0 17.23594,40.89833,0 17.23581,40.89902,0 17.23526,40.9003,0
17.23327,40.90263,0 17.2329,40.90329,0 17.23278,40.90414,0 17.23147,40.90391,0 17.23072,40.90503,0
17.23015,40.90476,0 17.22864,40.90612,0 17.22764,40.90574,0 17.22598,40.90667,0 17.22529,40.90693,0
17.22131,40.90589,0 17.22075,40.90702,0 17.21947,40.90854,0 17.21808,40.90963,0 17.21763,40.90947,0
17.21384,40.90885,0 17.21228,40.91176,0 17.21007,40.91394,0 17.20867,40.91607,0 17.20788,40.91765,0
17.20778,40.91835,0 17.2068,40.91932,0 17.20404,40.9201,0 17.20188,40.92114,0 17.20183,40.92141,0
17.19926,40.92296,0 17.19935,40.92344,0 17.19741,40.92465,0 17.19652,40.92508,0 17.19444,40.9258,0
17.1936,40.92649,0 17.19281,40.92599,0 17.19152,40.92671,0 17.19173,40.92768,0 17.19046,40.92782,0
17.18827,40.92843,0 17.18773,40.92973,0 17.18825,40.93081,0 17.18841,40.93209,0 17.18706,40.93309,0
17.187,40.93331,0 17.18718,40.93607,0 17.18751,40.93756,0 17.18768,40.93903,0 17.18787,40.94311,0
17.18779,40.94393,0 17.18716,40.94551,0 17.18695,40.94655,0 17.18698,40.95038,0 17.18632,40.9507,0
17.1874,40.95168,0 17.18831,40.95312,0 17.18931,40.95503,0 17.19007,40.95624,0 17.18804,40.95724,0
17.1855,40.95786,0 17.18385,40.958,0 17.18296,40.95853,0 17.1812,40.95918,0 17.17976,40.95986,0
17.17837,40.96017,0 17.17769,40.96203,0 17.17766,40.96294,0 17.17804,40.96423,0 17.17882,40.96512,0
17.17935,40.96534,0 17.18068,40.9677,0 17.18062,40.97049,0 17.18146,40.97162,0 17.18004,40.97165,0
17.1792,40.97107,0 17.1787,40.97017,0 17.17772,40.97033,0 17.17534,40.97104,0 17.1735,40.97118,0
17.17274,40.97065,0
</coordinates>
   </LineString>
  </Placemark>
 </Folder>
</Document>
</kml>
