<?xml version="1.0" ?>
<kml xmlns="http://www.opengis.net/kml/2.2">
<Document>
 <Folder>
  <name>07 Loop from Masseria Le Torri (Polignano a Mare, Monopoli)</name>
  <description></description>
  <Placemark>
   <name>07 Loop from Masseria Le Torri (Polignano a Mare, Monopoli)</name>
   <description><![CDATA[
distance: 20 miles
<br>
elevation: 745 feet
<br>
link: https://tinyurl.com/pyhrsjpu
   ]]></description>
   <Style>
    <LineStyle>
     <color>ff0fbc16</color>
     <width>3</width>
    </LineStyle>
   </Style>
   <LineString>
    <tessellate>1</tessellate>
    <coordinates>
17.17274,40.97065,0 17.1735,40.97118,0 17.17534,40.97104,0 17.17772,40.97033,0 17.1787,40.97017,0
17.1792,40.97107,0 17.18004,40.97165,0 17.18146,40.97162,0 17.18194,40.97231,0 17.18239,40.97247,0
17.18313,40.97363,0 17.18391,40.97403,0 17.185,40.97364,0 17.18612,40.97588,0 17.18706,40.97674,0
17.18725,40.97715,0 17.18833,40.97813,0 17.18892,40.97909,0 17.19113,40.97983,0 17.19263,40.98105,0
17.19294,40.98212,0 17.1935,40.98273,0 17.19603,40.9828,0 17.19665,40.9829,0 17.19849,40.98367,0
17.19885,40.98457,0 17.19999,40.98606,0 17.20047,40.98629,0 17.2012,40.98741,0 17.20277,40.98824,0
17.20435,40.98872,0 17.20596,40.98963,0 17.206,40.99067,0 17.20742,40.99093,0 17.20872,40.99179,0
17.20982,40.99322,0 17.21101,40.99392,0 17.21364,40.99505,0 17.2149,40.99491,0 17.21534,40.99516,0
17.21635,40.99517,0 17.21716,40.99619,0 17.21767,40.99566,0 17.21868,40.99542,0 17.21911,40.9963,0
17.21873,40.99707,0 17.21955,40.99669,0 17.21938,40.99639,0 17.22032,40.99618,0 17.22083,40.99577,0
17.22425,40.99602,0 17.22424,40.99628,0 17.2259,40.99607,0 17.22781,40.99551,0 17.22826,40.99526,0
17.22929,40.99337,0 17.22984,40.99318,0 17.22969,40.99269,0 17.2307,40.99163,0 17.22939,40.98976,0
17.23345,40.98761,0 17.23545,40.98731,0 17.23603,40.98712,0 17.23691,40.98648,0 17.23805,40.98532,0
17.24179,40.98336,0 17.24658,40.98077,0 17.24786,40.98052,0 17.24892,40.97997,0 17.24952,40.97919,0
17.25535,40.97599,0 17.25749,40.97487,0 17.25844,40.97533,0 17.25906,40.97466,0 17.25885,40.97407,0
17.261,40.97275,0 17.26124,40.97231,0 17.26198,40.97221,0 17.26578,40.97016,0 17.26885,40.97231,0
17.26973,40.97171,0 17.27244,40.97089,0 17.27345,40.9705,0 17.27574,40.96879,0 17.27749,40.96782,0
17.27991,40.96662,0 17.28125,40.96608,0 17.2833,40.96585,0 17.28453,40.9651,0 17.28543,40.96373,0
17.28626,40.96311,0 17.28733,40.96205,0 17.29151,40.95947,0 17.29401,40.95779,0 17.29431,40.9581,0
17.29688,40.95852,0 17.29801,40.9581,0 17.29872,40.9583,0 17.29937,40.95776,0 17.29897,40.95723,0
17.29902,40.95552,0 17.30026,40.95565,0 17.30032,40.95476,0 17.30153,40.95475,0 17.30154,40.95391,0
17.30188,40.95376,0 17.30282,40.95443,0 17.30403,40.95332,0 17.30424,40.95287,0 17.30464,40.95309,0
17.305,40.95408,0 17.30602,40.95362,0 17.30649,40.95259,0 17.3056,40.95196,0 17.30518,40.95206,0
17.30423,40.95171,0 17.30379,40.95217,0 17.3031,40.95171,0 17.30203,40.95165,0 17.3015,40.95264,0
17.30073,40.95242,0 17.30044,40.95303,0 17.2954,40.95167,0 17.29566,40.95109,0 17.29301,40.95038,0
17.2913,40.949,0 17.28977,40.949,0 17.288,40.94811,0 17.28708,40.94785,0 17.28593,40.94779,0
17.28389,40.9481,0 17.28343,40.94837,0 17.28287,40.94823,0 17.28062,40.94818,0 17.27869,40.94782,0
17.2766,40.94773,0 17.27183,40.94773,0 17.27095,40.94757,0 17.26779,40.94668,0 17.26666,40.94622,0
17.2665,40.94709,0 17.26586,40.94828,0 17.26618,40.94921,0 17.26374,40.95055,0 17.26171,40.9522,0
17.25944,40.95278,0 17.25867,40.95274,0 17.25586,40.95301,0 17.25472,40.953,0 17.25322,40.95274,0
17.25246,40.95285,0 17.25151,40.95338,0 17.24924,40.95351,0 17.24689,40.95311,0 17.2442,40.95284,0
17.24269,40.9526,0 17.24112,40.95213,0 17.23957,40.95228,0 17.23581,40.95285,0 17.232,40.95418,0
17.23121,40.9541,0 17.23037,40.95451,0 17.22792,40.95369,0 17.22738,40.95292,0 17.22647,40.95235,0
17.22545,40.95289,0 17.22378,40.95352,0 17.22155,40.95399,0 17.22037,40.95366,0 17.2197,40.95377,0
17.21912,40.95418,0 17.21596,40.95517,0 17.21501,40.95446,0 17.21287,40.95383,0 17.21145,40.95472,0
17.21029,40.95518,0 17.20736,40.95486,0 17.20635,40.95451,0 17.20383,40.95424,0 17.20154,40.95467,0
17.20027,40.95513,0 17.19849,40.95529,0 17.19785,40.95487,0 17.1972,40.95482,0 17.19575,40.95525,0
17.19425,40.95519,0 17.19369,40.95595,0 17.19091,40.95607,0 17.19007,40.95624,0 17.18804,40.95724,0
17.1855,40.95786,0 17.18385,40.958,0 17.18296,40.95853,0 17.1812,40.95918,0 17.17976,40.95986,0
17.17837,40.96017,0 17.17769,40.96203,0 17.17766,40.96294,0 17.17804,40.96423,0 17.17882,40.96512,0
17.17935,40.96534,0 17.18068,40.9677,0 17.18062,40.97049,0 17.18146,40.97162,0 17.18004,40.97165,0
17.1792,40.97107,0 17.1787,40.97017,0 17.17772,40.97033,0 17.17534,40.97104,0 17.1735,40.97118,0
17.17306,40.97095,0
</coordinates>
   </LineString>
  </Placemark>
 </Folder>
</Document>
</kml>
