<?xml version="1.0" ?>
<kml xmlns="http://www.opengis.net/kml/2.2">
<Document>
 <Folder>
  <name>08 Masseria Le Torri to Ostuni</name>
  <description></description>
  <Placemark>
   <name>08 Masseria Le Torri to Ostuni</name>
   <description><![CDATA[
distance: 35 miles
<br>
elevation: 1004 feet
<br>
link: https://tinyurl.com/43p6uat5
   ]]></description>
   <Style>
    <LineStyle>
     <color>ff490fbc</color>
     <width>3</width>
    </LineStyle>
   </Style>
   <LineString>
    <tessellate>1</tessellate>
    <coordinates>
17.17274,40.97065,0 17.1735,40.97118,0 17.17534,40.97104,0 17.17772,40.97033,0 17.1787,40.97017,0
17.1792,40.97107,0 17.18004,40.97165,0 17.18146,40.97162,0 17.18062,40.97049,0 17.18068,40.9677,0
17.17935,40.96534,0 17.17882,40.96512,0 17.17804,40.96423,0 17.17766,40.96294,0 17.17769,40.96203,0
17.17837,40.96017,0 17.17976,40.95986,0 17.1812,40.95918,0 17.18296,40.95853,0 17.18385,40.958,0
17.1855,40.95786,0 17.18804,40.95724,0 17.19007,40.95624,0 17.19091,40.95607,0 17.19369,40.95595,0
17.19425,40.95519,0 17.19575,40.95525,0 17.1972,40.95482,0 17.19785,40.95487,0 17.19849,40.95529,0
17.20027,40.95513,0 17.20154,40.95467,0 17.20383,40.95424,0 17.20635,40.95451,0 17.20736,40.95486,0
17.21029,40.95518,0 17.21145,40.95472,0 17.21287,40.95383,0 17.21501,40.95446,0 17.21596,40.95517,0
17.21912,40.95418,0 17.2197,40.95377,0 17.22037,40.95366,0 17.22155,40.95399,0 17.22378,40.95352,0
17.22545,40.95289,0 17.22647,40.95235,0 17.22738,40.95292,0 17.22792,40.95369,0 17.23037,40.95451,0
17.23121,40.9541,0 17.232,40.95418,0 17.23581,40.95285,0 17.23957,40.95228,0 17.24112,40.95213,0
17.24269,40.9526,0 17.2442,40.95284,0 17.24689,40.95311,0 17.24924,40.95351,0 17.25151,40.95338,0
17.25246,40.95285,0 17.25322,40.95274,0 17.25472,40.953,0 17.25586,40.95301,0 17.25867,40.95274,0
17.25944,40.95278,0 17.26171,40.9522,0 17.26374,40.95055,0 17.26618,40.94921,0 17.26586,40.94828,0
17.2665,40.94709,0 17.26666,40.94622,0 17.26779,40.94668,0 17.27095,40.94757,0 17.27183,40.94773,0
17.2766,40.94773,0 17.27869,40.94782,0 17.28062,40.94818,0 17.28287,40.94823,0 17.28414,40.94806,0
17.28422,40.94834,0 17.28535,40.94905,0 17.2892,40.95095,0 17.29122,40.95203,0 17.29211,40.95207,0
17.29482,40.95087,0 17.29793,40.95169,0 17.29681,40.95411,0 17.29769,40.95434,0 17.29915,40.95132,0
17.30002,40.95156,0 17.30088,40.94975,0 17.30001,40.94951,0 17.30018,40.94915,0 17.30105,40.94937,0
17.3014,40.94862,0 17.30223,40.94848,0 17.30408,40.94901,0 17.3046,40.94837,0 17.30457,40.94791,0
17.30504,40.94788,0 17.30647,40.94704,0 17.31038,40.94437,0 17.31224,40.94272,0 17.31216,40.94246,0
17.3145,40.94071,0 17.31515,40.94011,0 17.31554,40.93941,0 17.31642,40.93861,0 17.31778,40.93794,0
17.31907,40.93747,0 17.32037,40.93499,0 17.32153,40.93437,0 17.32188,40.93379,0 17.32452,40.93165,0
17.32637,40.93045,0 17.32807,40.92957,0 17.3284,40.92845,0 17.32123,40.92709,0 17.32067,40.92717,0
17.32129,40.92595,0 17.32178,40.92457,0 17.32498,40.92276,0 17.32674,40.92188,0 17.32915,40.92006,0
17.33131,40.91897,0 17.33325,40.91827,0 17.3347,40.9179,0 17.3359,40.91779,0 17.3392,40.91704,0
17.34325,40.91484,0 17.34361,40.91458,0 17.3448,40.913,0 17.34499,40.91169,0 17.34435,40.91037,0
17.34525,40.90949,0 17.34606,40.9092,0 17.34676,40.90848,0 17.34895,40.90567,0 17.35094,40.90464,0
17.36032,40.90052,0 17.36618,40.89755,0 17.36745,40.89707,0 17.37141,40.89607,0 17.38041,40.89278,0
17.38191,40.89215,0 17.38337,40.89195,0 17.38479,40.89154,0 17.38566,40.89112,0 17.38396,40.89036,0
17.38641,40.88802,0 17.38707,40.88779,0 17.38981,40.88508,0 17.3903,40.88415,0 17.39134,40.88339,0
17.39186,40.88271,0 17.39385,40.88053,0 17.39541,40.87868,0 17.39596,40.87819,0 17.39754,40.87619,0
17.3985,40.87411,0 17.39934,40.87167,0 17.40007,40.87025,0 17.40149,40.86709,0 17.40172,40.86611,0
17.40219,40.86522,0 17.4035,40.86397,0 17.40368,40.86344,0 17.4059,40.86084,0 17.40598,40.86048,0
17.40675,40.85963,0 17.40936,40.85745,0 17.41022,40.85578,0 17.41111,40.85489,0 17.41198,40.85447,0
17.41234,40.85404,0 17.41399,40.85303,0 17.41543,40.85257,0 17.41842,40.85099,0 17.41911,40.85104,0
17.42149,40.85037,0 17.42331,40.84926,0 17.42424,40.8498,0 17.42729,40.84859,0 17.42969,40.8481,0
17.4312,40.84805,0 17.43207,40.84779,0 17.43252,40.84736,0 17.4342,40.84628,0 17.43493,40.84563,0
17.43613,40.84511,0 17.43835,40.84466,0 17.44065,40.8438,0 17.44119,40.84333,0 17.4426,40.84322,0
17.44446,40.8416,0 17.44621,40.84167,0 17.44895,40.84159,0 17.44936,40.84147,0 17.45132,40.84158,0
17.45231,40.84216,0 17.45415,40.84376,0 17.45584,40.84213,0 17.45621,40.84157,0 17.45623,40.84086,0
17.45753,40.83869,0 17.4586,40.83772,0 17.46085,40.83618,0 17.46113,40.8355,0 17.46234,40.83441,0
17.46434,40.8331,0 17.46619,40.83218,0 17.46746,40.83173,0 17.46828,40.82868,0 17.47114,40.82481,0
17.4722,40.8228,0 17.47161,40.8226,0 17.47095,40.81973,0 17.47056,40.8186,0 17.47133,40.81728,0
17.47218,40.81507,0 17.47256,40.81445,0 17.4727,40.81297,0 17.473,40.81228,0 17.4742,40.81061,0
17.47413,40.80994,0 17.47266,40.80874,0 17.47174,40.80897,0 17.47496,40.80731,0 17.4753,40.80606,0
17.47566,40.80572,0 17.47517,40.8053,0 17.47431,40.80409,0 17.47347,40.80322,0 17.4729,40.802,0
17.47164,40.80002,0 17.47189,40.79962,0 17.47474,40.79824,0 17.47594,40.79812,0 17.4778,40.79711,0
17.47802,40.79602,0 17.47789,40.79519,0 17.47817,40.79486,0 17.47929,40.79454,0 17.48001,40.79413,0
17.48137,40.79276,0 17.4832,40.79109,0 17.48798,40.78783,0 17.48904,40.78794,0 17.49478,40.78589,0
17.49861,40.78419,0 17.50261,40.78353,0 17.50281,40.78314,0 17.50536,40.78293,0 17.50633,40.78274,0
17.50806,40.78266,0 17.50841,40.78321,0 17.51065,40.78477,0 17.51031,40.78518,0 17.51074,40.78551,0
17.51115,40.78502,0 17.51627,40.78137,0 17.51792,40.78083,0 17.51825,40.78043,0 17.5196,40.77986,0
17.52308,40.77856,0 17.52538,40.77796,0 17.52677,40.77808,0 17.52948,40.77793,0 17.5324,40.77845,0
17.53352,40.77837,0 17.53471,40.7776,0 17.5363,40.77696,0 17.53925,40.7779,0 17.54235,40.77862,0
17.54346,40.77846,0 17.54541,40.77844,0 17.54558,40.7781,0 17.54657,40.77748,0 17.54828,40.77669,0
17.54947,40.77602,0 17.55065,40.77504,0 17.55242,40.77249,0 17.55334,40.77144,0 17.55564,40.76947,0
17.55632,40.76877,0 17.55729,40.76552,0 17.558,40.76484,0 17.56139,40.76282,0 17.5637,40.76126,0
17.56448,40.75985,0 17.56483,40.75831,0 17.56342,40.75299,0 17.56362,40.75146,0 17.56467,40.74899,0
17.56505,40.74837,0 17.56665,40.7471,0 17.56798,40.74586,0 17.57121,40.74341,0 17.57164,40.74286,0
17.57206,40.7418,0 17.5725,40.74136,0 17.5761,40.74009,0 17.57697,40.73963,0 17.5775,40.73958,0
17.57895,40.73905,0 17.57941,40.73828,0 17.57925,40.73719,0 17.57996,40.73668,0 17.58072,40.73541,0
17.58054,40.73503,0 17.58059,40.73401,0 17.58028,40.7335,0 17.57953,40.73297,0 17.57816,40.73285,0
17.57881,40.73341,0 17.57798,40.73364,0
</coordinates>
   </LineString>
  </Placemark>
 </Folder>
</Document>
</kml>
