<?xml version="1.0" encoding="UTF-8"?>
<kml xmlns="http://www.opengis.net/kml/2.2">
<Document>
 <Folder>
  <name>09 Loop from Ostuni (to Martina Franca)</name>
  <description></description>
  <Placemark>
   <name>09 Loop from Ostuni (to Martina Franca)</name>
   <description><![CDATA[
distance: 32 miles
<br>
elevation: 1614 feet
<br>
RWGPS: https://tinyurl.com/3a3huwcs
   ]]></description>
   <Style>
    <LineStyle>
     <color>ffbc7b0f</color>
     <width>3</width>
    </LineStyle>
   </Style>
   <LineString>
    <tessellate>1</tessellate>
    <coordinates>
17.57874,40.73191,0 17.58055,40.7292,0 17.58044,40.72839,0 17.58075,40.72734,0 17.57997,40.72721,0
17.57916,40.72597,0 17.57841,40.72619,0 17.57396,40.72794,0 17.57285,40.7266,0 17.57172,40.72559,0
17.5696,40.72454,0 17.56907,40.72407,0 17.56827,40.72288,0 17.56735,40.72198,0 17.56633,40.7212,0
17.56552,40.71993,0 17.56403,40.71913,0 17.56317,40.71845,0 17.5625,40.71765,0 17.56213,40.7164,0
17.56157,40.71588,0 17.56,40.7154,0 17.55808,40.71437,0 17.55639,40.71389,0 17.55491,40.71373,0
17.55415,40.71338,0 17.55322,40.71244,0 17.55228,40.71188,0 17.54921,40.71126,0 17.5468,40.71097,0
17.54576,40.71019,0 17.54264,40.70879,0 17.5403,40.7074,0 17.53962,40.70731,0 17.53772,40.70769,0
17.53612,40.70716,0 17.53431,40.70681,0 17.5334,40.70623,0 17.53254,40.70609,0 17.53087,40.70656,0
17.52846,40.70752,0 17.5285,40.70851,0 17.52876,40.70897,0 17.52749,40.70968,0 17.52697,40.70947,0
17.52556,40.70989,0 17.52451,40.71059,0 17.52333,40.71091,0 17.52336,40.71144,0 17.52242,40.71235,0
17.52214,40.71292,0 17.52024,40.71456,0 17.51804,40.71553,0 17.51685,40.71574,0 17.51392,40.71651,0
17.51253,40.71671,0 17.51071,40.71765,0 17.50897,40.7183,0 17.50749,40.71927,0 17.50668,40.71942,0
17.50628,40.71981,0 17.50498,40.72047,0 17.50352,40.72164,0 17.50212,40.722,0 17.5004,40.72342,0
17.50097,40.7239,0 17.50125,40.72465,0 17.50112,40.7253,0 17.50033,40.72621,0 17.50037,40.72649,0
17.49713,40.72649,0 17.49657,40.72667,0 17.49524,40.72756,0 17.49334,40.72824,0 17.49182,40.72932,0
17.48896,40.73208,0 17.48803,40.73254,0 17.48543,40.73322,0 17.48457,40.73335,0 17.48384,40.73382,0
17.4813,40.73493,0 17.48024,40.73571,0 17.47845,40.73604,0 17.47759,40.73634,0 17.47572,40.73727,0
17.47451,40.73721,0 17.47237,40.73811,0 17.47122,40.73813,0 17.46941,40.73869,0 17.46852,40.73915,0
17.46675,40.73939,0 17.46467,40.7393,0 17.46334,40.73964,0 17.46184,40.73979,0 17.46027,40.73979,0
17.45956,40.74031,0 17.45794,40.74121,0 17.4571,40.74129,0 17.45504,40.7399,0 17.45429,40.73967,0
17.45293,40.73995,0 17.45217,40.73995,0 17.44787,40.74034,0 17.44664,40.74058,0 17.4453,40.7405,0
17.44417,40.74072,0 17.4436,40.7412,0 17.44198,40.74159,0 17.44115,40.7416,0 17.43893,40.74206,0
17.43762,40.74189,0 17.43711,40.74203,0 17.43651,40.74175,0 17.43519,40.74157,0 17.43315,40.74097,0
17.432,40.74123,0 17.43145,40.74091,0 17.43063,40.74086,0 17.42974,40.73985,0 17.4303,40.7392,0
17.429,40.73879,0 17.42808,40.73867,0 17.42684,40.73884,0 17.42333,40.7399,0 17.4214,40.74072,0
17.42049,40.74087,0 17.41982,40.74076,0 17.41869,40.74002,0 17.4178,40.73887,0 17.41641,40.73798,0
17.41458,40.73721,0 17.41325,40.73583,0 17.41162,40.735,0 17.41073,40.73406,0 17.40977,40.73349,0
17.40876,40.73324,0 17.40594,40.73309,0 17.40323,40.73228,0 17.4015,40.73215,0 17.40097,40.73189,0
17.39958,40.7308,0 17.39736,40.72949,0 17.39673,40.72928,0 17.39392,40.72918,0 17.39103,40.72807,0
17.39004,40.72722,0 17.38533,40.72535,0 17.38492,40.725,0 17.38373,40.72332,0 17.38282,40.72244,0
17.37977,40.7202,0 17.37786,40.71973,0 17.37517,40.71878,0 17.37281,40.71705,0 17.37193,40.71665,0
17.37104,40.7155,0 17.37004,40.71479,0 17.36706,40.71368,0 17.36597,40.71356,0 17.36345,40.71381,0
17.36169,40.71342,0 17.35981,40.71365,0 17.35934,40.71356,0 17.3574,40.71273,0 17.3558,40.71146,0
17.35516,40.71109,0 17.3518,40.70992,0 17.34895,40.70978,0 17.34698,40.70926,0 17.34525,40.70866,0
17.34265,40.70799,0 17.34175,40.70761,0 17.34142,40.70667,0 17.34189,40.70648,0 17.34174,40.70596,0
17.34282,40.70524,0 17.34041,40.70457,0 17.33967,40.70336,0 17.33957,40.70393,0 17.33867,40.70415,0
17.33928,40.70474,0 17.33797,40.70529,0 17.33659,40.70549,0 17.33637,40.7049,0 17.33769,40.70448,0
17.33866,40.70448,0 17.33836,40.70371,0 17.339,40.70353,0 17.33879,40.70303,0 17.34335,40.70174,0
17.34401,40.70148,0 17.34551,40.70018,0 17.34844,40.69934,0 17.35095,40.69886,0 17.35174,40.69927,0
17.35408,40.6987,0 17.35553,40.69854,0 17.35758,40.69869,0 17.36,40.69807,0 17.36165,40.69743,0
17.36359,40.69647,0 17.37452,40.6894,0 17.37518,40.6892,0 17.37693,40.68932,0 17.37905,40.69069,0
17.38037,40.6906,0 17.38627,40.68985,0 17.38853,40.68936,0 17.39084,40.68979,0 17.39189,40.69014,0
17.39278,40.69019,0 17.39769,40.68973,0 17.40176,40.68926,0 17.40843,40.68648,0 17.41663,40.68298,0
17.41744,40.6828,0 17.42246,40.68218,0 17.42468,40.68107,0 17.4257,40.6826,0 17.42566,40.68298,0
17.42649,40.6844,0 17.42632,40.68692,0 17.42603,40.68741,0 17.42599,40.68817,0 17.42688,40.68942,0
17.42718,40.69072,0 17.42796,40.69308,0 17.42911,40.6943,0 17.4301,40.69617,0 17.43208,40.69619,0
17.43535,40.69634,0 17.44067,40.69595,0 17.44264,40.69595,0 17.44445,40.69572,0 17.44843,40.69637,0
17.44964,40.6964,0 17.45241,40.69595,0 17.4542,40.69597,0 17.45534,40.69582,0 17.45698,40.6954,0
17.45916,40.69523,0 17.46038,40.69534,0 17.46168,40.69514,0 17.46206,40.6953,0 17.46602,40.69289,0
17.47152,40.69117,0 17.47383,40.6909,0 17.4755,40.69104,0 17.47654,40.69132,0 17.47752,40.6919,0
17.47862,40.69285,0 17.48013,40.69387,0 17.48286,40.69618,0 17.48441,40.69762,0 17.48662,40.69865,0
17.48879,40.69995,0 17.49111,40.70062,0 17.49363,40.70122,0 17.49477,40.70106,0 17.49562,40.70128,0
17.49677,40.70197,0 17.49761,40.70212,0 17.49844,40.70254,0 17.49983,40.70402,0 17.50097,40.70456,0
17.50221,40.70463,0 17.50346,40.70506,0 17.50443,40.70514,0 17.50515,40.70541,0 17.50621,40.7062,0
17.50712,40.70661,0 17.50868,40.70758,0 17.50928,40.70763,0 17.51135,40.70743,0 17.51271,40.70775,0
17.51447,40.70761,0 17.51722,40.70848,0 17.51948,40.70884,0 17.52018,40.70881,0 17.52312,40.70783,0
17.52445,40.7078,0 17.52515,40.70747,0 17.52704,40.70767,0 17.52846,40.70752,0 17.53087,40.70656,0
17.53254,40.70609,0 17.5334,40.70623,0 17.53431,40.70681,0 17.53612,40.70716,0 17.53772,40.70769,0
17.53962,40.70731,0 17.5403,40.7074,0 17.54264,40.70879,0 17.54576,40.71019,0 17.5468,40.71097,0
17.54921,40.71126,0 17.55228,40.71188,0 17.55322,40.71244,0 17.55415,40.71338,0 17.55491,40.71373,0
17.55639,40.71389,0 17.55808,40.71437,0 17.56,40.7154,0 17.56157,40.71588,0 17.56213,40.7164,0
17.5625,40.71765,0 17.56317,40.71845,0 17.56403,40.71913,0 17.56552,40.71993,0 17.56633,40.7212,0
17.56735,40.72198,0 17.56827,40.72288,0 17.56907,40.72407,0 17.5696,40.72454,0 17.5708,40.72516,0
17.57132,40.72516,0 17.57285,40.7266,0 17.57428,40.72848,0 17.57472,40.72864,0 17.57617,40.72827,0
17.57655,40.72902,0 17.57765,40.73013,0 17.57861,40.73133,0 17.5786,40.73164,0
</coordinates>
   </LineString>
  </Placemark>
 </Folder>
</Document>
</kml>
