<?xml version="1.0" ?>
<kml xmlns="http://www.opengis.net/kml/2.2">
<Document>
 <Folder>
  <name>10 Ostuni - Avetrana (Masseria Bosco)</name>
  <description></description>
  <Placemark>
   <name>10 Ostuni - Avetrana (Masseria Bosco)</name>
   <description><![CDATA[
distance: 38 miles
<br>
elevation: 807 feet
<br>
link: https://tinyurl.com/mrx796xk
   ]]></description>
   <Style>
    <LineStyle>
     <color>ff0f0fbc</color>
     <width>3</width>
    </LineStyle>
   </Style>
   <LineString>
    <tessellate>1</tessellate>
    <coordinates>
17.57845,40.73215,0 17.57948,40.73093,0 17.58054,40.72926,0 17.58044,40.72839,0 17.58124,40.72548,0
17.58144,40.7237,0 17.58109,40.72314,0 17.58192,40.72124,0 17.58207,40.7205,0 17.58189,40.71907,0
17.58268,40.71812,0 17.58309,40.71636,0 17.58349,40.71631,0 17.58504,40.71384,0 17.5863,40.713,0
17.58674,40.71228,0 17.58763,40.70707,0 17.58837,40.70445,0 17.58855,40.70274,0 17.59055,40.69909,0
17.59243,40.69749,0 17.5931,40.69612,0 17.59375,40.69582,0 17.59529,40.69593,0 17.59566,40.69578,0
17.59653,40.69343,0 17.59679,40.6931,0 17.59872,40.69154,0 17.60056,40.69088,0 17.60184,40.68952,0
17.60404,40.68833,0 17.60463,40.68765,0 17.60596,40.68342,0 17.60716,40.68149,0 17.60757,40.6811,0
17.60975,40.67971,0 17.61145,40.67942,0 17.61227,40.67946,0 17.61352,40.67989,0 17.61442,40.67982,0
17.61636,40.67889,0 17.62022,40.67723,0 17.62236,40.67581,0 17.62427,40.67245,0 17.6255,40.6689,0
17.62618,40.66623,0 17.62653,40.66533,0 17.6266,40.66377,0 17.62747,40.6613,0 17.63099,40.65631,0
17.6321,40.65371,0 17.63301,40.65182,0 17.63437,40.64802,0 17.63422,40.64722,0 17.63324,40.6443,0
17.63185,40.64458,0 17.63164,40.64439,0 17.63192,40.64359,0 17.63213,40.63311,0 17.63219,40.63142,0
17.63193,40.63067,0 17.62836,40.63047,0 17.6209,40.62991,0 17.61792,40.63056,0 17.61709,40.62966,0
17.61637,40.62814,0 17.61547,40.62724,0 17.61342,40.62584,0 17.61265,40.62459,0 17.6118,40.62264,0
17.60734,40.62293,0 17.60508,40.6238,0 17.60329,40.62395,0 17.60119,40.62454,0 17.59891,40.62531,0
17.59573,40.62672,0 17.59515,40.62733,0 17.59459,40.62852,0 17.59182,40.62905,0 17.58677,40.62946,0
17.58529,40.62989,0 17.58333,40.63104,0 17.58149,40.6313,0 17.58007,40.63117,0 17.57837,40.63179,0
17.5768,40.63108,0 17.57662,40.62977,0 17.57603,40.62864,0 17.5751,40.62606,0 17.57454,40.62321,0
17.57308,40.61978,0 17.57229,40.61859,0 17.57171,40.61811,0 17.56958,40.61867,0 17.56839,40.61925,0
17.56795,40.61891,0 17.5666,40.61834,0 17.56529,40.61819,0 17.56397,40.6178,0 17.56511,40.61646,0
17.56667,40.61568,0 17.56755,40.61473,0 17.56841,40.61326,0 17.5688,40.61289,0 17.57045,40.61197,0
17.57075,40.61081,0 17.57104,40.60506,0 17.57178,40.60384,0 17.57388,40.60164,0 17.57304,40.60133,0
17.57469,40.59849,0 17.57514,40.59507,0 17.5757,40.59343,0 17.5775,40.59045,0 17.57791,40.58963,0
17.58079,40.57731,0 17.5814,40.57494,0 17.58235,40.57055,0 17.58302,40.56883,0 17.58321,40.56776,0
17.58355,40.56145,0 17.5837,40.56094,0 17.58413,40.55666,0 17.58498,40.55232,0 17.58615,40.54501,0
17.586,40.5433,0 17.58573,40.54194,0 17.58546,40.5414,0 17.58519,40.53947,0 17.58381,40.53883,0
17.58292,40.53789,0 17.58266,40.53681,0 17.58259,40.53567,0 17.58283,40.53466,0 17.58252,40.5334,0
17.58466,40.53302,0 17.58406,40.53131,0 17.58289,40.53051,0 17.58399,40.52961,0 17.58519,40.5293,0
17.58675,40.52861,0 17.58944,40.52814,0 17.59045,40.52811,0 17.59259,40.52829,0 17.59526,40.52795,0
17.59804,40.52772,0 17.59871,40.52707,0 17.60048,40.52675,0 17.60224,40.52584,0 17.60459,40.52577,0
17.60597,40.52517,0 17.6067,40.52426,0 17.60826,40.52286,0 17.61025,40.52129,0 17.6121,40.52018,0
17.61406,40.51992,0 17.61552,40.5199,0 17.61609,40.5197,0 17.61749,40.5187,0 17.61852,40.51831,0
17.61963,40.51765,0 17.62128,40.51645,0 17.62287,40.51569,0 17.62444,40.51474,0 17.62616,40.51431,0
17.62846,40.51256,0 17.62928,40.51216,0 17.63094,40.51097,0 17.63288,40.51034,0 17.63488,40.50847,0
17.63585,40.50773,0 17.63777,40.50546,0 17.63987,40.50365,0 17.64104,40.50171,0 17.64006,40.50099,0
17.6398,40.5004,0 17.63988,40.49871,0 17.63974,40.49783,0 17.63991,40.49715,0 17.64042,40.49678,0
17.6421,40.49608,0 17.64286,40.49607,0 17.64362,40.49658,0 17.64487,40.4963,0 17.64672,40.49566,0
17.65522,40.49254,0 17.65533,40.49202,0 17.65335,40.49051,0 17.65502,40.488,0 17.65576,40.4867,0
17.65825,40.48135,0 17.65879,40.48061,0 17.66388,40.47546,0 17.67081,40.46741,0 17.67372,40.4641,0
17.67418,40.4634,0 17.6753,40.4609,0 17.67687,40.46083,0 17.67701,40.46154,0 17.6774,40.46173,0
17.68608,40.46161,0 17.68654,40.46131,0 17.68885,40.45724,0 17.68941,40.45645,0 17.69095,40.45518,0
17.69465,40.45247,0 17.69631,40.45087,0 17.6975,40.4489,0 17.69835,40.44776,0 17.70102,40.44547,0
17.7026,40.4447,0 17.70624,40.44388,0 17.71468,40.44137,0 17.72004,40.44057,0 17.72407,40.43954,0
17.72679,40.4389,0 17.73522,40.43917,0 17.73544,40.4361,0 17.73584,40.43226,0 17.74011,40.41909,0
17.74019,40.41904,0 17.74195,40.41363,0 17.74283,40.41068,0 17.74242,40.41025,0 17.7408,40.41008,0
17.73426,40.40952,0 17.72917,40.40905,0 17.72811,40.40955,0 17.72628,40.40961,0 17.72547,40.40975,0
17.72549,40.40701,0 17.72562,40.40402,0 17.72629,40.38535,0 17.72645,40.38178,0 17.7271,40.36542,0
17.72398,40.36521,0 17.72388,40.36527,0 17.7239,40.36749,0 17.72232,40.36781,0 17.72136,40.37131,0
17.71958,40.37127,0
</coordinates>
   </LineString>
  </Placemark>
 </Folder>
</Document>
</kml>
