<?xml version="1.0" encoding="UTF-8"?>
<kml xmlns="http://www.opengis.net/kml/2.2">
<Document>
 <Folder>
  <name>13 Santa Maria di Leuca - Otranto</name>
  <description></description>
  <Placemark>
   <name>13 Santa Maria di Leuca - Otranto</name>
   <description><![CDATA[
distance: 32 miles
<br>
elevation: 2110 feet
<br>
RWGPS: https://tinyurl.com/5aey2txw
   ]]></description>
   <Style>
    <LineStyle>
     <color>ff0f33bc</color>
     <width>3</width>
    </LineStyle>
   </Style>
   <LineString>
    <tessellate>1</tessellate>
    <coordinates>
18.36204,39.79826,0 18.36299,39.79837,0 18.36498,39.80018,0 18.36588,39.80053,0 18.36693,39.80019,0
18.36811,39.79863,0 18.36952,39.79762,0 18.37064,39.79766,0 18.37276,39.79914,0 18.37362,39.79992,0
18.37533,39.80186,0 18.37558,39.80291,0 18.37507,39.80428,0 18.37511,39.80491,0 18.37656,39.80784,0
18.37755,39.809,0 18.3792,39.80921,0 18.37975,39.80947,0 18.38167,39.81178,0 18.38307,39.81411,0
18.3844,39.81576,0 18.38528,39.81651,0 18.38858,39.81871,0 18.38912,39.81962,0 18.38907,39.8216,0
18.3887,39.82399,0 18.38832,39.82508,0 18.38499,39.83055,0 18.38461,39.83157,0 18.38442,39.83425,0
18.38418,39.83578,0 18.38426,39.83676,0 18.38416,39.83895,0 18.38449,39.83959,0 18.3845,39.84025,0
18.38418,39.84107,0 18.38423,39.84175,0 18.38561,39.84264,0 18.38607,39.84364,0 18.38593,39.84441,0
18.38636,39.84483,0 18.38742,39.84527,0 18.38822,39.84613,0 18.38847,39.84807,0 18.38914,39.85027,0
18.38936,39.8519,0 18.38976,39.85289,0 18.38972,39.85365,0 18.38937,39.85485,0 18.3873,39.85701,0
18.38698,39.8582,0 18.38719,39.8588,0 18.38996,39.86229,0 18.39033,39.86285,0 18.39054,39.86433,0
18.39094,39.86461,0 18.39069,39.86541,0 18.3919,39.86604,0 18.39293,39.86709,0 18.39277,39.86784,0
18.39191,39.86811,0 18.39114,39.86911,0 18.39115,39.86981,0 18.39164,39.87013,0 18.39353,39.87045,0
18.39456,39.87076,0 18.39547,39.87158,0 18.39586,39.87258,0 18.39608,39.87435,0 18.39606,39.87735,0
18.39622,39.87976,0 18.39603,39.88141,0 18.39391,39.88551,0 18.39375,39.88634,0 18.39387,39.88715,0
18.39469,39.88914,0 18.39463,39.89028,0 18.39356,39.89601,0 18.39331,39.89672,0 18.39248,39.89789,0
18.39117,39.90056,0 18.39109,39.90121,0 18.3906,39.90165,0 18.39012,39.90342,0 18.38919,39.90445,0
18.38765,39.90537,0 18.38711,39.90598,0 18.38707,39.90731,0 18.38579,39.90938,0 18.38584,39.90989,0
18.38652,39.9104,0 18.38939,39.91203,0 18.39068,39.91423,0 18.39062,39.91511,0 18.39197,39.9165,0
18.39228,39.91863,0 18.39131,39.92032,0 18.3905,39.92088,0 18.3899,39.92155,0 18.38946,39.92238,0
18.39038,39.92341,0 18.39151,39.92326,0 18.39189,39.92367,0 18.39208,39.92444,0 18.39266,39.92481,0
18.39373,39.92487,0 18.39407,39.9251,0 18.39446,39.92641,0 18.39482,39.92562,0 18.39514,39.92574,0
18.39426,39.92704,0 18.39409,39.928,0 18.39424,39.92965,0 18.3956,39.93175,0 18.39577,39.93235,0
18.39529,39.93298,0 18.39571,39.93433,0 18.39638,39.93445,0 18.39702,39.93399,0 18.39774,39.9345,0
18.39818,39.93767,0 18.39811,39.93851,0 18.39871,39.94128,0 18.40069,39.94496,0 18.40066,39.94685,0
18.40077,39.94825,0 18.40119,39.94935,0 18.402,39.95278,0 18.40227,39.95461,0 18.4022,39.95532,0
18.40263,39.95632,0 18.40259,39.95742,0 18.40222,39.95856,0 18.40256,39.96055,0 18.40249,39.96161,0
18.40334,39.96312,0 18.40433,39.96447,0 18.40435,39.96746,0 18.40485,39.9696,0 18.40504,39.9713,0
18.4058,39.97259,0 18.40569,39.97425,0 18.40581,39.97527,0 18.40606,39.97563,0 18.40649,39.97747,0
18.40727,39.97894,0 18.40815,39.97988,0 18.40933,39.98086,0 18.4108,39.98226,0 18.41124,39.98286,0
18.41211,39.98524,0 18.41205,39.98678,0 18.41227,39.98789,0 18.41356,39.99001,0 18.41378,39.99055,0
18.41356,39.99092,0 18.41267,39.99087,0 18.4116,39.99117,0 18.41178,39.99178,0 18.41288,39.99182,0
18.41418,39.9923,0 18.41482,39.99295,0 18.41564,39.9946,0 18.41579,39.99545,0 18.41625,39.99564,0
18.41847,39.99839,0 18.4213,40.0003,0 18.42162,40.00091,0 18.42141,40.00175,0 18.42159,40.00232,0
18.42225,40.00282,0 18.42354,40.00345,0 18.42352,40.00471,0 18.42197,40.00614,0 18.42196,40.00648,0
18.42384,40.00544,0 18.42432,40.0059,0 18.42473,40.00571,0 18.42615,40.00391,0 18.42823,40.00226,0
18.42879,40.00239,0 18.42916,40.0037,0 18.42935,40.00597,0 18.42998,40.00723,0 18.42993,40.00853,0
18.42956,40.00944,0 18.42945,40.01069,0 18.43016,40.01205,0 18.43007,40.01262,0 18.43114,40.01341,0
18.43127,40.01393,0 18.43234,40.01547,0 18.43247,40.0165,0 18.43308,40.01806,0 18.43345,40.01961,0
18.43411,40.02042,0 18.4343,40.02115,0 18.43415,40.02201,0 18.43373,40.02274,0 18.43404,40.02372,0
18.43447,40.02406,0 18.43492,40.02497,0 18.43603,40.02579,0 18.43732,40.02649,0 18.44038,40.02831,0
18.44172,40.02959,0 18.44231,40.03052,0 18.44343,40.03183,0 18.4438,40.03264,0 18.44442,40.03294,0
18.44563,40.03294,0 18.44639,40.03351,0 18.44876,40.03248,0 18.44938,40.03242,0 18.45062,40.03282,0
18.45162,40.03332,0 18.45225,40.03464,0 18.45306,40.03506,0 18.45616,40.03518,0 18.46104,40.03618,0
18.46088,40.03697,0 18.46335,40.03779,0 18.46507,40.03795,0 18.46563,40.03818,0 18.4674,40.03946,0
18.46792,40.03996,0 18.46822,40.04103,0 18.46929,40.04135,0 18.47036,40.04233,0 18.47075,40.0425,0
18.47162,40.04348,0 18.47246,40.04505,0 18.47311,40.04522,0 18.47327,40.04595,0 18.47403,40.04754,0
18.47433,40.04872,0 18.47428,40.04928,0 18.47481,40.05066,0 18.47422,40.05358,0 18.47429,40.05392,0
18.47518,40.05535,0 18.47552,40.05626,0 18.47506,40.05759,0 18.47535,40.05827,0 18.47494,40.05956,0
18.47423,40.06063,0 18.47416,40.06165,0 18.47476,40.06346,0 18.47522,40.06398,0 18.4792,40.06611,0
18.47986,40.06664,0 18.47979,40.06758,0 18.47873,40.06904,0 18.47908,40.06948,0 18.48027,40.06961,0
18.48058,40.07012,0 18.4802,40.07065,0 18.4809,40.07188,0 18.48051,40.07265,0 18.48091,40.07326,0
18.48081,40.07379,0 18.4822,40.0758,0 18.4822,40.07626,0 18.48165,40.07672,0 18.48156,40.07727,0
18.4832,40.07992,0 18.4832,40.08066,0 18.48198,40.08108,0 18.48132,40.08161,0 18.48055,40.08182,0
18.48112,40.08303,0 18.4811,40.08353,0 18.48281,40.08396,0 18.48533,40.08579,0 18.48563,40.08611,0
18.4889,40.0903,0 18.48928,40.09098,0 18.49034,40.09432,0 18.49047,40.09507,0 18.49008,40.09772,0
18.49021,40.09839,0 18.49109,40.09951,0 18.49278,40.10068,0 18.49543,40.10202,0 18.49612,40.10288,0
18.49699,40.10334,0 18.50072,40.10359,0 18.50131,40.10337,0 18.50187,40.10247,0 18.50332,40.10185,0
18.5041,40.1019,0 18.50508,40.10238,0 18.50657,40.10205,0 18.50734,40.10214,0 18.51517,40.10646,0
18.5161,40.10712,0 18.51648,40.10782,0 18.5163,40.10894,0 18.5144,40.11134,0 18.51257,40.11456,0
18.51124,40.11595,0 18.50952,40.11664,0 18.50743,40.11702,0 18.50636,40.11745,0 18.50314,40.11791,0
18.50164,40.11863,0 18.50117,40.11921,0 18.50018,40.12172,0 18.50002,40.12378,0 18.49968,40.12477,0
18.49778,40.12802,0 18.49751,40.1287,0 18.49731,40.13074,0 18.4968,40.13228,0 18.49685,40.13283,0
18.49805,40.13391,0 18.49843,40.13446,0 18.50003,40.13871,0 18.50051,40.13918,0 18.50041,40.13975,0
18.49933,40.14035,0 18.49779,40.14189,0 18.49722,40.14226,0 18.49494,40.14311,0 18.49419,40.1435,0
18.49355,40.14427,0 18.49228,40.14386,0 18.49132,40.14418,0 18.49283,40.14536,0
</coordinates>
   </LineString>
  </Placemark>
 </Folder>
</Document>
</kml>
