<?xml version="1.0" encoding="UTF-8"?>
<kml xmlns="http://www.opengis.net/kml/2.2">
<Document>
 <Folder>
  <name>14 Otranto - Lecce</name>
  <description></description>
  <Placemark>
   <name>14 Otranto - Lecce</name>
   <description><![CDATA[
distance: 34 miles
<br>
elevation: 955 feet
<br>
RWGPS: https://timk.short.gy/fnRh8Z
   ]]></description>
   <Style>
    <LineStyle>
     <color>ffbc1e0f</color>
     <width>3</width>
    </LineStyle>
   </Style>
   <LineString>
    <tessellate>1</tessellate>
    <coordinates>
18.48882,40.14626,0 18.48896,40.14608,0 18.4879,40.14587,0 18.48663,40.14735,0 18.48586,40.14801,0
18.48487,40.14813,0 18.48444,40.14755,0 18.48393,40.14773,0 18.48342,40.14861,0 18.48342,40.14963,0
18.4828,40.15062,0 18.48231,40.15086,0 18.48084,40.15216,0 18.4792,40.15281,0 18.47702,40.15331,0
18.47389,40.15414,0 18.47109,40.15543,0 18.4702,40.15563,0 18.47026,40.15677,0 18.47003,40.15738,0
18.46862,40.15943,0 18.46751,40.16064,0 18.46704,40.16147,0 18.46472,40.16884,0 18.46585,40.16909,0
18.46561,40.16942,0 18.46504,40.17266,0 18.46486,40.17306,0 18.46017,40.16955,0 18.4598,40.16947,0
18.45796,40.16993,0 18.4579,40.17052,0 18.45659,40.17564,0 18.45586,40.17759,0 18.4552,40.17901,0
18.4529,40.18133,0 18.45258,40.18187,0 18.45043,40.18667,0 18.44913,40.19014,0 18.44881,40.19077,0
18.44706,40.19032,0 18.44529,40.19074,0 18.44587,40.19196,0 18.44586,40.19234,0 18.44188,40.19891,0
18.44026,40.20121,0 18.43986,40.20291,0 18.43348,40.20128,0 18.43275,40.20306,0 18.43094,40.20718,0
18.42956,40.20807,0 18.42306,40.21061,0 18.42201,40.21135,0 18.42168,40.21197,0 18.42115,40.21484,0
18.42118,40.21537,0 18.42312,40.2201,0 18.42357,40.22067,0 18.42468,40.22127,0 18.42755,40.22189,0
18.43165,40.22443,0 18.43297,40.22486,0 18.43494,40.22477,0 18.43696,40.22547,0 18.43752,40.22542,0
18.43862,40.2248,0 18.4412,40.2227,0 18.44154,40.22281,0 18.44103,40.22403,0 18.4411,40.22465,0
18.44196,40.22679,0 18.44327,40.22868,0 18.44349,40.22943,0 18.4435,40.2313,0 18.44435,40.2391,0
18.44426,40.23966,0 18.43893,40.25321,0 18.43889,40.2538,0 18.43826,40.25451,0 18.43588,40.25846,0
18.4319,40.26536,0 18.4317,40.26741,0 18.43135,40.2682,0 18.42927,40.27041,0 18.42836,40.27227,0
18.42821,40.2735,0 18.42835,40.27419,0 18.42976,40.27443,0 18.43054,40.27533,0 18.43024,40.27596,0
18.42895,40.2764,0 18.42922,40.27704,0 18.43113,40.27907,0 18.43075,40.27935,0 18.43002,40.28209,0
18.43115,40.28215,0 18.43088,40.2832,0 18.43008,40.28375,0 18.42672,40.28517,0 18.42642,40.28611,0
18.42565,40.28698,0 18.42444,40.28792,0 18.42355,40.28939,0 18.4244,40.28957,0 18.42434,40.29121,0
18.42239,40.29343,0 18.42146,40.29292,0 18.42054,40.29342,0 18.41421,40.29621,0 18.41081,40.29684,0
18.40983,40.29732,0 18.40885,40.29816,0 18.40783,40.29802,0 18.40558,40.30008,0 18.40418,40.30205,0
18.40464,40.3021,0 18.40419,40.30273,0 18.40321,40.3029,0 18.40104,40.30352,0 18.3984,40.30553,0
18.39666,40.30718,0 18.39604,40.30761,0 18.38592,40.31366,0 18.37874,40.32123,0 18.37664,40.32358,0
18.37462,40.3277,0 18.36949,40.3337,0 18.36855,40.33469,0 18.36736,40.33527,0 18.35962,40.33729,0
18.35532,40.33916,0 18.35474,40.33953,0 18.3512,40.34269,0 18.35067,40.34333,0 18.34861,40.34824,0
18.34813,40.34883,0 18.34626,40.34997,0 18.33648,40.35316,0 18.32955,40.35462,0 18.32885,40.3549,0
18.32572,40.35679,0 18.32514,40.35735,0 18.32382,40.3595,0 18.32258,40.36018,0 18.3173,40.361,0
18.31601,40.36141,0 18.31545,40.36187,0 18.31154,40.36652,0 18.31003,40.36816,0 18.3054,40.36544,0
18.30473,40.36519,0 18.30248,40.36469,0 18.30167,40.36442,0 18.30228,40.36333,0 18.30205,40.36232,0
18.30272,40.36068,0 18.30268,40.35977,0 18.30332,40.35851,0 18.30361,40.3568,0 18.30355,40.35614,0
18.30392,40.35435,0 18.30333,40.35339,0 18.30361,40.3521,0 18.30444,40.35041,0 18.30509,40.34952,0
18.305,40.34826,0 18.30412,40.34698,0 18.30316,40.34659,0 18.30197,40.34569,0 18.30182,40.34443,0
18.30063,40.34203,0 18.30088,40.34156,0 18.30061,40.34074,0 18.29937,40.33907,0 18.29933,40.33825,0
18.29894,40.33725,0 18.29886,40.33621,0 18.2979,40.33601,0 18.29822,40.33496,0 18.29658,40.33457,0
18.29645,40.33421,0 18.29687,40.33313,0 18.29387,40.3328,0 18.2874,40.33409,0 18.28548,40.33499,0
18.28088,40.33609,0 18.27722,40.33672,0 18.27304,40.33663,0 18.27147,40.33711,0 18.26918,40.3371,0
18.26818,40.33682,0 18.26615,40.33648,0 18.26442,40.33634,0 18.26133,40.33563,0 18.26041,40.33576,0
18.25874,40.33665,0 18.25815,40.33677,0 18.25505,40.33668,0 18.25329,40.33691,0 18.25028,40.33692,0
18.24791,40.33737,0 18.24661,40.33747,0 18.24491,40.33715,0 18.24395,40.33648,0 18.24304,40.33624,0
18.24152,40.33616,0 18.23884,40.33564,0 18.23731,40.33525,0 18.23632,40.33515,0 18.2361,40.33464,0
18.23461,40.33346,0 18.2329,40.33305,0 18.23202,40.3325,0 18.22813,40.33261,0 18.22699,40.33299,0
18.22587,40.33298,0 18.22581,40.33378,0 18.22539,40.33471,0 18.22497,40.33506,0 18.22393,40.33533,0
18.22296,40.33533,0 18.22081,40.33495,0 18.21821,40.33525,0 18.21684,40.33562,0 18.216,40.33621,0
18.21373,40.33631,0 18.21271,40.33672,0 18.209,40.33702,0 18.20734,40.33791,0 18.20581,40.33828,0
18.20281,40.3401,0 18.20001,40.34201,0 18.19856,40.34275,0 18.19623,40.34373,0 18.19383,40.34486,0
18.19363,40.3452,0 18.19282,40.34529,0 18.19008,40.34622,0 18.18602,40.34749,0 18.18297,40.34821,0
18.18225,40.34643,0 18.18034,40.34707,0 18.17875,40.34741,0 18.17314,40.34931,0 18.17291,40.34928,0
18.17377,40.35028,0 18.17252,40.35052,0 18.17296,40.35241,0 18.17294,40.35305,0
</coordinates>
   </LineString>
  </Placemark>
 </Folder>
</Document>
</kml>
