<?xml version="1.0" ?>
<kml xmlns="http://www.opengis.net/kml/2.2">
<Document>
 <Folder>
  <name>D5_Avetrana-Sant Isidoro-Gallipoli (ENGLISH)</name>
  <description></description>
  <Placemark>
   <name>D5_Avetrana-Sant Isidoro-Gallipoli (ENGLISH)</name>
   <description><![CDATA[
distance: 36 miles
<br>
elevation: 889 feet
<br>
link: https://tinyurl.com/yssp5aas
   ]]></description>
   <Style>
    <LineStyle>
     <color>ff0f0fbc</color>
     <width>3</width>
    </LineStyle>
   </Style>
   <LineString>
    <tessellate>1</tessellate>
    <coordinates>
17.7196,40.37127,0 17.72136,40.37131,0 17.72232,40.36781,0 17.7239,40.36749,0 17.72388,40.36527,0
17.72398,40.36521,0 17.7271,40.36542,0 17.7273,40.36008,0 17.72562,40.35979,0 17.72624,40.35754,0
17.72651,40.35101,0 17.72668,40.3485,0 17.72695,40.34851,0 17.72891,40.34568,0 17.72906,40.34498,0
17.73073,40.34317,0 17.73278,40.34065,0 17.73641,40.33735,0 17.73891,40.33434,0 17.74227,40.33059,0
17.74246,40.33021,0 17.74276,40.32828,0 17.74241,40.32701,0 17.74205,40.32442,0 17.74266,40.32142,0
17.74311,40.32035,0 17.74372,40.31513,0 17.7436,40.31291,0 17.74489,40.30807,0 17.7445,40.30418,0
17.74397,40.30378,0 17.74905,40.30344,0 17.7541,40.3025,0 17.76263,40.30096,0 17.76575,40.30085,0
17.76622,40.30053,0 17.76669,40.30084,0 17.7685,40.3008,0 17.77799,40.29969,0 17.7917,40.29659,0
17.79405,40.29615,0 17.80319,40.29463,0 17.81085,40.29328,0 17.8187,40.29194,0 17.82023,40.29162,0
17.82433,40.29057,0 17.83867,40.28782,0 17.84419,40.28674,0 17.84429,40.28667,0 17.85152,40.28853,0
17.85258,40.28862,0 17.86329,40.285,0 17.86849,40.28239,0 17.87011,40.28143,0 17.87961,40.27437,0
17.88054,40.27379,0 17.88804,40.27037,0 17.88862,40.26967,0 17.88891,40.27005,0 17.88823,40.26995,0
17.88966,40.26713,0 17.88947,40.26687,0 17.88755,40.26625,0 17.88593,40.26719,0 17.88497,40.26738,0
17.88494,40.26612,0 17.88666,40.26484,0 17.88931,40.26241,0 17.88886,40.26213,0 17.8906,40.26047,0
17.89141,40.26015,0 17.89158,40.25943,0 17.89123,40.25907,0 17.89123,40.25805,0 17.89103,40.25748,0
17.89289,40.25698,0 17.89337,40.25781,0 17.89433,40.25858,0 17.89388,40.25922,0 17.8944,40.25991,0
17.895,40.26012,0 17.89609,40.25979,0 17.89661,40.26002,0 17.89587,40.26102,0 17.89947,40.26261,0
17.90314,40.25761,0 17.90451,40.25654,0 17.90568,40.25486,0 17.9062,40.25436,0 17.91065,40.25066,0
17.91105,40.2502,0 17.91437,40.24377,0 17.91698,40.23749,0 17.92477,40.22771,0 17.92749,40.2212,0
17.92748,40.22024,0 17.92692,40.21829,0 17.92636,40.21731,0 17.92553,40.21681,0 17.92396,40.21642,0
17.92341,40.21569,0 17.92355,40.2153,0 17.92724,40.21071,0 17.92744,40.21,0 17.92768,40.20142,0
17.92786,40.19406,0 17.9282,40.19324,0 17.92899,40.19268,0 17.93222,40.19128,0 17.93289,40.19068,0
17.93547,40.18767,0 17.93601,40.18668,0 17.93633,40.18533,0 17.93669,40.18455,0 17.94095,40.17854,0
17.94224,40.17749,0 17.94502,40.17577,0 17.94552,40.17519,0 17.94788,40.17087,0 17.95065,40.16783,0
17.95178,40.16695,0 17.95214,40.16492,0 17.95362,40.16192,0 17.95402,40.16137,0 17.95559,40.16014,0
17.95654,40.1598,0 17.96036,40.15961,0 17.96117,40.15969,0 17.96427,40.16046,0 17.96661,40.16045,0
17.96732,40.16061,0 17.97062,40.16203,0 17.97171,40.16183,0 17.97312,40.16047,0 17.97609,40.1583,0
17.97769,40.15669,0 17.97855,40.15552,0 17.98135,40.15198,0 17.98191,40.14996,0 17.98381,40.14732,0
17.98396,40.1468,0 17.98547,40.14588,0 17.98609,40.14578,0 17.98702,40.14605,0 17.98759,40.14518,0
17.98601,40.14375,0 17.9842,40.14392,0 17.98381,40.14354,0 17.98348,40.14247,0 17.98289,40.1418,0
17.98215,40.14148,0 17.98068,40.14117,0 17.98089,40.14025,0 17.98058,40.13889,0 17.98121,40.13867,0
17.98204,40.13942,0 17.98342,40.14014,0 17.98452,40.13984,0 17.98705,40.14068,0 17.98739,40.14057,0
17.98761,40.13979,0 17.98871,40.13909,0 17.98899,40.13824,0 17.98956,40.13733,0 17.9893,40.1359,0
17.98967,40.13518,0 17.99169,40.1347,0 17.99309,40.13409,0 17.99352,40.13352,0 17.99459,40.13265,0
17.99611,40.13182,0 17.99681,40.13164,0 17.99688,40.1312,0 17.99608,40.13035,0 17.99482,40.13086,0
17.99384,40.12966,0 17.99384,40.12922,0 17.99562,40.12851,0 17.99623,40.1278,0 17.99709,40.12567,0
17.99844,40.12459,0 17.99886,40.12299,0 18.00001,40.12044,0 18.00174,40.11894,0 18.00236,40.11817,0
18.00313,40.11648,0 18.00355,40.11467,0 18.00399,40.11388,0 18.00509,40.1136,0 18.00551,40.11392,0
18.00771,40.11231,0 18.00731,40.11199,0 18.0106,40.10955,0 18.01115,40.10928,0 18.01518,40.1083,0
18.01613,40.10789,0 18.01745,40.10684,0 18.01789,40.10628,0 18.01932,40.10362,0 18.01921,40.10292,0
18.01976,40.10272,0 18.01992,40.09953,0 18.02001,40.09901,0 18.02096,40.0973,0 18.02141,40.0941,0
18.02105,40.09275,0 18.02048,40.09218,0 18.01938,40.09165,0 18.01713,40.09118,0 18.01614,40.09015,0
18.01572,40.0895,0 18.01498,40.08757,0 18.01441,40.08651,0 18.01085,40.08257,0 18.00881,40.07962,0
18.00768,40.07822,0 18.0061,40.07321,0 18.00389,40.06861,0 18.00328,40.06752,0 17.99533,40.06131,0
17.99422,40.06073,0 17.99393,40.06031,0 17.9929,40.05668,0 17.99207,40.05596,0 17.98731,40.05605,0
17.98698,40.05544,0
</coordinates>
   </LineString>
  </Placemark>
 </Folder>
</Document>
</kml>
