<?xml version="1.0" ?>
<kml xmlns="http://www.opengis.net/kml/2.2">
<Document>
 <Folder>
  <name>D6_Gallipoli - Santa Maria di Leuca (Masseria Palane)</name>
  <description></description>
  <Placemark>
   <name>D6_Gallipoli - Santa Maria di Leuca (Masseria Palane)</name>
   <description><![CDATA[
distance: 36 miles
<br>
elevation: 781 feet
<br>
link: https://tinyurl.com/4k8u8pnx
   ]]></description>
   <Style>
    <LineStyle>
     <color>ff0f33bc</color>
     <width>3</width>
    </LineStyle>
   </Style>
   <LineString>
    <tessellate>1</tessellate>
    <coordinates>
17.98109,40.05612,0 17.98795,40.05402,0 17.98986,40.0538,0 17.99769,40.05119,0 18.00057,40.04937,0
18.00223,40.04856,0 18.00369,40.04802,0 18.00552,40.04704,0 18.01051,40.04265,0 18.01105,40.04211,0
18.01412,40.03811,0 18.01624,40.03504,0 18.01797,40.03191,0 18.01846,40.03037,0 18.01957,40.02781,0
18.0202,40.02549,0 18.02133,40.02414,0 18.02162,40.02315,0 18.0227,40.01781,0 18.02279,40.01715,0
18.02261,40.01425,0 18.02266,40.01274,0 18.02323,40.00413,0 18.02311,40.00336,0 18.0214,39.99831,0
18.02142,39.99773,0 18.02186,39.99676,0 18.02173,39.99602,0 18.01842,39.99047,0 18.01672,39.98411,0
18.01648,39.9837,0 18.01334,39.98038,0 18.01294,39.97906,0 18.01314,39.97832,0 18.01508,39.9754,0
18.0155,39.97343,0 18.01826,39.9701,0 18.01856,39.9699,0 18.02059,39.9694,0 18.02401,39.96615,0
18.02465,39.96507,0 18.02621,39.96354,0 18.027,39.96227,0 18.02788,39.96131,0 18.02772,39.96008,0
18.02804,39.95941,0 18.02982,39.95761,0 18.03117,39.95143,0 18.03165,39.95079,0 18.0332,39.94987,0
18.03357,39.94946,0 18.03421,39.94804,0 18.03539,39.94688,0 18.03466,39.94643,0 18.03459,39.94537,0
18.03514,39.94409,0 18.03716,39.94237,0 18.03907,39.94128,0 18.03966,39.94041,0 18.04318,39.93711,0
18.04428,39.93772,0 18.04689,39.93374,0 18.04707,39.93305,0 18.04685,39.93152,0 18.04701,39.93091,0
18.04773,39.92967,0 18.04857,39.92905,0 18.05196,39.92835,0 18.05337,39.92762,0 18.0536,39.92714,0
18.0545,39.92672,0 18.05483,39.92595,0 18.05552,39.92569,0 18.05646,39.92499,0 18.0569,39.92497,0
18.05831,39.92369,0 18.05957,39.92301,0 18.06021,39.92309,0 18.06123,39.92282,0 18.06155,39.92239,0
18.06268,39.9221,0 18.06385,39.92149,0 18.06455,39.92075,0 18.06571,39.92021,0 18.06671,39.91923,0
18.06768,39.91886,0 18.06854,39.91898,0 18.06919,39.91965,0 18.07088,39.91487,0 18.07344,39.91279,0
18.07506,39.91223,0 18.0759,39.91032,0 18.0776,39.90764,0 18.07794,39.90728,0 18.08078,39.90544,0
18.08401,39.90417,0 18.08442,39.90391,0 18.08624,39.90151,0 18.0866,39.9012,0 18.09013,39.89978,0
18.09061,39.89967,0 18.09267,39.8997,0 18.0948,39.89896,0 18.0982,39.89697,0 18.09958,39.89643,0
18.1004,39.89555,0 18.10437,39.89403,0 18.10637,39.89234,0 18.10685,39.89078,0 18.10719,39.89062,0
18.10828,39.89087,0 18.10942,39.89077,0 18.11086,39.8898,0 18.11198,39.88877,0 18.11262,39.8872,0
18.11335,39.88663,0 18.114,39.88663,0 18.11402,39.88699,0 18.11541,39.88759,0 18.11693,39.88776,0
18.11662,39.88821,0 18.1177,39.88867,0 18.1169,39.88963,0 18.11579,39.8903,0 18.12436,39.8938,0
18.12508,39.89405,0 18.13717,39.88514,0 18.14542,39.87929,0 18.14862,39.87705,0 18.15642,39.87272,0
18.15808,39.87173,0 18.1596,39.87056,0 18.16553,39.86583,0 18.16784,39.86447,0 18.17969,39.85806,0
18.18622,39.85444,0 18.18868,39.85278,0 18.18888,39.85255,0 18.18997,39.85307,0 18.19353,39.85065,0
18.19269,39.85005,0 18.19403,39.84925,0 18.20275,39.84534,0 18.20692,39.84469,0 18.20712,39.84527,0
18.20953,39.84492,0 18.20967,39.84529,0 18.21011,39.84501,0 18.21195,39.84436,0 18.21177,39.84399,0
18.21264,39.84385,0 18.22084,39.84165,0 18.23029,39.83908,0 18.239,39.83767,0 18.23975,39.83767,0
18.24804,39.83848,0 18.25117,39.83847,0 18.25143,39.83835,0 18.25146,39.83746,0 18.25704,39.8373,0
18.25874,39.83672,0 18.25989,39.83661,0 18.26199,39.83685,0 18.26312,39.83682,0 18.26472,39.83644,0
18.26646,39.83555,0 18.26798,39.83512,0 18.27183,39.83437,0 18.27405,39.83309,0 18.27376,39.83282,0
18.27558,39.83137,0 18.27654,39.83086,0 18.27716,39.83115,0 18.27803,39.83007,0 18.27906,39.83024,0
18.28031,39.82955,0 18.28018,39.82885,0 18.28331,39.8272,0 18.28384,39.82699,0 18.28664,39.8263,0
18.28737,39.82602,0 18.295,39.82274,0 18.29961,39.82124,0 18.30424,39.81912,0 18.30704,39.81803,0
18.31278,39.8151,0 18.31688,39.81164,0 18.3179,39.81122,0 18.32148,39.81058,0 18.32352,39.80936,0
18.32479,39.80931,0 18.32541,39.80911,0 18.32682,39.80825,0 18.3277,39.80754,0 18.32846,39.80626,0
18.32887,39.8045,0 18.3318,39.80081,0 18.33229,39.80007,0 18.33347,39.79771,0 18.33428,39.7968,0
18.33587,39.79627,0 18.34014,39.79621,0 18.34126,39.7957,0 18.34314,39.79341,0 18.34442,39.79268,0
18.34576,39.79248,0 18.34664,39.7926,0 18.34895,39.79354,0 18.35148,39.79357,0 18.35283,39.79558,0
18.35341,39.79597,0 18.35471,39.79605,0 18.35453,39.7967,0 18.35731,39.79751,0 18.35857,39.79799,0
18.35862,39.79862,0 18.35657,39.80321,0 18.35671,39.80416,0 18.35628,39.80495,0 18.35468,39.8065,0
18.3532,39.80815,0 18.35442,39.81167,0 18.35533,39.81314,0 18.35601,39.81478,0 18.35641,39.81638,0
18.35617,39.81965,0 18.35515,39.82114,0 18.35399,39.82203,0 18.35363,39.8225,0 18.35218,39.82315,0
18.34962,39.824,0 18.34871,39.82519,0 18.34795,39.82583,0 18.34689,39.82572,0 18.34623,39.82627,0
18.34533,39.82752,0 18.34434,39.82815,0 18.34434,39.82906,0 18.34394,39.83048,0 18.34316,39.83148,0
18.34173,39.83286,0
</coordinates>
   </LineString>
  </Placemark>
 </Folder>
</Document>
</kml>
