<?xml version="1.0" ?>
<kml xmlns="http://www.opengis.net/kml/2.2">
  <Document>
    <Folder>
      <name>Hotels 2</name>
      <Placemark>
        <name>Mare Resort</name>
        <description>Trani</description>
        <styleUrl>#paddle-blu-circle</styleUrl>
        <Point>
          <coordinates>16.42222,41.27722,0</coordinates>
        </Point>
      </Placemark>
      <Placemark>
        <name>Masseria Torre di Nebbia</name>
        <description>Castel del Monte</description>
        <styleUrl>#paddle-blu-circle</styleUrl>
        <Point>
          <coordinates>16.28627,41.03416,0</coordinates>
        </Point>
      </Placemark>
      <Placemark>
        <name>Il Borgo B&amp;B</name>
        <description>Gravina in Puglia</description>
        <styleUrl>#paddle-blu-circle</styleUrl>
        <Point>
          <coordinates>16.41587,40.81707,0</coordinates>
        </Point>
      </Placemark>
      <Placemark>
        <name>Palazzo Viceconte</name>
        <description>Matera, Basilicata</description>
        <styleUrl>#paddle-blu-circle</styleUrl>
        <Point>
          <coordinates>16.61223,40.66661,0</coordinates>
        </Point>
      </Placemark>
      <Placemark>
        <name>Abate Masseria</name>
        <description>Noci</description>
        <styleUrl>#paddle-blu-circle</styleUrl>
        <Point>
          <coordinates>17.12683,40.77884,0</coordinates>
        </Point>
      </Placemark>
      <Placemark>
        <name>Masseria Le Torri</name>
        <description>Polignano a Mare</description>
        <styleUrl>#paddle-blu-circle</styleUrl>
        <Point>
          <coordinates>17.17465,40.96997,0</coordinates>
        </Point>
      </Placemark>
      <Placemark>
        <name>Il Sogno delle Benedettine</name>
        <description>Ostuni</description>
        <styleUrl>#paddle-blu-circle</styleUrl>
        <Point>
          <coordinates>17.57800,40.73328,0</coordinates>
        </Point>
      </Placemark>
      <Placemark>
        <name>Masseria Bosco</name>
        <description>Avetrana</description>
        <styleUrl>#paddle-blu-circle</styleUrl>
        <Point>
          <coordinates>17.72016,40.37122,0</coordinates>
        </Point>
      </Placemark>
      <Placemark>
        <name>Corte Palmieri</name>
        <description>Gallipoli</description>
        <styleUrl>#paddle-blu-circle</styleUrl>
        <Point>
          <coordinates>17.97639,40.05567,0</coordinates>
        </Point>
      </Placemark>
      <Placemark>
        <name>Masseria Palane</name>
        <description>Patù</description>
        <styleUrl>#paddle-blu-circle</styleUrl>
        <Point>
          <coordinates>18.34169,39.83280,0</coordinates>
        </Point>
      </Placemark>
      <Placemark>
        <name>Palazzo de Mori</name>
        <description>Otranto</description>
        <styleUrl>#paddle-blu-circle</styleUrl>
        <Point>
          <coordinates>18.49300,40.14559,0</coordinates>
        </Point>
      </Placemark>
      <Placemark>
        <name>Palazzo Rollo</name>
        <description>Lecce</description>
        <styleUrl>#paddle-blu-circle</styleUrl>
        <Point>
          <coordinates>18.16923,40.35254,0</coordinates>
        </Point>
      </Placemark>
    </Folder>
    <Style id="paddle-blu-circle">
      <IconStyle>
        <Icon>
          <href>http://maps.google.com/mapfiles/kml/paddle/blu-circle.png</href>
        </Icon>
      </IconStyle>
    </Style>
    <Folder>
      <name>Routes</name>
      <Placemark>
        <name>Trani - Castel del Monte</name>
        <description>From Mare Resort to Masseria Torre di Nebbia</description>
        <Style>
          <LineStyle>
            <color>ffff0000</color>
            <width>3</width>
          </LineStyle>
        </Style>
        <LineString>
          <tessellate>1</tessellate>
          <coordinates>
16.42208,41.27733,0 16.42062,41.27611,0 16.42113,41.27581,0 16.42006,41.27487,0 16.42276,41.27315,0
16.42241,41.27262,0 16.42309,41.27141,0 16.42317,41.27077,0 16.42155,41.26642,0 16.42061,41.26459,0
16.42006,41.26442,0 16.42014,41.26397,0 16.41983,41.26281,0 16.41902,41.25235,0 16.41726,41.22892,0
16.41596,41.21185,0 16.41472,41.19535,0 16.40987,41.19555,0 16.40937,41.19517,0 16.40820,41.18959,0
16.40858,41.18782,0 16.40708,41.18497,0 16.40690,41.18421,0 16.40720,41.18128,0 16.40701,41.17863,0
16.40699,41.17691,0 16.40738,41.17551,0 16.40866,41.16994,0 16.40893,41.16580,0 16.40978,41.16329,0
16.40990,41.16235,0 16.40971,41.16096,0 16.40983,41.15981,0 16.40984,41.15791,0 16.40882,41.15757,0
16.40725,41.15542,0 16.40726,41.15186,0 16.40876,41.14966,0 16.40606,41.14633,0 16.40555,41.14584,0
16.40046,41.14189,0 16.40038,41.13807,0 16.40005,41.13672,0 16.39715,41.13165,0 16.39513,41.13008,0
16.39352,41.12836,0 16.39238,41.12769,0 16.39072,41.12632,0 16.38860,41.12494,0 16.38835,41.12423,0
16.38964,41.12354,0 16.38866,41.12012,0 16.38716,41.11524,0 16.38223,41.09834,0 16.37891,41.09807,0
16.37749,41.09810,0 16.37605,41.09786,0 16.36033,41.09672,0 16.34557,41.09544,0 16.34387,41.09339,0
16.34278,41.09234,0 16.34036,41.08944,0 16.33739,41.08635,0 16.33296,41.08224,0 16.33223,41.08170,0
16.33109,41.08052,0 16.32971,41.07931,0 16.32831,41.07895,0 16.32730,41.07820,0 16.32551,41.07657,0
16.32294,41.07344,0 16.32047,41.07158,0 16.31938,41.07108,0 16.31659,41.06960,0 16.31562,41.06865,0
16.31302,41.06514,0 16.31160,41.06415,0 16.30783,41.06262,0 16.30435,41.05806,0 16.30265,41.05340,0
16.30164,41.05164,0 16.29906,41.04735,0 16.29870,41.04721,0 16.29780,41.04762,0 16.29653,41.04853,0
16.29399,41.04659,0 16.29355,41.04604,0 16.29331,41.04388,0 16.29242,41.04147,0 16.29224,41.04035,0
16.29101,41.03846,0 16.29017,41.03666,0 16.28654,41.03404,0
</coordinates>
        </LineString>
      </Placemark>
      <Placemark>
        <name>Castel del Monte - Gravina in Puglia</name>
        <description>From Masseria Torre di Nebbia to Il Borgo B&amp;B</description>
        <Style>
          <LineStyle>
            <color>ffff0000</color>
            <width>3</width>
          </LineStyle>
        </Style>
        <LineString>
          <tessellate>1</tessellate>
          <coordinates>
16.28654,41.03404,0 16.28957,41.03624,0 16.29005,41.03574,0 16.29117,41.03350,0 16.29210,41.03240,0
16.29193,41.03040,0 16.29276,41.02814,0 16.29285,41.02593,0 16.29388,41.02420,0 16.29472,41.02337,0
16.29637,41.02069,0 16.29700,41.01903,0 16.29781,41.01733,0 16.29840,41.01636,0 16.29930,41.01441,0
16.29957,41.01304,0 16.29886,41.01163,0 16.29818,41.01073,0 16.29820,41.00984,0 16.29880,41.00909,0
16.29879,41.00872,0 16.29794,41.00768,0 16.29794,41.00727,0 16.29875,41.00285,0 16.29854,41.00128,0
16.29894,41.00020,0 16.29976,40.99921,0 16.30230,40.99762,0 16.30252,40.99719,0 16.30249,40.99562,0
16.30269,40.99531,0 16.30390,40.99490,0 16.30466,40.99380,0 16.30571,40.99285,0 16.30481,40.99180,0
16.30412,40.99072,0 16.30421,40.98961,0 16.30538,40.98706,0 16.30652,40.98362,0 16.30782,40.98142,0
16.30723,40.97972,0 16.30717,40.97780,0 16.30684,40.97553,0 16.30650,40.97446,0 16.30663,40.97327,0
16.30398,40.97247,0 16.30137,40.97224,0 16.29940,40.97255,0 16.29871,40.97231,0 16.29539,40.96986,0
16.29338,40.96907,0 16.29051,40.96711,0 16.28960,40.96604,0 16.28824,40.96488,0 16.28702,40.96205,0
16.28676,40.96051,0 16.28647,40.96005,0 16.28472,40.95802,0 16.28336,40.95746,0 16.28278,40.95691,0
16.28214,40.95550,0 16.28059,40.95436,0 16.27604,40.95241,0 16.27516,40.95147,0 16.27507,40.94942,0
16.27269,40.94498,0 16.26886,40.93569,0 16.26876,40.93493,0 16.26796,40.93377,0 16.26949,40.93306,0
16.27846,40.92984,0 16.28454,40.92708,0 16.28961,40.92467,0 16.29353,40.92204,0 16.29419,40.92167,0
16.29789,40.92005,0 16.29900,40.91947,0 16.30156,40.91838,0 16.30812,40.91650,0 16.31079,40.91537,0
16.31876,40.91173,0 16.32893,40.90712,0 16.32932,40.90686,0 16.33181,40.90311,0 16.33335,40.90168,0
16.33615,40.89924,0 16.34578,40.89069,0 16.35178,40.88539,0 16.35807,40.87989,0 16.36361,40.87495,0
16.37573,40.86426,0 16.37733,40.86292,0 16.37955,40.86205,0 16.38217,40.85977,0 16.38303,40.85816,0
16.38414,40.85701,0 16.38973,40.85231,0 16.39070,40.85157,0 16.39588,40.84907,0 16.39666,40.84864,0
16.40068,40.84616,0 16.40126,40.84575,0 16.40425,40.84232,0 16.40507,40.84176,0 16.40645,40.83974,0
16.40743,40.83866,0 16.41135,40.83522,0 16.41288,40.83343,0 16.41503,40.83204,0 16.41705,40.82911,0
16.41682,40.82768,0 16.41666,40.82758,0 16.41472,40.82772,0 16.41434,40.82742,0 16.41420,40.82642,0
16.41445,40.82586,0 16.41381,40.82388,0 16.41818,40.82309,0 16.41718,40.82013,0 16.41573,40.81800,0
16.41587,40.81722,0
</coordinates>
        </LineString>
      </Placemark>
      <Placemark>
        <name>Gravina in Puglia - Matera, Basilicata</name>
        <description>From Il Borgo B&amp;B to Palazzo Viceconte</description>
        <Style>
          <LineStyle>
            <color>ffff0000</color>
            <width>3</width>
          </LineStyle>
        </Style>
        <LineString>
          <tessellate>1</tessellate>
          <coordinates>
16.41570,40.81712,0 16.41519,40.81631,0 16.41558,40.81603,0 16.41822,40.81679,0 16.41806,40.81623,0
16.42188,40.81555,0 16.42226,40.81540,0 16.42433,40.81681,0 16.42737,40.81563,0 16.42960,40.81425,0
16.43168,40.81158,0 16.43370,40.80957,0 16.43550,40.80801,0 16.43801,40.80679,0 16.44240,40.80426,0
16.45335,40.79866,0 16.46137,40.79270,0 16.46448,40.79078,0 16.47256,40.78666,0 16.47285,40.78606,0
16.47285,40.78498,0 16.47474,40.77972,0 16.47780,40.77603,0 16.47922,40.77292,0 16.47954,40.77250,0
16.48224,40.77125,0 16.48276,40.76913,0 16.48459,40.76799,0 16.48632,40.76528,0 16.48691,40.76485,0
16.48794,40.76448,0 16.49059,40.75998,0 16.49195,40.75749,0 16.49385,40.75426,0 16.49643,40.75060,0
16.49741,40.74897,0 16.49996,40.74423,0 16.50039,40.74354,0 16.50223,40.74109,0 16.50588,40.73636,0
16.50888,40.73275,0 16.51141,40.73028,0 16.51248,40.72856,0 16.51341,40.72815,0 16.52049,40.72577,0
16.52129,40.72474,0 16.52196,40.72442,0 16.52322,40.72445,0 16.52416,40.72483,0 16.52617,40.72673,0
16.52726,40.72697,0 16.52982,40.72694,0 16.53170,40.72714,0 16.53225,40.72735,0 16.53492,40.72976,0
16.53663,40.73056,0 16.53866,40.73076,0 16.54099,40.73045,0 16.54396,40.73021,0 16.54602,40.72960,0
16.54863,40.72968,0 16.55191,40.72944,0 16.55870,40.72937,0 16.55982,40.72929,0 16.56639,40.72862,0
16.56671,40.72865,0 16.57037,40.72973,0 16.57088,40.72943,0 16.57172,40.72975,0 16.57237,40.72837,0
16.57304,40.72855,0 16.57460,40.72593,0 16.57555,40.72398,0 16.57673,40.72104,0 16.57709,40.72045,0
16.57874,40.71979,0 16.57786,40.71888,0 16.57849,40.71678,0 16.57909,40.71578,0 16.58079,40.71491,0
16.58558,40.71320,0 16.58879,40.71268,0 16.59362,40.71154,0 16.59473,40.71074,0 16.59645,40.70748,0
16.59814,40.70407,0 16.59825,40.70327,0 16.59731,40.69898,0 16.59728,40.69824,0 16.59796,40.69681,0
16.60115,40.69120,0 16.60314,40.68657,0 16.60416,40.68436,0 16.60473,40.68226,0 16.60490,40.68124,0
16.60223,40.68163,0 16.60145,40.68075,0 16.60220,40.67914,0 16.60198,40.67892,0 16.60099,40.67909,0
16.59973,40.67878,0 16.59899,40.67707,0 16.59944,40.67591,0 16.60002,40.67605,0 16.60031,40.67543,0
16.60141,40.67555,0 16.60584,40.67444,0 16.60807,40.67237,0 16.60901,40.67074,0 16.60908,40.66973,0
16.60886,40.66874,0 16.60785,40.66740,0 16.60672,40.66698,0 16.60639,40.66627,0 16.60759,40.66570,0
16.60901,40.66597,0 16.61008,40.66598,0 16.61096,40.66651,0 16.61224,40.66655,0
</coordinates>
        </LineString>
      </Placemark>
      <Placemark>
        <name>Matera, Basilicata - Noci</name>
        <description>From Palazzo Viceconte to Abate Masseria</description>
        <Style>
          <LineStyle>
            <color>ffff0000</color>
            <width>3</width>
          </LineStyle>
        </Style>
        <LineString>
          <tessellate>1</tessellate>
          <coordinates>
16.61224,40.66655,0 16.61096,40.66651,0 16.61008,40.66598,0 16.60797,40.66581,0 16.60651,40.66643,0
16.60613,40.66729,0 16.60634,40.67005,0 16.60490,40.67137,0 16.60256,40.67246,0 16.60052,40.67408,0
16.60047,40.67447,0 16.59978,40.67507,0 16.59899,40.67707,0 16.59962,40.67863,0 16.60031,40.67895,0
16.60215,40.67899,0 16.60210,40.67945,0 16.60153,40.68033,0 16.60155,40.68090,0 16.60263,40.68141,0
16.60568,40.68122,0 16.60761,40.68140,0 16.60788,40.68162,0 16.60906,40.68152,0 16.61093,40.68165,0
16.61160,40.68232,0 16.61462,40.68217,0 16.61871,40.68222,0 16.62173,40.68212,0 16.62412,40.68186,0
16.62659,40.68189,0 16.62884,40.68203,0 16.62929,40.68220,0 16.63237,40.68215,0 16.63434,40.68204,0
16.63558,40.68213,0 16.63760,40.68267,0 16.64164,40.68336,0 16.64545,40.68411,0 16.64985,40.68492,0
16.65917,40.68671,0 16.66208,40.68708,0 16.66346,40.68744,0 16.66784,40.68833,0 16.67129,40.68871,0
16.67521,40.69011,0 16.67898,40.69136,0 16.68113,40.69227,0 16.68221,40.69292,0 16.68224,40.69335,0
16.68123,40.69800,0 16.68310,40.70066,0 16.68367,40.70089,0 16.68605,40.70123,0 16.68686,40.70103,0
16.69287,40.69696,0 16.69372,40.69672,0 16.70055,40.69680,0 16.70479,40.69678,0 16.71140,40.69759,0
16.71272,40.69803,0 16.71549,40.69941,0 16.71910,40.70141,0 16.72505,40.70536,0 16.72686,40.70639,0
16.72877,40.70766,0 16.73069,40.70916,0 16.73286,40.71064,0 16.73447,40.71069,0 16.73891,40.71292,0
16.74546,40.71546,0 16.74765,40.71663,0 16.75206,40.71948,0 16.75449,40.72061,0 16.75849,40.72226,0
16.76312,40.72356,0 16.76744,40.72463,0 16.77374,40.72614,0 16.77446,40.72638,0 16.77495,40.72705,0
16.77832,40.72864,0 16.78554,40.73220,0 16.78665,40.73302,0 16.78846,40.73343,0 16.79293,40.73406,0
16.79674,40.73446,0 16.80186,40.73724,0 16.80436,40.73787,0 16.80556,40.73805,0 16.81017,40.74107,0
16.81271,40.74239,0 16.81498,40.74339,0 16.81782,40.74441,0 16.81927,40.74445,0 16.82628,40.74444,0
16.82696,40.74469,0 16.82833,40.74610,0 16.82882,40.74857,0 16.82926,40.74943,0 16.82910,40.75052,0
16.82926,40.75452,0 16.82945,40.75559,0 16.82997,40.75618,0 16.83240,40.75746,0 16.83408,40.75780,0
16.83843,40.75943,0 16.84286,40.76207,0 16.84430,40.76303,0 16.84798,40.76456,0 16.85036,40.76599,0
16.85338,40.76707,0 16.85494,40.76800,0 16.85696,40.76877,0 16.85838,40.76972,0 16.85960,40.77086,0
16.86141,40.77232,0 16.86510,40.77447,0 16.86610,40.77478,0 16.86742,40.77549,0 16.86896,40.77647,0
16.87495,40.77910,0 16.87648,40.77991,0 16.87941,40.78018,0 16.88066,40.78077,0 16.88557,40.78434,0
16.88961,40.78557,0 16.89182,40.78662,0 16.89422,40.78730,0 16.89578,40.78790,0 16.89745,40.79030,0
16.89833,40.79072,0 16.89944,40.79091,0 16.90232,40.79164,0 16.90430,40.79272,0 16.90689,40.79391,0
16.91022,40.79466,0 16.91515,40.79627,0 16.91525,40.79701,0 16.91525,40.79904,0 16.92021,40.79910,0
16.92263,40.79907,0 16.92283,40.79947,0 16.92353,40.79963,0 16.92376,40.80003,0 16.92452,40.80012,0
16.92796,40.80012,0 16.92918,40.79813,0 16.92904,40.79720,0 16.92932,40.79728,0 16.93938,40.79495,0
16.94387,40.79461,0 16.94457,40.79295,0 16.94494,40.79151,0 16.94571,40.79016,0 16.94738,40.78795,0
16.94984,40.78455,0 16.95178,40.78237,0 16.95386,40.78106,0 16.95809,40.77876,0 16.95866,40.77750,0
16.95962,40.77643,0 16.95988,40.77592,0 16.96236,40.77371,0 16.96483,40.77258,0 16.96678,40.77234,0
16.97489,40.77214,0 16.97496,40.77353,0 16.98661,40.77328,0 16.99491,40.77074,0 16.99736,40.77030,0
17.00072,40.76982,0 17.00413,40.76820,0 17.00669,40.76783,0 17.00898,40.76784,0 17.01005,40.76802,0
17.01302,40.76779,0 17.01330,40.76728,0 17.01765,40.76688,0 17.02407,40.76188,0 17.02646,40.76083,0
17.02866,40.75974,0 17.03331,40.75875,0 17.03652,40.75858,0 17.03864,40.75835,0 17.03974,40.75890,0
17.04103,40.75928,0 17.04170,40.75975,0 17.04315,40.76151,0 17.04386,40.76284,0 17.04549,40.76479,0
17.04639,40.76647,0 17.04777,40.76762,0 17.04903,40.76912,0 17.05019,40.76989,0 17.05154,40.77102,0
17.05267,40.77238,0 17.05692,40.77586,0 17.05829,40.77657,0 17.05974,40.77707,0 17.06184,40.77678,0
17.06349,40.77686,0 17.06534,40.77718,0 17.06774,40.77719,0 17.07045,40.77651,0 17.07268,40.77569,0
17.07363,40.77562,0 17.07694,40.77629,0 17.07950,40.77740,0 17.08424,40.77848,0 17.08723,40.77880,0
17.09068,40.77957,0 17.09174,40.78003,0 17.09314,40.78027,0 17.09580,40.78101,0 17.09727,40.78173,0
17.09850,40.78211,0 17.10170,40.78246,0 17.10287,40.78318,0 17.10384,40.78438,0 17.10581,40.78528,0
17.10937,40.78733,0 17.11040,40.78815,0 17.11148,40.78834,0 17.11279,40.78878,0 17.11547,40.79162,0
17.11614,40.79197,0 17.11924,40.79285,0 17.11945,40.79251,0 17.11765,40.78897,0 17.12081,40.78836,0
17.12185,40.78760,0 17.12388,40.78673,0 17.12562,40.78617,0 17.12775,40.78571,0 17.12962,40.78598,0
17.12997,40.78538,0 17.13048,40.78392,0 17.13131,40.78296,0 17.13136,40.78163,0 17.13038,40.77978,0
17.12959,40.77994,0 17.12712,40.77988,0 17.12690,40.77884,0
</coordinates>
        </LineString>
      </Placemark>
      <Placemark>
        <name>Noci - Polignano a Mare</name>
        <description>From Abate Masseria to Masseria Le Torri</description>
        <Style>
          <LineStyle>
            <color>ffff0000</color>
            <width>3</width>
          </LineStyle>
        </Style>
        <LineString>
          <tessellate>1</tessellate>
          <coordinates>
17.12690,40.77884,0 17.12712,40.77988,0 17.12890,40.78006,0 17.13038,40.77978,0 17.13063,40.78049,0
17.13136,40.78163,0 17.13131,40.78296,0 17.13067,40.78362,0 17.12956,40.78637,0 17.12908,40.78780,0
17.12944,40.78866,0 17.12967,40.79019,0 17.12839,40.79077,0 17.12621,40.79358,0 17.12491,40.79554,0
17.12528,40.79561,0 17.12528,40.79638,0 17.12425,40.79727,0 17.12605,40.79779,0 17.12614,40.79810,0
17.12486,40.79902,0 17.12482,40.80120,0 17.12450,40.80194,0 17.12378,40.80273,0 17.12405,40.80445,0
17.12461,40.80577,0 17.12514,40.80644,0 17.12517,40.80818,0 17.12490,40.80888,0 17.12472,40.81018,0
17.12378,40.81249,0 17.12395,40.81327,0 17.12368,40.81397,0 17.12390,40.81463,0 17.12361,40.81603,0
17.12452,40.81723,0 17.12401,40.81756,0 17.12383,40.82126,0 17.12398,40.82215,0 17.12382,40.82384,0
17.12423,40.82398,0 17.12480,40.82531,0 17.12477,40.82626,0 17.12439,40.82862,0 17.12434,40.83130,0
17.12321,40.83244,0 17.12266,40.83399,0 17.12271,40.83472,0 17.12327,40.83551,0 17.12331,40.83600,0
17.12263,40.83701,0 17.12125,40.83825,0 17.12096,40.83879,0 17.12053,40.84093,0 17.12057,40.84213,0
17.12031,40.84270,0 17.12189,40.84513,0 17.12200,40.84552,0 17.12171,40.84679,0 17.12218,40.84774,0
17.12457,40.84802,0 17.12537,40.84885,0 17.12525,40.84944,0 17.12445,40.85050,0 17.12625,40.85207,0
17.13398,40.85827,0 17.14631,40.86808,0 17.14698,40.86924,0 17.14758,40.87075,0 17.14763,40.87141,0
17.14648,40.87252,0 17.14686,40.87409,0 17.14744,40.87488,0 17.14857,40.87580,0 17.14942,40.87564,0
17.15014,40.87618,0 17.15181,40.87695,0 17.15307,40.87766,0 17.15522,40.87924,0 17.15670,40.88066,0
17.15770,40.88214,0 17.15853,40.88288,0 17.16018,40.88358,0 17.16218,40.88414,0 17.16356,40.88480,0
17.16451,40.88548,0 17.16249,40.88889,0 17.15382,40.90333,0 17.14825,40.91270,0 17.14785,40.91351,0
17.14824,40.91521,0 17.14857,40.91593,0 17.14843,40.91805,0 17.14794,40.91951,0 17.14660,40.92120,0
17.14553,40.92281,0 17.14512,40.92403,0 17.14504,40.92492,0 17.14433,40.92708,0 17.14311,40.92743,0
17.14342,40.92836,0 17.14313,40.92895,0 17.14386,40.93032,0 17.14417,40.93118,0 17.14475,40.93192,0
17.14531,40.93331,0 17.14580,40.93412,0 17.14718,40.93439,0 17.14815,40.93481,0 17.14915,40.93558,0
17.15016,40.93783,0 17.15010,40.93821,0 17.14907,40.93918,0 17.15154,40.94421,0 17.15176,40.94628,0
17.15326,40.94793,0 17.15554,40.95004,0 17.15675,40.95130,0 17.15724,40.95255,0 17.15908,40.95449,0
17.15934,40.95508,0 17.16058,40.95634,0 17.16140,40.95739,0 17.16360,40.95887,0 17.16403,40.95985,0
17.16775,40.95999,0 17.16902,40.95990,0 17.17022,40.95953,0 17.17131,40.95993,0 17.17077,40.96047,0
17.17101,40.96109,0 17.17067,40.96142,0 17.17105,40.96214,0 17.16990,40.96249,0 17.17038,40.96358,0
17.17108,40.96429,0 17.17128,40.96490,0 17.17219,40.96554,0 17.17335,40.96683,0 17.17427,40.96723,0
17.17502,40.96864,0 17.17671,40.96875,0 17.17766,40.96898,0 17.17822,40.97019,0 17.17537,40.97105,0
17.17470,40.97024,0
</coordinates>
        </LineString>
      </Placemark>
      <Placemark>
        <name>Polignano a Mare - Ostuni</name>
        <description>From Masseria Le Torri to Il Sogno delle Benedettine</description>
        <Style>
          <LineStyle>
            <color>ffff0000</color>
            <width>3</width>
          </LineStyle>
        </Style>
        <LineString>
          <tessellate>1</tessellate>
          <coordinates>
17.17470,40.97024,0 17.17537,40.97105,0 17.17822,40.97019,0 17.17865,40.97014,0 17.17895,40.97072,0
17.17979,40.97158,0 17.18058,40.97168,0 17.18135,40.97150,0 17.18060,40.97057,0 17.18064,40.96769,0
17.17966,40.96587,0 17.17790,40.96404,0 17.17764,40.96227,0 17.17792,40.96108,0 17.17868,40.96014,0
17.18028,40.95963,0 17.18358,40.95812,0 17.18775,40.95731,0 17.18930,40.95658,0 17.19037,40.95621,0
17.19234,40.95598,0 17.19357,40.95594,0 17.19441,40.95518,0 17.19639,40.95504,0 17.19739,40.95481,0
17.19858,40.95530,0 17.20344,40.95427,0 17.20596,40.95450,0 17.20756,40.95489,0 17.20940,40.95511,0
17.21042,40.95512,0 17.21272,40.95387,0 17.21502,40.95447,0 17.21597,40.95516,0 17.22029,40.95366,0
17.22155,40.95399,0 17.22359,40.95354,0 17.22643,40.95234,0 17.22738,40.95299,0 17.22751,40.95344,0
17.22805,40.95377,0 17.23004,40.95454,0 17.23119,40.95413,0 17.23234,40.95412,0 17.23551,40.95299,0
17.23762,40.95258,0 17.23964,40.95237,0 17.24026,40.95319,0 17.24088,40.95449,0 17.24390,40.95690,0
17.24473,40.95641,0 17.24656,40.95678,0 17.24913,40.95658,0 17.25108,40.95681,0 17.25811,40.95609,0
17.25880,40.95599,0 17.25819,40.95544,0 17.25804,40.95453,0 17.25861,40.95446,0 17.25848,40.95538,0
17.25896,40.95576,0 17.26613,40.95545,0 17.26881,40.95516,0 17.26936,40.95521,0 17.27015,40.95595,0
17.27290,40.95571,0 17.27412,40.95590,0 17.27505,40.95559,0 17.27933,40.95444,0 17.28204,40.95311,0
17.28491,40.95155,0 17.28615,40.95106,0 17.28726,40.95114,0 17.28997,40.94883,0 17.29051,40.94822,0
17.29192,40.94907,0 17.29395,40.94957,0 17.29530,40.94964,0 17.29605,40.94986,0 17.29658,40.95061,0
17.29771,40.95092,0 17.29855,40.94912,0 17.29922,40.94888,0 17.30520,40.95052,0 17.30598,40.94918,0
17.30648,40.94732,0 17.30703,40.94763,0 17.30753,40.94732,0 17.30788,40.94600,0 17.30919,40.94518,0
17.31029,40.94510,0 17.31100,40.94449,0 17.31087,40.94399,0 17.31222,40.94243,0 17.31421,40.94089,0
17.31433,40.94068,0 17.31294,40.93993,0 17.31324,40.93928,0 17.31380,40.93699,0 17.31517,40.93496,0
17.31664,40.93296,0 17.31741,40.93150,0 17.32026,40.92795,0 17.32178,40.92457,0 17.32716,40.92157,0
17.32971,40.91976,0 17.33397,40.91807,0 17.33718,40.91752,0 17.33966,40.91678,0 17.34342,40.91472,0
17.34479,40.91299,0 17.34494,40.91153,0 17.34432,40.91050,0 17.34490,40.90975,0 17.34566,40.90941,0
17.34681,40.90838,0 17.34905,40.90555,0 17.36094,40.90024,0 17.36667,40.89732,0 17.37137,40.89607,0
17.37997,40.89293,0 17.38167,40.89212,0 17.38435,40.89003,0 17.38635,40.88801,0 17.38714,40.88771,0
17.38943,40.88546,0 17.39048,40.88393,0 17.39116,40.88349,0 17.39195,40.88256,0 17.39653,40.87745,0
17.39757,40.87608,0 17.39961,40.87103,0 17.40150,40.86698,0 17.40169,40.86614,0 17.40272,40.86461,0
17.40596,40.86048,0 17.40887,40.85786,0 17.40998,40.85612,0 17.41103,40.85493,0 17.41193,40.85447,0
17.41377,40.85317,0 17.41593,40.85225,0 17.41849,40.85097,0 17.42154,40.85029,0 17.42333,40.84927,0
17.42400,40.84964,0 17.42462,40.84968,0 17.42741,40.84856,0 17.43002,40.84809,0 17.43135,40.84800,0
17.43280,40.84717,0 17.43578,40.84525,0 17.43774,40.84475,0 17.44068,40.84374,0 17.44123,40.84333,0
17.44260,40.84320,0 17.44377,40.84210,0 17.44468,40.84160,0 17.44911,40.84155,0 17.45163,40.84173,0
17.45413,40.84380,0 17.45598,40.84189,0 17.45618,40.84099,0 17.45680,40.83977,0 17.45803,40.83819,0
17.46059,40.83639,0 17.46112,40.83559,0 17.46277,40.83402,0 17.46436,40.83312,0 17.46797,40.83156,0
17.47103,40.83117,0 17.47263,40.83057,0 17.47617,40.82862,0 17.48330,40.82457,0 17.48563,40.82360,0
17.48593,40.82305,0 17.48596,40.82214,0 17.48720,40.82181,0 17.48869,40.82195,0 17.49024,40.82144,0
17.49058,40.82087,0 17.49191,40.82018,0 17.49234,40.82030,0 17.49389,40.81999,0 17.51559,40.81146,0
17.51679,40.81040,0 17.51850,40.81028,0 17.52059,40.80949,0 17.52649,40.80716,0 17.53185,40.80437,0
17.53615,40.80196,0 17.53613,40.80154,0 17.53751,40.80019,0 17.53929,40.79876,0 17.54085,40.79817,0
17.54203,40.79686,0 17.54282,40.79488,0 17.54353,40.79404,0 17.54458,40.79365,0 17.54523,40.79310,0
17.54564,40.79174,0 17.54615,40.78955,0 17.54647,40.78869,0 17.54802,40.78706,0 17.54766,40.78491,0
17.54648,40.78248,0 17.54411,40.77951,0 17.54371,40.77921,0 17.54401,40.77871,0 17.54348,40.77847,0
17.54250,40.77860,0 17.53801,40.77748,0 17.53643,40.77682,0 17.53852,40.77566,0 17.54049,40.77412,0
17.54270,40.77259,0 17.54402,40.77205,0 17.54627,40.76879,0 17.54970,40.76439,0 17.54950,40.76371,0
17.55087,40.76268,0 17.55143,40.76098,0 17.55316,40.75931,0 17.55382,40.75811,0 17.55740,40.75507,0
17.56089,40.75167,0 17.56438,40.74875,0 17.56419,40.74788,0 17.56354,40.74756,0 17.56316,40.74603,0
17.56348,40.74489,0 17.56337,40.74465,0 17.56418,40.74414,0 17.56512,40.74299,0 17.56562,40.74191,0
17.56604,40.74059,0 17.56574,40.73987,0 17.56656,40.73979,0 17.56751,40.73923,0 17.57108,40.73786,0
17.57166,40.73730,0 17.57213,40.73629,0 17.57577,40.73567,0 17.57612,40.73483,0 17.57601,40.73373,0
17.57625,40.73337,0 17.57658,40.73372,0 17.57797,40.73315,0 17.57805,40.73335,0
</coordinates>
        </LineString>
      </Placemark>
      <Placemark>
        <name>Ostuni - Avetrana</name>
        <description>From Il Sogno delle Benedettine to Masseria Bosco</description>
        <Style>
          <LineStyle>
            <color>ffff0000</color>
            <width>3</width>
          </LineStyle>
        </Style>
        <LineString>
          <tessellate>1</tessellate>
          <coordinates>
17.57805,40.73335,0 17.57818,40.73285,0 17.57943,40.73297,0 17.57856,40.73224,0 17.57952,40.73091,0
17.57964,40.73012,0 17.57825,40.72949,0 17.57957,40.72783,0 17.57808,40.72529,0 17.57862,40.72508,0
17.57824,40.72441,0 17.57675,40.72080,0 17.57745,40.72023,0 17.57802,40.71936,0 17.57835,40.71845,0
17.57822,40.71672,0 17.57850,40.71462,0 17.57802,40.71333,0 17.57788,40.71166,0 17.57834,40.70949,0
17.57894,40.70815,0 17.58056,40.70608,0 17.58207,40.70352,0 17.58287,40.70244,0 17.58383,40.70167,0
17.58438,40.70086,0 17.58618,40.69682,0 17.58734,40.69573,0 17.58796,40.69351,0 17.58898,40.69146,0
17.58901,40.68973,0 17.58876,40.68749,0 17.58850,40.68639,0 17.58861,40.68608,0 17.58996,40.68449,0
17.59014,40.68362,0 17.58998,40.68248,0 17.58948,40.68106,0 17.58973,40.68049,0 17.59071,40.67987,0
17.59141,40.67863,0 17.59185,40.67820,0 17.59301,40.67626,0 17.59456,40.67434,0 17.59580,40.67351,0
17.59648,40.67252,0 17.59725,40.67100,0 17.60067,40.66069,0 17.60125,40.65817,0 17.60206,40.65667,0
17.60430,40.65450,0 17.60739,40.64681,0 17.60746,40.64612,0 17.60819,40.64564,0 17.60903,40.64461,0
17.60927,40.64372,0 17.60914,40.63285,0 17.60701,40.62665,0 17.60701,40.62330,0 17.60727,40.62254,0
17.60989,40.61725,0 17.60999,40.61646,0 17.60983,40.61543,0 17.60858,40.61266,0 17.60801,40.61174,0
17.60705,40.61077,0 17.60579,40.60778,0 17.60594,40.60399,0 17.60621,40.60131,0 17.60614,40.60059,0
17.60551,40.59865,0 17.60581,40.59735,0 17.60481,40.59444,0 17.60371,40.59186,0 17.60291,40.58921,0
17.60289,40.58656,0 17.60265,40.58355,0 17.60237,40.58224,0 17.60252,40.58038,0 17.60202,40.57760,0
17.60218,40.57658,0 17.60206,40.57604,0 17.60024,40.57403,0 17.59929,40.57272,0 17.59909,40.57081,0
17.59878,40.56922,0 17.59892,40.56764,0 17.59691,40.56165,0 17.59669,40.56052,0 17.59616,40.55915,0
17.59567,40.55653,0 17.59481,40.55427,0 17.59339,40.55010,0 17.59328,40.54935,0 17.59322,40.54623,0
17.59306,40.54550,0 17.59319,40.54403,0 17.59369,40.54350,0 17.59412,40.54248,0 17.59500,40.54138,0
17.59628,40.54051,0 17.59690,40.53984,0 17.59826,40.53730,0 17.59918,40.53581,0 17.60007,40.53505,0
17.60075,40.53400,0 17.60128,40.53349,0 17.60283,40.53293,0 17.60304,40.53260,0 17.60374,40.53268,0
17.60454,40.53139,0 17.60463,40.53074,0 17.60525,40.52916,0 17.60617,40.52848,0 17.60676,40.52723,0
17.60847,40.52575,0 17.61066,40.52459,0 17.61250,40.52306,0 17.61288,40.52235,0 17.61378,40.52172,0
17.61571,40.51984,0 17.61744,40.51872,0 17.61856,40.51825,0 17.62066,40.51684,0 17.62469,40.51464,0
17.62605,40.51434,0 17.62910,40.51226,0 17.63077,40.51105,0 17.63246,40.51053,0 17.63337,40.50994,0
17.63547,40.50803,0 17.63807,40.50518,0 17.63981,40.50368,0 17.64104,40.50173,0 17.63993,40.50075,0
17.63896,40.49948,0 17.63907,40.49859,0 17.63942,40.49759,0 17.64074,40.49661,0 17.64166,40.49621,0
17.64271,40.49606,0 17.64370,40.49658,0 17.64478,40.49633,0 17.64886,40.49486,0 17.64870,40.49431,0
17.65170,40.49241,0 17.65255,40.49172,0 17.65522,40.48760,0 17.65826,40.48132,0 17.65897,40.48034,0
17.65960,40.47724,0 17.66012,40.47548,0 17.66159,40.47118,0 17.66221,40.46809,0 17.66264,40.46668,0
17.66622,40.46173,0 17.66686,40.46099,0 17.66908,40.45903,0 17.67028,40.45663,0 17.67109,40.45589,0
17.67353,40.44807,0 17.67383,40.44756,0 17.67571,40.44586,0 17.67598,40.44523,0 17.67581,40.44298,0
17.67546,40.44020,0 17.67497,40.43899,0 17.67618,40.43741,0 17.67907,40.43402,0 17.67994,40.43343,0
17.68194,40.42918,0 17.68421,40.42602,0 17.68635,40.42276,0 17.68915,40.41990,0 17.68982,40.41899,0
17.69120,40.41628,0 17.69223,40.41466,0 17.69277,40.41337,0 17.69331,40.41002,0 17.69378,40.40907,0
17.69452,40.40825,0 17.69848,40.40859,0 17.69861,40.40819,0 17.69989,40.40664,0 17.69983,40.40643,0
17.70970,40.40733,0 17.72499,40.40868,0 17.72517,40.40877,0 17.72548,40.41057,0 17.72548,40.40676,0
17.72583,40.39798,0 17.72616,40.38788,0 17.72663,40.37660,0 17.72706,40.36538,0 17.72596,40.36539,0
17.72391,40.36521,0 17.72378,40.36758,0 17.72238,40.36772,0 17.72134,40.37129,0 17.72016,40.37122,0
</coordinates>
        </LineString>
      </Placemark>
      <Placemark>
        <name>Avetrana - Gallipoli</name>
        <description>From Masseria Bosco to Corte Palmieri</description>
        <Style>
          <LineStyle>
            <color>ffff0000</color>
            <width>3</width>
          </LineStyle>
        </Style>
        <LineString>
          <tessellate>1</tessellate>
          <coordinates>
17.72016,40.37122,0 17.72139,40.37122,0 17.72234,40.36776,0 17.72378,40.36758,0 17.72391,40.36521,0
17.72706,40.36538,0 17.72737,40.35723,0 17.72755,40.35419,0 17.72771,40.34999,0 17.73015,40.34987,0
17.73349,40.34947,0 17.73664,40.34933,0 17.73836,40.34907,0 17.73917,40.34867,0 17.74262,40.34725,0
17.74663,40.34629,0 17.74946,40.34495,0 17.75084,40.34465,0 17.75383,40.34348,0 17.75351,40.34317,0
17.74749,40.33856,0 17.74691,40.33392,0 17.74716,40.33344,0 17.75040,40.32975,0 17.75318,40.32672,0
17.75613,40.32368,0 17.76604,40.31357,0 17.76815,40.31157,0 17.76945,40.31153,0 17.77714,40.30906,0
17.77993,40.30706,0 17.78323,40.30613,0 17.78467,40.30631,0 17.78604,40.30585,0 17.78800,40.30561,0
17.78885,40.30564,0 17.78957,40.30687,0 17.79175,40.30637,0 17.79467,40.30611,0 17.79646,40.30547,0
17.79882,40.30514,0 17.80285,40.30448,0 17.79821,40.29545,0 17.80713,40.29394,0 17.81969,40.29176,0
17.82210,40.29111,0 17.82576,40.29029,0 17.83304,40.28890,0 17.83512,40.28856,0 17.85235,40.28869,0
17.86328,40.28500,0 17.86748,40.28291,0 17.86927,40.28193,0 17.86973,40.28136,0 17.87003,40.28041,0
17.87102,40.27635,0 17.87133,40.27570,0 17.87204,40.27519,0 17.87780,40.27345,0 17.87902,40.27292,0
17.88181,40.27112,0 17.88305,40.27021,0 17.88456,40.26860,0 17.88493,40.26791,0 17.88492,40.26712,0
17.88579,40.26723,0 17.88729,40.26630,0 17.88889,40.26668,0 17.88962,40.26566,0 17.89136,40.26619,0
17.89247,40.26414,0 17.89390,40.26213,0 17.89521,40.26271,0 17.89634,40.26124,0 17.89949,40.26263,0
17.90292,40.25790,0 17.90484,40.25629,0 17.90561,40.25495,0 17.90626,40.25423,0 17.90854,40.25244,0
17.91087,40.25046,0 17.91122,40.24991,0 17.91365,40.24516,0 17.91489,40.24255,0 17.91588,40.24021,0
17.91702,40.24031,0 17.91836,40.24074,0 17.91971,40.23875,0 17.92011,40.23789,0 17.92153,40.23611,0
17.92320,40.23450,0 17.92500,40.23525,0 17.92538,40.23493,0 17.92617,40.23537,0 17.92640,40.23489,0
17.92703,40.23255,0 17.93042,40.23314,0 17.93055,40.23302,0 17.93279,40.23321,0 17.93332,40.23165,0
17.93820,40.22563,0 17.93881,40.22493,0 17.93891,40.22418,0 17.93982,40.22372,0 17.95025,40.21106,0
17.95782,40.20185,0 17.96971,40.18727,0 17.99737,40.15306,0 18.00071,40.14887,0 18.00351,40.14708,0
18.00473,40.14618,0 18.00583,40.14510,0 18.00812,40.14343,0 18.00850,40.14280,0 18.00934,40.13960,0
18.00919,40.13907,0 18.00832,40.13740,0 18.00736,40.13626,0 18.00714,40.13551,0 18.00646,40.13457,0
18.00499,40.13305,0 18.00479,40.13208,0 18.00386,40.13109,0 18.00462,40.13105,0 18.00485,40.13025,0
18.00399,40.12887,0 18.00134,40.12747,0 18.00013,40.12622,0 17.99843,40.12495,0 17.99875,40.12342,0
17.99942,40.12164,0 18.00005,40.12041,0 18.00204,40.11868,0 18.00290,40.11703,0 18.00347,40.11498,0
18.00382,40.11409,0 18.00492,40.11368,0 18.00831,40.11127,0 18.01046,40.10965,0 18.01118,40.10926,0
18.01551,40.10819,0 18.01625,40.10779,0 18.01771,40.10653,0 18.01930,40.10366,0 18.01889,40.10267,0
18.01649,40.10206,0 18.01612,40.09670,0 18.01581,40.09427,0 18.01587,40.09287,0 18.01623,40.09093,0
18.01457,40.08673,0 18.01211,40.08398,0 18.01039,40.08194,0 18.00900,40.07988,0 18.00761,40.07804,0
18.00599,40.07292,0 18.00494,40.07074,0 18.00397,40.07043,0 18.00349,40.06979,0 18.00307,40.06828,0
18.00250,40.06766,0 18.00280,40.06719,0 18.00236,40.06679,0 17.99582,40.06166,0 17.99445,40.06086,0
17.99377,40.06025,0 17.99300,40.05918,0 17.99251,40.05877,0 17.99115,40.05841,0 17.98912,40.05802,0
17.98694,40.05774,0 17.98381,40.05648,0 17.98262,40.05636,0 17.98040,40.05632,0 17.98077,40.05620,0
17.97885,40.05624,0 17.97814,40.05581,0 17.97741,40.05632,0 17.97652,40.05660,0 17.97585,40.05618,0
17.97639,40.05560,0
</coordinates>
        </LineString>
      </Placemark>
      <Placemark>
        <name>Gallipoli - Patù</name>
        <description>From Corte Palmieri to Masseria Palane</description>
        <Style>
          <LineStyle>
            <color>ffff0000</color>
            <width>3</width>
          </LineStyle>
        </Style>
        <LineString>
          <tessellate>1</tessellate>
          <coordinates>
17.97639,40.05560,0 17.97720,40.05538,0 17.97871,40.05611,0 17.98077,40.05620,0 17.98340,40.05614,0
17.98339,40.05502,0 17.98409,40.05501,0 17.98678,40.05423,0 17.99008,40.05375,0 17.99622,40.05170,0
17.99802,40.05106,0 18.00071,40.04931,0 18.00401,40.04787,0 18.00604,40.04670,0 18.00705,40.04755,0
18.00963,40.04788,0 18.01322,40.04877,0 18.01376,40.04873,0 18.01429,40.04826,0 18.01425,40.04773,0
18.01337,40.04703,0 18.01618,40.04445,0 18.01683,40.04414,0 18.01738,40.04437,0 18.01863,40.04450,0
18.02004,40.04417,0 18.02033,40.04425,0 18.02084,40.04362,0 18.02112,40.04153,0 18.02172,40.03993,0
18.02318,40.03856,0 18.02389,40.03768,0 18.02574,40.03586,0 18.02972,40.03231,0 18.03242,40.03292,0
18.03298,40.03288,0 18.03452,40.03224,0 18.03813,40.03180,0 18.04391,40.03011,0 18.04500,40.02973,0
18.04666,40.02880,0 18.04824,40.02771,0 18.05084,40.02694,0 18.05290,40.02574,0 18.05481,40.02521,0
18.05783,40.02492,0 18.05906,40.02444,0 18.06122,40.02389,0 18.06314,40.02322,0 18.06442,40.02314,0
18.06492,40.02278,0 18.06594,40.02149,0 18.06682,40.01946,0 18.06903,40.01634,0 18.06907,40.01587,0
18.06953,40.01555,0 18.07143,40.01206,0 18.07269,40.00994,0 18.07381,40.00762,0 18.07431,40.00578,0
18.07517,40.00404,0 18.07640,40.00326,0 18.07686,40.00261,0 18.07847,39.99816,0 18.08088,39.99396,0
18.08230,39.99220,0 18.08362,39.99128,0 18.08474,39.99033,0 18.08640,39.98874,0 18.08695,39.98778,0
18.08868,39.98584,0 18.08924,39.98535,0 18.08955,39.98403,0 18.08931,39.98233,0 18.08984,39.98122,0
18.09110,39.97947,0 18.09244,39.97864,0 18.09321,39.97861,0 18.09494,39.97808,0 18.09556,39.97741,0
18.09652,39.97699,0 18.09738,39.97566,0 18.09783,39.97550,0 18.09829,39.97319,0 18.09875,39.97232,0
18.09831,39.97088,0 18.09715,39.96992,0 18.09615,39.96804,0 18.09645,39.96756,0 18.09643,39.96642,0
18.09773,39.96670,0 18.09941,39.96119,0 18.10039,39.95984,0 18.10162,39.95939,0 18.10547,39.95815,0
18.10592,39.95768,0 18.10808,39.95686,0 18.11216,39.95669,0 18.11411,39.95675,0 18.11708,39.95595,0
18.11957,39.95465,0 18.12277,39.95338,0 18.12319,39.95336,0 18.12622,39.95255,0 18.12733,39.95243,0
18.12884,39.95179,0 18.12916,39.95133,0 18.13042,39.95127,0 18.13063,39.95110,0 18.13224,39.95176,0
18.13311,39.95158,0 18.13401,39.95182,0 18.13516,39.95188,0 18.13677,39.95088,0 18.14022,39.94929,0
18.14188,39.94830,0 18.14273,39.94794,0 18.14327,39.94739,0 18.14533,39.94662,0 18.14616,39.94608,0
18.14790,39.94535,0 18.15178,39.94407,0 18.15485,39.94403,0 18.15524,39.94453,0 18.15645,39.94363,0
18.15795,39.94131,0 18.16014,39.93882,0 18.16043,39.93712,0 18.16130,39.93469,0 18.16250,39.93063,0
18.16342,39.93070,0 18.16391,39.92922,0 18.16492,39.92815,0 18.16275,39.92553,0 18.16501,39.92471,0
18.16609,39.92402,0 18.16851,39.92269,0 18.17086,39.92165,0 18.17634,39.91782,0 18.18105,39.91466,0
18.18368,39.91189,0 18.18516,39.91254,0 18.18530,39.91178,0 18.18792,39.91051,0 18.19121,39.90936,0
18.19298,39.90949,0 18.19430,39.90921,0 18.19846,39.90692,0 18.20454,39.90501,0 18.20712,39.90367,0
18.20798,39.90259,0 18.20865,39.90096,0 18.20933,39.90029,0 18.21057,39.89941,0 18.21282,39.89712,0
18.21456,39.89605,0 18.21653,39.89449,0 18.21729,39.89377,0 18.21804,39.89270,0 18.21844,39.89176,0
18.21960,39.89044,0 18.22069,39.88804,0 18.22120,39.88741,0 18.22248,39.88652,0 18.22443,39.88533,0
18.22607,39.88387,0 18.22828,39.88243,0 18.22973,39.88112,0 18.23212,39.87613,0 18.23328,39.87483,0
18.23606,39.87292,0 18.23781,39.87119,0 18.23890,39.86970,0 18.24439,39.86665,0 18.24844,39.86264,0
18.25249,39.86048,0 18.25452,39.85908,0 18.25674,39.85745,0 18.25895,39.85619,0 18.26235,39.85435,0
18.26375,39.85389,0 18.26532,39.85370,0 18.26879,39.85170,0 18.27222,39.85090,0 18.27411,39.85098,0
18.27592,39.85089,0 18.27695,39.85116,0 18.27951,39.85105,0 18.28054,39.85079,0 18.28234,39.84967,0
18.28272,39.84904,0 18.28430,39.84856,0 18.28569,39.84948,0 18.28780,39.84935,0 18.29033,39.84969,0
18.29216,39.84972,0 18.29304,39.84993,0 18.29756,39.85174,0 18.29813,39.85175,0 18.30169,39.85062,0
18.30515,39.84939,0 18.30619,39.84918,0 18.30592,39.84877,0 18.30745,39.84778,0 18.30769,39.84842,0
18.30903,39.85036,0 18.31391,39.84889,0 18.31357,39.84827,0 18.31867,39.84668,0 18.31907,39.84665,0
18.32131,39.84556,0 18.32231,39.84518,0 18.32406,39.84409,0 18.32524,39.84245,0 18.32590,39.84228,0
18.32762,39.84147,0 18.32913,39.84185,0 18.33081,39.84163,0 18.33337,39.84145,0 18.33351,39.83857,0
18.33444,39.83843,0 18.33518,39.83775,0 18.33601,39.83772,0 18.33658,39.83807,0 18.33872,39.83642,0
18.34041,39.83458,0 18.34145,39.83391,0 18.34169,39.83286,0
</coordinates>
        </LineString>
      </Placemark>
      <Placemark>
        <name>Patù - Otranto</name>
        <description>From Masseria Palane to Palazzo de Mori</description>
        <Style>
          <LineStyle>
            <color>ffff0000</color>
            <width>3</width>
          </LineStyle>
        </Style>
        <LineString>
          <tessellate>1</tessellate>
          <coordinates>
18.34169,39.83286,0 18.34192,39.83289,0 18.34153,39.83383,0 18.34057,39.83441,0 18.33908,39.83597,0
18.33658,39.83813,0 18.33836,39.83794,0 18.33784,39.83839,0 18.33988,39.83923,0 18.33940,39.83995,0
18.34197,39.84113,0 18.33817,39.84390,0 18.33816,39.84478,0 18.33768,39.84719,0 18.33717,39.84861,0
18.33839,39.84948,0 18.33840,39.85065,0 18.33986,39.85149,0 18.34221,39.85330,0 18.34339,39.85462,0
18.34333,39.85554,0 18.34512,39.85767,0 18.34506,39.85837,0 18.34607,39.85922,0 18.34635,39.85981,0
18.34727,39.86041,0 18.34977,39.86152,0 18.35159,39.86308,0 18.35250,39.86333,0 18.35348,39.86398,0
18.35680,39.86561,0 18.35660,39.86608,0 18.35682,39.86720,0 18.35805,39.86775,0 18.35952,39.86879,0
18.36007,39.86963,0 18.36060,39.86946,0 18.36166,39.87003,0 18.36170,39.87072,0 18.36255,39.87093,0
18.36447,39.88132,0 18.36484,39.88166,0 18.36463,39.88211,0 18.36572,39.88802,0 18.36471,39.89678,0
18.36567,39.90079,0 18.36945,39.90199,0 18.36903,39.90331,0 18.36770,39.90800,0 18.36690,39.91027,0
18.36625,39.91278,0 18.36646,39.91431,0 18.36779,39.91786,0 18.36803,39.92014,0 18.36859,39.92765,0
18.36876,39.92927,0 18.36969,39.92973,0 18.36516,39.93067,0 18.36522,39.93122,0 18.36636,39.93302,0
18.36854,39.93453,0 18.36902,39.93545,0 18.36948,39.93742,0 18.37076,39.93947,0 18.37154,39.94041,0
18.37216,39.94162,0 18.37289,39.94261,0 18.37706,39.94556,0 18.37863,39.94661,0 18.38189,39.94779,0
18.38282,39.94842,0 18.38578,39.95276,0 18.38663,39.95358,0 18.39011,39.95577,0 18.39089,39.95647,0
18.39136,39.95741,0 18.39144,39.95804,0 18.38918,39.96686,0 18.38821,39.97095,0 18.38782,39.97218,0
18.38653,39.97484,0 18.38552,39.97709,0 18.38553,39.97855,0 18.38572,39.97980,0 18.38568,39.98072,0
18.38509,39.98174,0 18.38419,39.98247,0 18.38547,39.98287,0 18.38535,39.98384,0 18.38582,39.98452,0
18.38951,39.98527,0 18.38934,39.98640,0 18.39040,39.98682,0 18.39181,39.98828,0 18.39410,39.98971,0
18.39586,39.99057,0 18.39618,39.99120,0 18.39801,39.99278,0 18.39895,39.99419,0 18.39950,39.99445,0
18.40050,39.99554,0 18.40403,39.99858,0 18.40931,40.00152,0 18.40811,40.00243,0 18.40721,40.00344,0
18.40520,40.00492,0 18.40650,40.00720,0 18.40801,40.00823,0 18.40925,40.01052,0 18.40963,40.01099,0
18.41011,40.01240,0 18.40986,40.01272,0 18.40869,40.01545,0 18.41004,40.01606,0 18.41180,40.01652,0
18.41136,40.01793,0 18.40930,40.02158,0 18.40895,40.02312,0 18.40818,40.02542,0 18.40989,40.02721,0
18.41092,40.02863,0 18.41197,40.02953,0 18.41447,40.03114,0 18.41512,40.03272,0 18.41428,40.03659,0
18.41461,40.03793,0 18.41509,40.03850,0 18.41622,40.03935,0 18.41734,40.04059,0 18.41934,40.04242,0
18.42038,40.04300,0 18.42737,40.04594,0 18.42914,40.04679,0 18.42981,40.04728,0 18.43332,40.05121,0
18.43447,40.05280,0 18.43643,40.05737,0 18.43684,40.05806,0 18.43818,40.05966,0 18.43900,40.06035,0
18.43995,40.06187,0 18.44045,40.06317,0 18.44112,40.06428,0 18.44219,40.06518,0 18.44215,40.06578,0
18.44343,40.06662,0 18.44536,40.06761,0 18.44591,40.06839,0 18.44693,40.07063,0 18.44833,40.07305,0
18.45003,40.07497,0 18.45068,40.07607,0 18.45096,40.07692,0 18.45111,40.07964,0 18.45135,40.08107,0
18.45317,40.08471,0 18.45437,40.08769,0 18.45535,40.08951,0 18.45631,40.09053,0 18.45879,40.09374,0
18.45960,40.09522,0 18.46098,40.09613,0 18.46214,40.09792,0 18.46423,40.09969,0 18.46701,40.10192,0
18.46796,40.10353,0 18.46861,40.10492,0 18.46953,40.10732,0 18.46966,40.10839,0 18.47000,40.10908,0
18.47165,40.11145,0 18.47341,40.11362,0 18.47402,40.11422,0 18.47624,40.11734,0 18.47683,40.11826,0
18.47731,40.11987,0 18.47782,40.12066,0 18.47909,40.12105,0 18.48248,40.12109,0 18.48352,40.12149,0
18.48657,40.12217,0 18.48714,40.12211,0 18.48732,40.12330,0 18.48686,40.12507,0 18.48662,40.12645,0
18.48659,40.12757,0 18.48607,40.12860,0 18.48568,40.13035,0 18.48504,40.13175,0 18.48445,40.13410,0
18.48483,40.13534,0 18.48446,40.13549,0 18.48576,40.13992,0 18.49199,40.14472,0 18.49161,40.14492,0
18.49220,40.14542,0 18.49234,40.14593,0 18.49288,40.14562,0
</coordinates>
        </LineString>
      </Placemark>
      <Placemark>
        <name>Otranto - Lecce</name>
        <description>From Palazzo de Mori to Palazzo Rollo</description>
        <Style>
          <LineStyle>
            <color>ffff0000</color>
            <width>3</width>
          </LineStyle>
        </Style>
        <LineString>
          <tessellate>1</tessellate>
          <coordinates>
18.49288,40.14562,0 18.49229,40.14643,0 18.49086,40.14683,0 18.49007,40.14668,0 18.49009,40.14639,0
18.48900,40.14607,0 18.48691,40.14815,0 18.48577,40.14809,0 18.48546,40.14869,0 18.48344,40.15056,0
18.48270,40.15067,0 18.48082,40.15219,0 18.47756,40.15551,0 18.47536,40.15703,0 18.47417,40.15831,0
18.46739,40.16780,0 18.46578,40.16918,0 18.46565,40.16946,0 18.46512,40.17237,0 18.46492,40.17298,0
18.46143,40.17896,0 18.46062,40.18123,0 18.45713,40.18558,0 18.45601,40.18798,0 18.45441,40.19073,0
18.45365,40.19175,0 18.45296,40.19180,0 18.44721,40.19035,0 18.44664,40.19034,0 18.44531,40.19075,0
18.44343,40.19161,0 18.44162,40.19220,0 18.43631,40.19553,0 18.43573,40.19628,0 18.43165,40.20553,0
18.43087,40.20717,0 18.42988,40.20799,0 18.42273,40.21076,0 18.42207,40.21124,0 18.42173,40.21184,0
18.42113,40.21514,0 18.42212,40.21773,0 18.41993,40.21811,0 18.41915,40.21837,0 18.41447,40.22226,0
18.41368,40.22261,0 18.41278,40.22409,0 18.41232,40.22450,0 18.40963,40.22599,0 18.40738,40.22919,0
18.40704,40.22957,0 18.40416,40.23010,0 18.40288,40.23080,0 18.40238,40.23129,0 18.39904,40.23324,0
18.39806,40.23410,0 18.39798,40.23477,0 18.39722,40.23579,0 18.39658,40.23621,0 18.39002,40.23934,0
18.38682,40.23944,0 18.38270,40.23926,0 18.38039,40.24020,0 18.37971,40.24113,0 18.37908,40.24364,0
18.37805,40.24369,0 18.37792,40.24497,0 18.37874,40.24631,0 18.37885,40.24943,0 18.37775,40.25254,0
18.37699,40.25621,0 18.37677,40.25690,0 18.37583,40.25870,0 18.37256,40.25891,0 18.37108,40.25934,0
18.37060,40.25996,0 18.36955,40.26009,0 18.36818,40.25926,0 18.36674,40.26039,0 18.36591,40.26005,0
18.36418,40.26221,0 18.36307,40.26236,0 18.36239,40.26365,0 18.35958,40.26595,0 18.35774,40.26708,0
18.35705,40.26736,0 18.35552,40.26849,0 18.35350,40.26970,0 18.34760,40.27302,0 18.34617,40.27421,0
18.34407,40.27506,0 18.34416,40.27869,0 18.34400,40.27917,0 18.34219,40.27850,0 18.34089,40.27817,0
18.33964,40.27809,0 18.33817,40.27830,0 18.33688,40.27881,0 18.33539,40.27989,0 18.33351,40.28140,0
18.33007,40.28315,0 18.32687,40.28568,0 18.32414,40.28774,0 18.31890,40.29025,0 18.31687,40.29253,0
18.31640,40.29327,0 18.31510,40.29466,0 18.31418,40.29535,0 18.31252,40.29629,0 18.31152,40.29718,0
18.30834,40.29916,0 18.30769,40.29969,0 18.30640,40.30040,0 18.30406,40.30105,0 18.30060,40.30264,0
18.29770,40.30369,0 18.29345,40.30650,0 18.29242,40.30808,0 18.28861,40.31080,0 18.28725,40.31200,0
18.28594,40.31285,0 18.28286,40.31442,0 18.28054,40.31501,0 18.27945,40.31505,0 18.27865,40.31561,0
18.27584,40.31999,0 18.27538,40.31976,0 18.27392,40.31952,0 18.27318,40.31960,0 18.26617,40.32176,0
18.26022,40.32464,0 18.25961,40.32510,0 18.25871,40.32525,0 18.25060,40.32907,0 18.24666,40.33120,0
18.24347,40.33255,0 18.23768,40.33449,0 18.23651,40.33514,0 18.23610,40.33453,0 18.23490,40.33490,0
18.23305,40.33601,0 18.23022,40.33725,0 18.22907,40.33715,0 18.22572,40.33586,0 18.22386,40.33542,0
18.22084,40.33497,0 18.21787,40.33533,0 18.21684,40.33563,0 18.21615,40.33615,0 18.21346,40.33638,0
18.21286,40.33667,0 18.20928,40.33699,0 18.20870,40.33714,0 18.20732,40.33794,0 18.20593,40.33828,0
18.20256,40.34028,0 18.20034,40.34182,0 18.19896,40.34254,0 18.19366,40.34496,0 18.19366,40.34520,0
18.19255,40.34538,0 18.18595,40.34755,0 18.18176,40.34849,0 18.18177,40.34909,0 18.17988,40.34919,0
18.17734,40.35110,0 18.17659,40.35115,0 18.17478,40.35158,0 18.17445,40.35101,0 18.17298,40.34926,0
18.17220,40.34991,0 18.17245,40.35026,0 18.17276,40.35157,0 18.17230,40.35196,0 18.17165,40.35201,0
18.16970,40.35179,0 18.16932,40.35244,0
</coordinates>
        </LineString>
      </Placemark>
    </Folder>
  </Document>
</kml>
