<?xml version="1.0" encoding="UTF-8"?>
<kml xmlns="http://www.opengis.net/kml/2.2">
<Document>
 <Folder>
  <name>Google top-rated</name>
  <description></description>
  <Placemark>
   <name>LAB 57 Bottega Gastronomica</name>
   <description><![CDATA[
+39 0883 411339
<br>
      Corso Matteo Renato Imbriani, 34, 76125 Trani BT
<br>
      Google: 4.9 (92) · €30 - €40
<br>
      Map: https://tinyurl.com/4swnu4y9
   ]]></description>
   <styleUrl>#paddle-wht-circle-RoyalBlue</styleUrl>
   <Point>
    <coordinates>16.42294,41.27356,0</coordinates>
   </Point>
  </Placemark>
  <Placemark>
   <name>Moselli Restaurant</name>
   <description><![CDATA[
+39 0883 677751
<br>
https://moselliristorantetrani.it/
<br>
      Via Nigrò, 37, 76125 Trani BT
<br>
      Google: 4.8 (255) · €40 - €50
<br>
      Map: https://tinyurl.com/sxhcmnzy
   ]]></description>
   <styleUrl>#paddle-wht-circle-RoyalBlue</styleUrl>
   <Point>
    <coordinates>16.41465,41.27797,0</coordinates>
   </Point>
  </Placemark>
  <Placemark>
   <name>Memento Ristorante</name>
   <description><![CDATA[
+39 0883 010233
<br>
https://www.mementoristorante.it/
<br>
      Via Ognissanti, 121, 76125 Trani BT
<br>
      Google: 4.8 (215) · €40 - €90
<br>
      Map: https://tinyurl.com/yuhsz793
   ]]></description>
   <styleUrl>#paddle-wht-circle-RoyalBlue</styleUrl>
   <Point>
    <coordinates>16.41941,41.27743,0</coordinates>
   </Point>
  </Placemark>
  <Placemark>
   <name>Trattoria La Casalinga</name>
   <description><![CDATA[
+39 392 415 8538
<br>
      Via M. Pagano, 172, 76125 Trani BT
<br>
      Google: 4.7 (443) · €30 - €40
<br>
      Map: https://tinyurl.com/4jr85xd6
   ]]></description>
   <styleUrl>#paddle-wht-circle-RoyalBlue</styleUrl>
   <Point>
    <coordinates>16.41819,41.27726,0</coordinates>
   </Point>
  </Placemark>
  <Placemark>
   <name>Le Lampare al Fortino</name>
   <description><![CDATA[
+39 0883 480308
<br>
http://www.lelamparealfortino.it/
<br>
      Via Tiepolo, sn, 70059 Trani BT
<br>
      Google: 4.7 (1035) · €100 +
<br>
      Map: https://tinyurl.com/43umw2bb
   ]]></description>
   <styleUrl>#paddle-wht-circle-RoyalBlue</styleUrl>
   <Point>
    <coordinates>16.42203,41.28044,0</coordinates>
   </Point>
  </Placemark>
  <Placemark>
   <name>Quintessenza</name>
   <description><![CDATA[
+39 0883 880948
<br>
http://www.quintessenzaristorante.it/
<br>
      Via Lionelli, 62, 76125 Trani BT
<br>
      Google: 4.8 (940) · €100 +
<br>
      Map: https://tinyurl.com/3vmd4yhr
   ]]></description>
   <styleUrl>#paddle-wht-circle-RoyalBlue</styleUrl>
   <Point>
    <coordinates>16.41499,41.28143,0</coordinates>
   </Point>
  </Placemark>
  <Placemark>
   <name>Mānima - Osteria</name>
   <description><![CDATA[
+39 388 587 8998
<br>
http://www.manima.it/
<br>
dinner only
<br>
      Via S. Giorgio, 16, 76125 Trani BT
<br>
      Google: 4.7 (405) · €30 - €40
<br>
      Map: https://tinyurl.com/4wzpe8ty
   ]]></description>
   <styleUrl>#paddle-wht-circle-RoyalBlue</styleUrl>
   <Point>
    <coordinates>16.42232,41.27767,0</coordinates>
   </Point>
  </Placemark>
  <Placemark>
   <name>Ristorante Fefino Cucina Naturale a Trani</name>
   <description><![CDATA[
+39 338 424 3365
<br>
https://www.fefino.it/
<br>
      Via M. Pagano, 176/178, 76125 Trani BT
<br>
      Google: 4.9 (304) · €20 - €30
<br>
      Map: https://tinyurl.com/3whep93a
   ]]></description>
   <styleUrl>#paddle-wht-circle-RoyalBlue</styleUrl>
   <Point>
    <coordinates>16.41834,41.27725,0</coordinates>
   </Point>
  </Placemark>
  <Placemark>
   <name>Queenpuglia</name>
   <description><![CDATA[
+39 353 322 3425
<br>
https://www.queenpuglia.com/
<br>
      Via S. Giorgio, 5, 76125 Trani BT
<br>
      Google: 4.9 (443) · €10 - €20
<br>
      Map: https://tinyurl.com/zm9mcf95
   ]]></description>
   <styleUrl>#paddle-wht-circle-RoyalBlue</styleUrl>
   <Point>
    <coordinates>16.42248,41.27749,0</coordinates>
   </Point>
  </Placemark>
  <Placemark>
   <name>O&#x27;Cicciobello</name>
   <description><![CDATA[
+39 334 346 3767
<br>
      Piazza Campo dei Longobardi, 76125 Trani BT
<br>
      Google: 4.8 (21) · €10 - €20
<br>
      Map: https://tinyurl.com/3c9krpur
   ]]></description>
   <styleUrl>#paddle-wht-circle-RoyalBlue</styleUrl>
   <Point>
    <coordinates>16.41883,41.27794,0</coordinates>
   </Point>
  </Placemark>
  <Placemark>
   <name>Mómó Masseria Urbana</name>
   <description><![CDATA[
+39 328 885 3850
<br>
https://linktr.ee/momomasseriaurbana
<br>
      Piazza Gradenigo, 5, 76125 Trani BT
<br>
      Google: 4.8 (121) · €20 - €30
<br>
      Map: https://tinyurl.com/5c4t2wkc
   ]]></description>
   <styleUrl>#paddle-wht-circle-RoyalBlue</styleUrl>
   <Point>
    <coordinates>16.41443,41.27921,0</coordinates>
   </Point>
  </Placemark>
  <Placemark>
   <name>Tierra Osteria Contemporanea</name>
   <description><![CDATA[
+39 351 804 4939
<br>
https://www.tierramatera.com/
<br>
      Vicolo Lombardi, 53, 75100 Matera MT
<br>
      Google: 4.8 (610) · €30 - €60
<br>
      Map: https://tinyurl.com/4jzv6yvh
   ]]></description>
   <styleUrl>#paddle-wht-circle-RoyalBlue</styleUrl>
   <Point>
    <coordinates>16.6084,40.66602,0</coordinates>
   </Point>
  </Placemark>
  <Placemark>
   <name>Il Fiore del Latte</name>
   <description><![CDATA[
+39 388 489 1995
<br>
http://www.ilfioredellatte.shop/
<br>
      Piazza Ascanio Persio, 15, 75100 Matera MT
<br>
      Google: 4.9 (1052) · €10 - €20
<br>
      Map: https://tinyurl.com/3fehp4ra
   ]]></description>
   <styleUrl>#paddle-wht-circle-RoyalBlue</styleUrl>
   <Point>
    <coordinates>16.60556,40.66582,0</coordinates>
   </Point>
  </Placemark>
  <Placemark>
   <name>Ristorante Burro Salato - Cucina Francese e Lucana a Matera</name>
   <description><![CDATA[
+39 0835 240469
<br>
https://burrosalato.com/
<br>
      Via Rocco Scotellaro, 7, 75100 Matera MT
<br>
      Google: 4.8 (770) · €30 - €40
<br>
      Map: https://tinyurl.com/7c943pxk
   ]]></description>
   <styleUrl>#paddle-wht-circle-RoyalBlue</styleUrl>
   <Point>
    <coordinates>16.60785,40.66497,0</coordinates>
   </Point>
  </Placemark>
  <Placemark>
   <name>La Locanda Del vicinato , Ristorante</name>
   <description><![CDATA[
+39 331 137 7908
<br>
      Via Casalnuovo, 39, 75100 Matera MT
<br>
      Google: 4.7 (339) · €20 - €30
<br>
      Map: https://tinyurl.com/mavyc963
   ]]></description>
   <styleUrl>#paddle-wht-circle-RoyalBlue</styleUrl>
   <Point>
    <coordinates>16.61062,40.66241,0</coordinates>
   </Point>
  </Placemark>
  <Placemark>
   <name>Conzato Norcineria</name>
   <description><![CDATA[
+39 347 728 9282
<br>
https://www.conzatomatera.it/
<br>
      Via Fiorentini, 241, 75100 Matera MT
<br>
      Google: 4.8 (585) · €20 - €30
<br>
      Map: https://tinyurl.com/bdh6wv3h
   ]]></description>
   <styleUrl>#paddle-wht-circle-RoyalBlue</styleUrl>
   <Point>
    <coordinates>16.61001,40.66747,0</coordinates>
   </Point>
  </Placemark>
  <Placemark>
   <name>Myricae Ristorante</name>
   <description><![CDATA[
+39 328 344 0122
<br>
https://myricaeristorante.it/
<br>
      Via del Corso, 35, 75100 Matera MT
<br>
      Google: 5 (202) · €40 - €80
<br>
      Map: https://tinyurl.com/2p9kw4sp
   ]]></description>
   <styleUrl>#paddle-wht-circle-RoyalBlue</styleUrl>
   <Point>
    <coordinates>16.60846,40.66577,0</coordinates>
   </Point>
  </Placemark>
  <Placemark>
   <name>Il Rusticone</name>
   <description><![CDATA[
+39 0835 185 3209
<br>
http://www.ilrusticone.com/
<br>
dinner only
<br>
      Via San Biagio, 5, 75100 Matera MT
<br>
      Google: 4.8 (1568) · €10 - €20
<br>
      Map: https://tinyurl.com/4u2dv5a6
   ]]></description>
   <styleUrl>#paddle-wht-circle-RoyalBlue</styleUrl>
   <Point>
    <coordinates>16.60712,40.66722,0</coordinates>
   </Point>
  </Placemark>
  <Placemark>
   <name>OHIMÈ Matera</name>
   <description><![CDATA[
+39 327 841 4877
<br>
https://www.ohimematera.it/
<br>
      Via T. Stigliani, 82, 75100 Matera MT
<br>
      Google: 4.8 (648) · €10 - €20
<br>
      Map: https://tinyurl.com/2x2unxej
   ]]></description>
   <styleUrl>#paddle-wht-circle-RoyalBlue</styleUrl>
   <Point>
    <coordinates>16.60665,40.67016,0</coordinates>
   </Point>
  </Placemark>
  <Placemark>
   <name>Ristorante Alle Fornaci</name>
   <description><![CDATA[
+39 0835 335037
<br>
http://www.ristoranteallefornaci.it/
<br>
      Piazza Cesare Firrao, 7, 75100 Matera MT
<br>
      Google: 4.7 (1035) · €40 - €80
<br>
      Map: https://tinyurl.com/yz2yd45c
   ]]></description>
   <styleUrl>#paddle-wht-circle-RoyalBlue</styleUrl>
   <Point>
    <coordinates>16.60558,40.6689,0</coordinates>
   </Point>
  </Placemark>
  <Placemark>
   <name>L&#x27;Angolo del Sapore</name>
   <description><![CDATA[
+39 328 676 6387
<br>
http://www.langolodelsapore.it/
<br>
      Via S. Pardo, 4/6, 75100 Matera MT
<br>
      Google: 4.7 (389) · €20 - €60
<br>
      Map: https://tinyurl.com/4ndp5jyx
   ]]></description>
   <styleUrl>#paddle-wht-circle-RoyalBlue</styleUrl>
   <Point>
    <coordinates>16.59755,40.67673,0</coordinates>
   </Point>
  </Placemark>
  <Placemark>
   <name>Tipicamente Matera - Mangiare prodotti tipici a Matera</name>
   <description><![CDATA[
+39 333 346 0684
<br>
http://www.tipica-mente.it/
<br>
      Via San Biagio, 20, 75100 Matera MT
<br>
      Google: 4.7 (361) · €1 - €10
<br>
      Map: https://tinyurl.com/4xp4cu3m
   ]]></description>
   <styleUrl>#paddle-wht-circle-RoyalBlue</styleUrl>
   <Point>
    <coordinates>16.60725,40.66715,0</coordinates>
   </Point>
  </Placemark>
 </Folder>

    <Style id='paddle-wht-circle-RoyalBlue'>
      <IconStyle>
        <color>ffe16941</color>
        <scale>1.1</scale>
        <Icon>
          <href>http://maps.google.com/mapfiles/kml/paddle/wht-circle.png</href>
        </Icon>
      </IconStyle>
    </Style>
  
</Document>
</kml>
