<?xml version="1.0" encoding="UTF-8"?>
<kml xmlns="http://www.opengis.net/kml/2.2">
<Document>
 <Folder>
  <name>Bike Basilicata recommendations</name>
  <description>recommendations from their trip notes</description>
  <Placemark>
   <name>Pescaria - Trani</name>
   <description><![CDATA[
gourmet seafood sandwiches
<br>
+39 0883 188 0138
<br>
https://www.pescaria.it/
<br>
Via Cavour, 39, 76125 Trani BT
<br>
Google: 4.3 (1046) · €10 - €20
<br>
Map: https://tinyurl.com/2rz7vpvp
   ]]></description>
   <styleUrl>#paddle-wht-circle-DodgerBlue</styleUrl>
   <Point>
    <coordinates>16.42194,41.27644,0</coordinates>
   </Point>
  </Placemark>
  <Placemark>
   <name>La Banchina</name>
   <description><![CDATA[
local fish dishes
<br>
+39 0883 584747
<br>
https://labanchinatrani.it/ristorante.html
<br>
Via Banchina Al Porto, 16, 76125 Trani BT
<br>
Google: 4.3 (1174) · €30 - €70
<br>
Map: https://tinyurl.com/mukdx38x
   ]]></description>
   <styleUrl>#paddle-wht-circle-DodgerBlue</styleUrl>
   <Point>
    <coordinates>16.41885,41.27924,0</coordinates>
   </Point>
  </Placemark>
  <Placemark>
   <name>Ristorante Corteinfiore</name>
   <description><![CDATA[
+39 0883 508402
<br>
http://www.corteinfiore.it/
<br>
      Via Ognissanti, 18, 76125 Trani BT
<br>
      Google: 4.7 (1533) · €50 - €100
<br>
      Map: https://tinyurl.com/43a3749f
   ]]></description>
   <styleUrl>#paddle-wht-circle-DodgerBlue</styleUrl>
   <Point>
    <coordinates>16.41863,41.2799,0</coordinates>
   </Point>
  </Placemark>
  <Placemark>
   <name>Gallo Restaurant</name>
   <description><![CDATA[
+39 0883 487255
<br>
https://mymenuweb.com/it/restaurants/967569/?utm_source=google_profile&utm_medium=google_profile&utm_campaign=admin
<br>
      Via Statuti Marittimi, 48/50, 76125 Trani BT
<br>
      Google: 4.6 (1017) · €40 - €90
<br>
      Map: https://tinyurl.com/4639mbpb
   ]]></description>
   <styleUrl>#paddle-wht-circle-DodgerBlue</styleUrl>
   <Point>
    <coordinates>16.42021,41.27796,0</coordinates>
   </Point>
  </Placemark>
  <Placemark>
   <name>Sottovento B&amp;B</name>
   <description><![CDATA[
harbor-view aperitifs
<br>
+39 347 349 2323
<br>
http://sottoventobnb.com.es/
<br>
Corso Alcide De Gasperi, 49, 76125 Trani BT
<br>
Google: 4.3 (18)
<br>
Map: https://tinyurl.com/4zmhfu2b
   ]]></description>
   <styleUrl>#paddle-wht-circle-DodgerBlue</styleUrl>
   <Point>
    <coordinates>16.43027,41.2686,0</coordinates>
   </Point>
  </Placemark>
  <Placemark>
   <name>Vin&#x27;Borgo</name>
   <description><![CDATA[
in our hotel
<br>
+39 080 237 1355
<br>
http://vinborgo.it/
<br>
dinner only
<br>
Via Angelo Raffaele Corrado, 3, 70024 Gravina in Puglia BA
<br>
Google: 4.5 (155)
<br>
Map: https://tinyurl.com/y2bj5k25
   ]]></description>
   <styleUrl>#paddle-wht-circle-DodgerBlue</styleUrl>
   <Point>
    <coordinates>16.41574,40.8171,0</coordinates>
   </Point>
  </Placemark>
  <Placemark>
   <name>Al Vecchio Crapo</name>
   <description><![CDATA[
pizza
<br>
+39 080 237 3706
<br>
http://www.pizzeriaalvecchiocrapo.it/
<br>
Via Civita, 84, 70024 Gravina in Puglia BA
<br>
Google: 4.5 (1164) · €10 - €20
<br>
Map: https://tinyurl.com/2wtszxhu
   ]]></description>
   <styleUrl>#paddle-wht-circle-DodgerBlue</styleUrl>
   <Point>
    <coordinates>16.4126,40.81668,0</coordinates>
   </Point>
  </Placemark>
  <Placemark>
   <name>La Lanterna</name>
   <description><![CDATA[
pizza
<br>
+39 080 326 4394
<br>
dinner only
<br>
Viale Orsini, 17 19 21, 70024 Gravina in Puglia BA
<br>
Google: 4.3 (85) · €10 - €20
<br>
Map: https://tinyurl.com/2z9pfpfw
   ]]></description>
   <styleUrl>#paddle-wht-circle-DodgerBlue</styleUrl>
   <Point>
    <coordinates>16.41574,40.81657,0</coordinates>
   </Point>
  </Placemark>
  <Placemark>
   <name>Trattoria Zia Rosa - Gravina in Puglia</name>
   <description><![CDATA[
+39 080 325 7842
<br>
https://www.trattoriaziarosa.com/
<br>
      Via Guglielmo Marconi, 18, 70024 Gravina in Puglia BA
<br>
      Google: 4.3 (830) · €20 - €30
<br>
      Map: https://tinyurl.com/47awxf73
   ]]></description>
   <styleUrl>#paddle-wht-circle-DodgerBlue</styleUrl>
   <Point>
    <coordinates>16.41464,40.81687,0</coordinates>
   </Point>
  </Placemark>
  <Placemark>
   <name>Sottofondo Gustoteca Gravina</name>
   <description><![CDATA[
+39 080 914 0267
<br>
http://sottofondogustoteca.it/
<br>
      Calata Grotte S. Michele, 45, 70024 Gravina in Puglia BA
<br>
      Google: 4.4 (837) · €20 - €30
<br>
      Map: https://tinyurl.com/3rpccbdu
   ]]></description>
   <styleUrl>#paddle-wht-circle-DodgerBlue</styleUrl>
   <Point>
    <coordinates>16.4136,40.81654,0</coordinates>
   </Point>
  </Placemark>
  <Placemark>
   <name>Trattoria Il Cardoncello</name>
   <description><![CDATA[
+39 080 244 8717
<br>
https://www.trattoriailcardoncello.it/
<br>
      Corso Giuseppe di Vittorio, 22, 70024 Gravina in Puglia BA
<br>
      Google: 4.4 (990) · €20 - €40
<br>
      Map: https://tinyurl.com/3muhxmns
   ]]></description>
   <styleUrl>#paddle-wht-circle-DodgerBlue</styleUrl>
   <Point>
    <coordinates>16.4198,40.81788,0</coordinates>
   </Point>
  </Placemark>
  <Placemark>
   <name>La Murgiana</name>
   <description><![CDATA[
+39 080 325 0342
<br>
https://lamurgiana.it/
<br>
      Via XXIV Maggio, 25, 70024 Gravina in Puglia BA
<br>
      Google: 4.5 (1344) · €20 - €30
<br>
      Map: https://tinyurl.com/4w2ntcp6
   ]]></description>
   <styleUrl>#paddle-wht-circle-DodgerBlue</styleUrl>
   <Point>
    <coordinates>16.41653,40.8155,0</coordinates>
   </Point>
  </Placemark>
  <Placemark>
   <name>Di Gesù Bakery</name>
   <description><![CDATA[
bakery
<br>
+39 080 222 3503
<br>
https://www.digesu.it/
<br>
Via Bari, 14, 70022 Altamura BA
<br>
Google: 4.3 (257) · €1 - €10
<br>
Map: https://tinyurl.com/bdfe7xvp
   ]]></description>
   <styleUrl>#paddle-wht-circle-DodgerBlue</styleUrl>
   <Point>
    <coordinates>16.55457,40.83033,0</coordinates>
   </Point>
  </Placemark>
  <Placemark>
   <name>Monastery of St. Clare</name>
   <description><![CDATA[
bakery
<br>
+39 080 314 1386
<br>
Via Santa Chiara, 2, 70022 Altamura BA
<br>
Google: 4.5 (93)
<br>
Map: https://tinyurl.com/3vyh4jc5
   ]]></description>
   <styleUrl>#paddle-wht-circle-DodgerBlue</styleUrl>
   <Point>
    <coordinates>16.55429,40.82717,0</coordinates>
   </Point>
  </Placemark>
  <Placemark>
   <name>Via Santa Caterina</name>
   <description><![CDATA[
bakery
<br>
Via Santa Caterina, 70022 Altamura BA
<br>
Google: None (None)
<br>
Map: https://tinyurl.com/48bsbvu6
   ]]></description>
   <styleUrl>#paddle-wht-circle-DodgerBlue</styleUrl>
   <Point>
    <coordinates>16.55435,40.82627,0</coordinates>
   </Point>
  </Placemark>
  <Placemark>
   <name>Madame Giulia</name>
   <description><![CDATA[
ask for the apericena menu
<br>
+39 376 098 3606
<br>
http://www.madamegiulia.it/
<br>
Via D'Addozio, 48, 75100 Matera MT
<br>
Google: 4.6 (637) · €20 - €40
<br>
Map: https://tinyurl.com/ycyr2pu9
   ]]></description>
   <styleUrl>#paddle-wht-circle-DodgerBlue</styleUrl>
   <Point>
    <coordinates>16.60936,40.66924,0</coordinates>
   </Point>
  </Placemark>
  <Placemark>
   <name>Ristorante La Gattabuia - Matera</name>
   <description><![CDATA[
their favourite
<br>
+39 0835 256510
<br>
http://www.lagattabuia.com/
<br>
Via delle Beccherie, 90/92, 75100 Matera MT
<br>
Google: 4.4 (753) · €30 - €80
<br>
Map: https://tinyurl.com/bdez35v6
   ]]></description>
   <styleUrl>#paddle-wht-circle-DodgerBlue</styleUrl>
   <Point>
    <coordinates>16.6096,40.66575,0</coordinates>
   </Point>
  </Placemark>
  <Placemark>
   <name>Osteria San Giovanni Matera Cucina Tipica</name>
   <description><![CDATA[
+39 350 924 3703
<br>
https://www.sangiovanniosteria.com/
<br>
      Via San Biagio, 27/F, 75100 Matera MT
<br>
      Google: 4.4 (347) · €30 - €40
<br>
      Map: https://tinyurl.com/mwtr2dpv
   ]]></description>
   <styleUrl>#paddle-wht-circle-DodgerBlue</styleUrl>
   <Point>
    <coordinates>16.60769,40.66741,0</coordinates>
   </Point>
  </Placemark>
  <Placemark>
   <name>Morgan Restaurant</name>
   <description><![CDATA[
+39 0835 312233
<br>
https://www.morganristorante.it/
<br>
      Via Bruno Buozzi, 2, 75100 Matera MT
<br>
      Google: 4.2 (1582) · €20 - €30
<br>
      Map: https://tinyurl.com/ychjubh3
   ]]></description>
   <styleUrl>#paddle-wht-circle-DodgerBlue</styleUrl>
   <Point>
    <coordinates>16.61066,40.66203,0</coordinates>
   </Point>
  </Placemark>
  <Placemark>
   <name>La Lopa</name>
   <description><![CDATA[
+39 0835 165 1370
<br>
https://www.lalopa.com/
<br>
      Via Bruno Buozzi, 13, 75100 Matera MT
<br>
      Google: 4.6 (1584) · €30 - €40
<br>
      Map: https://tinyurl.com/yfcj9de6
   ]]></description>
   <styleUrl>#paddle-wht-circle-DodgerBlue</styleUrl>
   <Point>
    <coordinates>16.61098,40.66217,0</coordinates>
   </Point>
  </Placemark>
  <Placemark>
   <name>Retròbottega Matera</name>
   <description><![CDATA[
+39 378 309 2480
<br>
https://retrobottegamatera.it/
<br>
      Via Bruno Buozzi, 11, 75100 Matera MT
<br>
      Google: 5 (78) · €30 - €40
<br>
      Map: https://tinyurl.com/34uw8u3m
   ]]></description>
   <styleUrl>#paddle-wht-circle-DodgerBlue</styleUrl>
   <Point>
    <coordinates>16.6108,40.6622,0</coordinates>
   </Point>
  </Placemark>
  <Placemark>
   <name>zipa cafè</name>
   <description><![CDATA[
drinks -- charming cafè in caves
<br>
+39 370 322 4520
<br>
http://www.zipacafe.com/
<br>
Via Madonna dell'Idris, 15, 75100 Matera MT
<br>
Google: 4.7 (930) · €10 - €20
<br>
Map: https://tinyurl.com/bdefuzvu
   ]]></description>
   <styleUrl>#paddle-wht-circle-DodgerBlue</styleUrl>
   <Point>
    <coordinates>16.61209,40.66365,0</coordinates>
   </Point>
  </Placemark>
  <Placemark>
   <name>Jazzo Gattini Visitor Center</name>
   <description><![CDATA[
on loop to Murgia Materana
<br>
+39 340 746 7667
<br>
http://www.visitparcomurgia.it/
<br>
Contrada Murgia Timone, 75100 Matera MT
<br>
Google: 4.3 (640)
<br>
Map: https://tinyurl.com/7vzefc4n
   ]]></description>
   <styleUrl>#paddle-wht-circle-DodgerBlue</styleUrl>
   <Point>
    <coordinates>16.6295,40.67232,0</coordinates>
   </Point>
  </Placemark>
  <Placemark>
   <name>Azienda Agricola F.lli Dragone</name>
   <description><![CDATA[
on loop to San Giuliano Lake
<br>
+39 0835 385149
<br>
https://dragonevini.com/
<br>
Contrada Pietrapenta, Matera, Strada Provinciale Papalione, 75100 Matera MT
<br>
Google: 4.5 (157)
<br>
Map: https://tinyurl.com/48wk6xxb
   ]]></description>
   <styleUrl>#paddle-wht-circle-DodgerBlue</styleUrl>
   <Point>
    <coordinates>16.55701,40.61861,0</coordinates>
   </Point>
  </Placemark>
  <Placemark>
   <name>Piazza Plebiscito</name>
   <description><![CDATA[
lunch
<br>
Piazza Plebiscito, 70023 Gioia del Colle BA
<br>
Google: None (None)
<br>
Map: https://tinyurl.com/22tbw3jt
   ]]></description>
   <styleUrl>#paddle-wht-circle-DodgerBlue</styleUrl>
   <Point>
    <coordinates>16.92191,40.79872,0</coordinates>
   </Point>
  </Placemark>
  <Placemark>
   <name>Salotto - Mescolanze e Specialità</name>
   <description><![CDATA[
lunch
<br>
+39 080 416 3204
<br>
https://www.facebook.com/salotto.gioiadelcolle
<br>
Via Roma, 19, 70023 Gioia del Colle BA
<br>
Google: 4.4 (379) · €10 - €20
<br>
Map: https://tinyurl.com/yeysneya
   ]]></description>
   <styleUrl>#paddle-wht-circle-DodgerBlue</styleUrl>
   <Point>
    <coordinates>16.92004,40.79768,0</coordinates>
   </Point>
  </Placemark>
  <Placemark>
   <name>L&#x27;Antica Locanda</name>
   <description><![CDATA[
+39 080 497 2460
<br>
http://www.pasqualefatalino.it/
<br>
      Via Spirito Santo, 49, 70015 Noci BA
<br>
      Google: 4.7 (1679) · €30 - €40
<br>
      Map: https://tinyurl.com/fmntandk
   ]]></description>
   <styleUrl>#paddle-wht-circle-DodgerBlue</styleUrl>
   <Point>
    <coordinates>17.12268,40.79625,0</coordinates>
   </Point>
  </Placemark>
  <Placemark>
   <name>Dimora Intini Ristorante</name>
   <description><![CDATA[
+39 080 497 8930
<br>
https://www.dimoraintini.com/ristorante/
<br>
      Via S. Domenico, 16, 70015 Noci BA
<br>
      Google: 4.7 (117) · €30 - €60
<br>
      Map: https://tinyurl.com/2e2x23cm
   ]]></description>
   <styleUrl>#paddle-wht-circle-DodgerBlue</styleUrl>
   <Point>
    <coordinates>17.1251,40.79517,0</coordinates>
   </Point>
  </Placemark>
  <Placemark>
   <name>Pescaria</name>
   <description><![CDATA[
+39 080 908 0462
<br>
https://www.pescaria.it/
<br>
      Piazza Aldo Moro, 6/8, 70044 Polignano a Mare BA
<br>
      Google: 4.3 (15024) · €10 - €20
<br>
      Map: https://tinyurl.com/mr2b6zsa
   ]]></description>
   <styleUrl>#paddle-wht-circle-DodgerBlue</styleUrl>
   <Point>
    <coordinates>17.21938,40.99471,0</coordinates>
   </Point>
  </Placemark>
  <Placemark>
   <name>Olio su pane</name>
   <description><![CDATA[
+39 320 957 5399
<br>
https://bit.ly/4ffqd8W
<br>
      Via Roma, 60, 70044 Polignano a Mare BA
<br>
      Google: 4.8 (1096) · €10 - €20
<br>
      Map: https://tinyurl.com/yccxnas5
   ]]></description>
   <styleUrl>#paddle-wht-circle-DodgerBlue</styleUrl>
   <Point>
    <coordinates>17.2206,40.99531,0</coordinates>
   </Point>
  </Placemark>
  <Placemark>
   <name>MINT Cucina Fresca</name>
   <description><![CDATA[
http://www.mintcucinafresca.com/
<br>
      Via S Benedetto, 32, 70044 Polignano a Mare BA
<br>
      Google: 4.9 (758) · €30 - €50
<br>
      Map: https://tinyurl.com/3kca7m4w
   ]]></description>
   <styleUrl>#paddle-wht-circle-DodgerBlue</styleUrl>
   <Point>
    <coordinates>17.21988,40.99626,0</coordinates>
   </Point>
  </Placemark>
  <Placemark>
   <name>Martin Cafe&#x27;</name>
   <description><![CDATA[
+39 080 424 7522
<br>
      Piazza Papa Giovanni Paolo II, 70044 Polignano a Mare BA
<br>
      Google: 4.5 (339) · €1 - €10
<br>
      Map: https://tinyurl.com/mknk58cz
   ]]></description>
   <styleUrl>#paddle-wht-circle-DodgerBlue</styleUrl>
   <Point>
    <coordinates>17.21222,40.99354,0</coordinates>
   </Point>
  </Placemark>
  <Placemark>
   <name>The Super Mago del Gelo Mario Campanella</name>
   <description><![CDATA[
+39 080 424 0025
<br>
https://www.ilsupermagodelgelo.it/
<br>
      P.zza Giuseppe Garibaldi, 22, 70044 Polignano a Mare BA
<br>
      Google: 4.4 (1505) · €1 - €10
<br>
      Map: https://tinyurl.com/4bx4ewj5
   ]]></description>
   <styleUrl>#paddle-wht-circle-DodgerBlue</styleUrl>
   <Point>
    <coordinates>17.21871,40.99527,0</coordinates>
   </Point>
  </Placemark>
  <Placemark>
   <name>The King Street Food</name>
   <description><![CDATA[
+39 080 237 0270
<br>
https://www.thekingstreetfood.it/
<br>
      Via Orazio Comes, 31, 70043 Monopoli BA
<br>
      Google: 4.6 (2804) · €10 - €20
<br>
      Map: https://tinyurl.com/bhb2avzh
   ]]></description>
   <styleUrl>#paddle-wht-circle-DodgerBlue</styleUrl>
   <Point>
    <coordinates>17.30512,40.9536,0</coordinates>
   </Point>
  </Placemark>
  <Placemark>
   <name>Locanda Don Ferrante</name>
   <description><![CDATA[
+39 393 365 4652
<br>
http://www.donferrante.it/
<br>
      Via S. Vito, 27, 70043 Monopoli BA
<br>
      Google: 4.7 (288)
<br>
      Map: https://tinyurl.com/3yc6756m
   ]]></description>
   <styleUrl>#paddle-wht-circle-DodgerBlue</styleUrl>
   <Point>
    <coordinates>17.3065,40.95213,0</coordinates>
   </Point>
  </Placemark>
  <Placemark>
   <name>Salsamenteria La Salumeria Alcolica</name>
   <description><![CDATA[
+39 340 663 5208
<br>
      Lungomare Santa Maria, 70043 Monopoli BA
<br>
      Google: 4 (219)
<br>
      Map: https://tinyurl.com/u3hm653w
   ]]></description>
   <styleUrl>#paddle-wht-circle-DodgerBlue</styleUrl>
   <Point>
    <coordinates>17.3061,40.95334,0</coordinates>
   </Point>
  </Placemark>
  <Placemark>
   <name>Casa Timeo - Bottega e Cucina</name>
   <description><![CDATA[
+39 378 066 5130
<br>
https://www.casatimeo.it/
<br>
      Via G. Polignani, 19, 70043 Monopoli BA
<br>
      Google: 4.8 (106) · €10 - €20
<br>
      Map: https://tinyurl.com/3fcm7fmd
   ]]></description>
   <styleUrl>#paddle-wht-circle-DodgerBlue</styleUrl>
   <Point>
    <coordinates>17.30119,40.95127,0</coordinates>
   </Point>
  </Placemark>
  <Placemark>
   <name>Il Posto Affianco</name>
   <description><![CDATA[
+39 0831 338835
<br>
http://www.ilpostoaffianco.com/
<br>
      Via Gaetano Tanzarella Vitale, 34, 72017 Ostuni BR
<br>
      Google: 4.5 (2688) · €20 - €30
<br>
      Map: https://tinyurl.com/mrt2zz9x
   ]]></description>
   <styleUrl>#paddle-wht-circle-DodgerBlue</styleUrl>
   <Point>
    <coordinates>17.57956,40.73386,0</coordinates>
   </Point>
  </Placemark>
  <Placemark>
   <name>Gabo Restaurant by Coffee &amp; More</name>
   <description><![CDATA[
+39 328 271 1189
<br>
https://gaboostuni.it/
<br>
      Via Gaetano Tanzarella Vitale, 36, 72017 Ostuni BR
<br>
      Google: 3.8 (677) · €20 - €70
<br>
      Map: https://tinyurl.com/twpyshkm
   ]]></description>
   <styleUrl>#paddle-wht-circle-DodgerBlue</styleUrl>
   <Point>
    <coordinates>17.57979,40.73391,0</coordinates>
   </Point>
  </Placemark>
  <Placemark>
   <name>Osteria Piazzetta Cattedrale</name>
   <description><![CDATA[
+39 0831 335026
<br>
http://www.piazzettacattedrale.it/
<br>
      Largo Arcid Teodoro Trinchera, 7, 72017 Ostuni BR
<br>
      Google: 4.4 (480) · €30 - €80
<br>
      Map: https://tinyurl.com/yyjcfh7k
   ]]></description>
   <styleUrl>#paddle-wht-circle-DodgerBlue</styleUrl>
   <Point>
    <coordinates>17.57835,40.73425,0</coordinates>
   </Point>
  </Placemark>
  <Placemark>
   <name>Taverna della Gelosia</name>
   <description><![CDATA[
+39 0831 334736
<br>
https://www.tavernadellagelosia.it/
<br>
      Vicolo Tommaso Andriola, 26, 72017 Ostuni BR
<br>
      Google: 4.4 (1253) · €30 - €50
<br>
      Map: https://tinyurl.com/yurn356x
   ]]></description>
   <styleUrl>#paddle-wht-circle-DodgerBlue</styleUrl>
   <Point>
    <coordinates>17.57984,40.7341,0</coordinates>
   </Point>
  </Placemark>
 </Folder>

    <Style id='paddle-wht-circle-DodgerBlue'>
      <IconStyle>
        <color>ffff901e</color>
        <scale>1.1</scale>
        <Icon>
          <href>http://maps.google.com/mapfiles/kml/paddle/wht-circle.png</href>
        </Icon>
      </IconStyle>
    </Style>
  
</Document>
</kml>
