<?xml version="1.0" encoding="UTF-8"?>
<kml xmlns="http://www.opengis.net/kml/2.2">
<Document>
 <Folder>
  <name>Others</name>
  <description></description>
  <Placemark>
   <name>The Super Mago del Gelo Mario Campanella</name>
   <description><![CDATA[
Bar/gelateria from a podcast
<br>
+39 080 424 0025
<br>
https://www.ilsupermagodelgelo.it/
<br>
P.zza Giuseppe Garibaldi, 22, 70044 Polignano a Mare BA
<br>
Google: 4.4 (1481) $$
<br>
Map: https://tinyurl.com/4bx4ewj5
   ]]></description>
   <styleUrl>#paddle-wht-circle-RoyalBlue</styleUrl>
   <Point>
    <coordinates>17.21871,40.99527,0</coordinates>
   </Point>
  </Placemark>
 </Folder>

    <Style id='paddle-wht-circle-RoyalBlue'>
      <IconStyle>
        <color>ffe16941</color>
        <scale>1.1</scale>
        <Icon>
          <href>http://maps.google.com/mapfiles/kml/paddle/wht-circle.png</href>
        </Icon>
      </IconStyle>
    </Style>
  
</Document>
</kml>
