<?xml version="1.0" encoding="UTF-8"?>
<kml xmlns="http://www.opengis.net/kml/2.2">
<Document>
 <Folder>
  <name>Rome May 2nd</name>
  <description>Hotel and places to each</description>
  <Placemark>
   <name>Armonia All&#x27;Opera</name>
   <description><![CDATA[
hotel in Rome
<br>
+39 345 215 2250
<br>
http://www.armoniaopera.it/
<br>
Via del Viminale, 38, 00184 Roma RM
<br>
Google: 4.7 (124)
<br>
Map: https://timk.short.gy/eU5vYD
<br>

<br>
Sat, May 2
   ]]></description>
   <styleUrl>#paddle-wht-circle-red</styleUrl>
   <Point>
    <coordinates>12.49588,41.90025,0</coordinates>
   </Point>
  </Placemark>
  <Placemark>
   <name>Ristorante Elettra</name>
   <description><![CDATA[
+39 06 474 3675
<br>
https://bit.ly/4dXgwv6
<br>
      Via Principe Amedeo, 72a/74, 00185 Roma RM
<br>
      Google: 4.5 (1931) · €20 - €30
<br>
      Map: https://timk.short.gy/pyoajh
   ]]></description>
   <styleUrl>#paddle-wht-circle-blue</styleUrl>
   <Point>
    <coordinates>12.50017,41.89901,0</coordinates>
   </Point>
  </Placemark>
  <Placemark>
   <name>Trattoria Cecio</name>
   <description><![CDATA[
+39 06 446 4991
<br>
http://www.trattoriacecio.it/
<br>
      Via Principe Amedeo, 104, 00185 Roma RM
<br>
      Google: 4.5 (4139) · €20 - €30
<br>
      Map: https://timk.short.gy/mkdO1H
   ]]></description>
   <styleUrl>#paddle-wht-circle-blue</styleUrl>
   <Point>
    <coordinates>12.50122,41.89843,0</coordinates>
   </Point>
  </Placemark>
  <Placemark>
   <name>Ristorante e Pizzeria &#x27;&#x27;SAPORI DI ROMA&#x27;&#x27;</name>
   <description><![CDATA[
+39 324 601 6249
<br>
https://social.quandoo.com/en/groups/ristorante-e-pizzeria-sapori-di-roma-101571
<br>
      Via Principe Amedeo, 70A, 00185 Roma RM
<br>
      Google: 4.5 (3897) · €10 - €20
<br>
      Map: https://timk.short.gy/7BN4Hb
   ]]></description>
   <styleUrl>#paddle-wht-circle-blue</styleUrl>
   <Point>
    <coordinates>12.49999,41.89913,0</coordinates>
   </Point>
  </Placemark>
  <Placemark>
   <name>Mamalia Restaurant</name>
   <description><![CDATA[
+39 06 4577 4512
<br>
https://www.dtromemonti.com/eat-e-drink/mamalia-restaurant/
<br>
dinner only
<br>
      P.za dell'Esquilino, 1, 00185 Roma RM
<br>
      Google: 4.7 (227) · €20 - €70
<br>
      Map: https://timk.short.gy/DYjjt2
   ]]></description>
   <styleUrl>#paddle-wht-circle-blue</styleUrl>
   <Point>
    <coordinates>12.49678,41.89894,0</coordinates>
   </Point>
  </Placemark>
  <Placemark>
   <name>Tosca - Trattoria Pinseria</name>
   <description><![CDATA[
+39 06 5299 8280
<br>
http://www.trattoriatoscaroma.com/
<br>
      Via del Viminale, 33, 00184 Roma RM
<br>
      Google: 4.6 (2122) · €10 - €20
<br>
      Map: https://timk.short.gy/iczN6P
   ]]></description>
   <styleUrl>#paddle-wht-circle-blue</styleUrl>
   <Point>
    <coordinates>12.49532,41.90011,0</coordinates>
   </Point>
  </Placemark>
  <Placemark>
   <name>Mercato Centrale</name>
   <description><![CDATA[
Maybe breakfast - food hall
<br>
+39 06 462029
<br>
http://www.mercatocentrale.it/roma
<br>
Via Giovanni Giolitti, 36, 00185 Roma RM
<br>
Google: 4.4 (16040) · €10 - €20
<br>
Map: https://timk.short.gy/t7kvQa
   ]]></description>
   <styleUrl>#paddle-wht-circle-blue</styleUrl>
   <Point>
    <coordinates>12.50345,41.89881,0</coordinates>
   </Point>
  </Placemark>
 </Folder>

    <Style id='paddle-wht-circle-red'>
      <IconStyle>
        <color>ff0000ff</color>
        <scale>1.1</scale>
        <Icon>
          <href>http://maps.google.com/mapfiles/kml/paddle/wht-circle.png</href>
        </Icon>
      </IconStyle>
    </Style>
  

    <Style id='paddle-wht-circle-blue'>
      <IconStyle>
        <color>ffff0000</color>
        <scale>1.1</scale>
        <Icon>
          <href>http://maps.google.com/mapfiles/kml/paddle/wht-circle.png</href>
        </Icon>
      </IconStyle>
    </Style>
  
</Document>
</kml>
