<?xml version="1.0" ?>
<kml xmlns="http://www.opengis.net/kml/2.2">
<Document>
 <Folder>
  <name>Grande Puglia</name>
  <description></description>
  <Placemark>
   <name>D1 - Trani-Corato-Castel del Monte-Torre di Nebbia-english</name>
   <description><![CDATA[
distance: 31 miles
<br>
elevation: 2300 feet
<br>
link: https://ridewithgps.com/api/v1/routes/47800835.json?privacy_code=9MPk80L4pohYMSb1jfG0TwL5NRKqk5GH
   ]]></description>
   <Style>
    <LineStyle>
     <color>ff0f0fbc</color>
     <width>3</width>
    </LineStyle>
   </Style>
   <LineString>
    <tessellate>1</tessellate>
    <coordinates>
16.4225,41.27705,0 16.4208,41.27556,0 16.41821,41.2731,0 16.41588,41.27452,0 16.41599,41.27399,0
16.41561,41.27352,0 16.41746,41.2724,0 16.41719,41.27177,0 16.41747,41.2713,0 16.41751,41.26944,0
16.41765,41.2683,0 16.41686,41.26656,0 16.41495,41.26711,0 16.41444,41.26642,0 16.41331,41.26552,0
16.41351,41.26358,0 16.41333,41.26227,0 16.41382,41.26113,0 16.41487,41.25808,0 16.41437,41.25645,0
16.41414,41.25395,0 16.41467,41.25383,0 16.4147,41.2524,0 16.41538,41.24949,0 16.41543,41.24869,0
16.41531,41.24587,0 16.41508,41.24369,0 16.4143,41.24288,0 16.41332,41.24059,0 16.41302,41.23837,0
16.41231,41.23603,0 16.4119,41.23579,0 16.41226,41.23539,0 16.41192,41.23399,0 16.41008,41.23165,0
16.40814,41.22831,0 16.40707,41.2271,0 16.40705,41.22655,0 16.40566,41.22428,0 16.40437,41.22289,0
16.4037,41.22194,0 16.40302,41.22142,0 16.40072,41.21769,0 16.39926,41.21608,0 16.39791,41.2153,0
16.39536,41.21242,0 16.39212,41.20798,0 16.39175,41.2066,0 16.39129,41.20573,0 16.38936,41.20456,0
16.38761,41.20291,0 16.38933,41.20008,0 16.38981,41.19906,0 16.38969,41.19413,0 16.38947,41.19313,0
16.38941,41.19179,0 16.38953,41.19054,0 16.39023,41.18855,0 16.39026,41.18786,0 16.3895,41.18413,0
16.38946,41.18287,0 16.39001,41.18046,0 16.39112,41.17698,0 16.3921,41.17512,0 16.39338,41.17336,0
16.39384,41.17253,0 16.39542,41.17188,0 16.39621,41.17055,0 16.39842,41.16782,0 16.40048,41.16601,0
16.40251,41.16483,0 16.40366,41.16385,0 16.40457,41.16278,0 16.40637,41.16162,0 16.4086,41.16064,0
16.40975,41.16032,0 16.40988,41.15855,0 16.40972,41.15591,0 16.40998,41.15477,0 16.40992,41.15411,0
16.40906,41.15295,0 16.40915,41.15255,0 16.40726,41.15239,0 16.40736,41.15155,0 16.40876,41.14966,0
16.40606,41.14633,0 16.40555,41.14584,0 16.40076,41.14206,0 16.40046,41.14189,0 16.40038,41.13807,0
16.39995,41.13649,0 16.39902,41.13499,0 16.39724,41.13178,0 16.39694,41.13143,0 16.39551,41.13043,0
16.39326,41.12812,0 16.39238,41.12769,0 16.39079,41.12637,0 16.38863,41.125,0 16.38801,41.12369,0
16.38506,41.12033,0 16.38473,41.11964,0 16.38287,41.11713,0 16.38128,41.11139,0 16.3803,41.1096,0
16.37915,41.1058,0 16.37784,41.10341,0 16.37738,41.10163,0 16.37763,41.10079,0 16.37745,41.0936,0
16.37747,41.08807,0 16.37738,41.08779,0 16.37446,41.08127,0 16.37335,41.07908,0 16.36747,41.08076,0
16.36623,41.08094,0 16.36391,41.08144,0 16.3581,41.08327,0 16.357,41.08377,0 16.34963,41.0875,0
16.34752,41.08901,0 16.34469,41.09075,0 16.34288,41.09245,0 16.34259,41.09245,0 16.3371,41.0952,0
16.32752,41.09716,0 16.32486,41.09813,0 16.32173,41.09954,0 16.31934,41.09998,0 16.31583,41.10078,0
16.31267,41.10172,0 16.30511,41.10775,0 16.30198,41.11068,0 16.29979,41.11176,0 16.29341,41.11353,0
16.28931,41.11526,0 16.28321,41.11742,0 16.28134,41.11372,0 16.28068,41.11043,0 16.28057,41.10842,0
16.28034,41.10655,0 16.2795,41.10271,0 16.27832,41.09939,0 16.27736,41.09746,0 16.27497,41.09376,0
16.27483,41.09303,0 16.27514,41.09134,0 16.27486,41.09067,0 16.27317,41.08914,0 16.27324,41.08861,0
16.27428,41.0875,0 16.27586,41.08495,0 16.27607,41.08379,0 16.27567,41.08148,0 16.27449,41.07944,0
16.27432,41.07883,0 16.27483,41.07468,0 16.26522,41.07154,0 16.26051,41.0697,0 16.25978,41.06929,0
16.2548,41.06491,0 16.25391,41.06426,0 16.25309,41.06393,0 16.24632,41.06254,0 16.24524,41.06204,0
16.24423,41.06102,0 16.24366,41.06081,0 16.24102,41.06041,0 16.24032,41.06007,0 16.23443,41.05473,0
16.23475,41.05456,0 16.25508,41.05044,0 16.26238,41.04899,0 16.27318,41.0468,0 16.29331,41.04388,0
16.29242,41.04147,0 16.29222,41.04028,0 16.2909,41.03826,0 16.29017,41.03666,0 16.28654,41.03404,0
</coordinates>
   </LineString>
  </Placemark>
  <Placemark>
   <name>D2_Torre di Nebbia - Gravina</name>
   <description><![CDATA[
distance: 26 miles
<br>
elevation: 850 feet
<br>
link: https://ridewithgps.com/api/v1/routes/45983120.json?privacy_code=gOVcKTW0VW4rRchoIi1XRpmgTpJMuMOe
   ]]></description>
   <Style>
    <LineStyle>
     <color>ffbc410f</color>
     <width>3</width>
    </LineStyle>
   </Style>
   <LineString>
    <tessellate>1</tessellate>
    <coordinates>
16.28675,41.03413,0 16.29011,41.03665,0 16.29093,41.03834,0 16.29194,41.03974,0 16.29225,41.04037,0
16.29243,41.04155,0 16.2933,41.04386,0 16.30585,41.04205,0 16.30652,41.0419,0 16.30888,41.04085,0
16.31021,41.04072,0 16.31678,41.04081,0 16.31861,41.04077,0 16.32012,41.04052,0 16.34032,41.03839,0
16.34207,41.03824,0 16.34228,41.03793,0 16.34127,41.03626,0 16.33949,41.03437,0 16.33902,41.03358,0
16.33775,41.03259,0 16.337,41.03217,0 16.33595,41.03079,0 16.33516,41.0301,0 16.33288,41.02736,0
16.3322,41.02603,0 16.33142,41.02518,0 16.33134,41.02464,0 16.33078,41.02382,0 16.3308,41.02168,0
16.33022,41.02048,0 16.33016,41.0194,0 16.3296,41.01844,0 16.32881,41.01799,0 16.3272,41.01616,0
16.3266,41.01583,0 16.32434,41.01336,0 16.32228,41.01137,0 16.32102,41.00942,0 16.31795,41.00499,0
16.31469,41.00343,0 16.31361,41.00309,0 16.31293,41.00249,0 16.31145,41.00089,0 16.31055,41.00057,0
16.31009,41.00011,0 16.31007,40.99958,0 16.30816,40.99781,0 16.30711,40.99754,0 16.30374,40.99624,0
16.30359,40.99542,0 16.30456,40.99394,0 16.30574,40.99281,0 16.30505,40.99211,0 16.30424,40.99098,0
16.30404,40.99009,0 16.30449,40.989,0 16.30653,40.98361,0 16.30784,40.98132,0 16.30722,40.97988,0
16.30722,40.97799,0 16.30681,40.97525,0 16.30645,40.97423,0 16.30673,40.97318,0 16.30417,40.97249,0
16.30119,40.97224,0 16.29967,40.97256,0 16.29898,40.97249,0 16.29522,40.96976,0 16.29357,40.96916,0
16.29027,40.96694,0 16.28975,40.96624,0 16.28836,40.96498,0 16.28707,40.96229,0 16.28679,40.96049,0
16.28484,40.95807,0 16.2831,40.95733,0 16.28224,40.95555,0 16.28091,40.95456,0 16.27662,40.95274,0
16.27555,40.95211,0 16.27516,40.95158,0 16.27508,40.94952,0 16.27312,40.94587,0 16.27111,40.94119,0
16.26986,40.93807,0 16.26885,40.93574,0 16.26881,40.93508,0 16.26793,40.93384,0 16.26634,40.93449,0
16.26387,40.93078,0 16.26169,40.92773,0 16.25508,40.91821,0 16.26426,40.91382,0 16.26557,40.91299,0
16.26928,40.90753,0 16.2722,40.90381,0 16.27613,40.89903,0 16.28175,40.89511,0 16.28771,40.89188,0
16.29194,40.8893,0 16.29655,40.88777,0 16.29834,40.8869,0 16.3022,40.88396,0 16.30537,40.88206,0
16.31342,40.8777,0 16.31638,40.87564,0 16.31994,40.87272,0 16.32471,40.86928,0 16.33164,40.86483,0
16.33941,40.85696,0 16.34383,40.85255,0 16.34505,40.84997,0 16.34838,40.84813,0 16.35921,40.84339,0
16.36154,40.84261,0 16.36527,40.84099,0 16.37291,40.83859,0 16.38012,40.8357,0 16.38338,40.83472,0
16.39004,40.83355,0 16.39313,40.83284,0 16.3948,40.83294,0 16.39763,40.83248,0 16.39879,40.83316,0
16.40055,40.83394,0 16.40197,40.83482,0 16.40368,40.83508,0 16.40536,40.83463,0 16.40737,40.83368,0
16.41205,40.83125,0 16.41505,40.82953,0 16.41673,40.82956,0 16.41707,40.82865,0 16.41676,40.82753,0
16.41474,40.82755,0 16.41431,40.82724,0 16.41425,40.82638,0 16.41466,40.82586,0 16.41803,40.82524,0
16.41876,40.82479,0 16.41725,40.82022,0 16.41822,40.81915,0 16.41865,40.81803,0 16.41806,40.817,0
16.41546,40.81625,0 16.41465,40.81621,0 16.41463,40.81674,0 16.41513,40.8173,0 16.41502,40.81791,0
</coordinates>
   </LineString>
  </Placemark>
  <Placemark>
   <name>D3 GravinaPuglia- Matera -english</name>
   <description><![CDATA[
distance: 28 miles
<br>
elevation: 1280 feet
<br>
link: https://ridewithgps.com/api/v1/routes/49420572.json?privacy_code=gh1SneaXEwTtb95qOrajycodWLW19RZ3
   ]]></description>
   <Style>
    <LineStyle>
     <color>ff0fbc74</color>
     <width>3</width>
    </LineStyle>
   </Style>
   <LineString>
    <tessellate>1</tessellate>
    <coordinates>
16.41571,40.81713,0 16.41519,40.81631,0 16.41558,40.81603,0 16.41822,40.81679,0 16.41856,40.81748,0
16.41973,40.81786,0 16.41963,40.81884,0 16.41973,40.82053,0 16.41991,40.82122,0 16.42172,40.82686,0
16.4219,40.82692,0 16.42542,40.82951,0 16.4289,40.83175,0 16.43014,40.83237,0 16.43174,40.83385,0
16.43256,40.83434,0 16.43566,40.83534,0 16.4368,40.83585,0 16.43945,40.83738,0 16.44208,40.83899,0
16.44351,40.83975,0 16.44588,40.84069,0 16.44661,40.8411,0 16.44825,40.84164,0 16.4494,40.84244,0
16.45088,40.84291,0 16.45164,40.84329,0 16.45652,40.84615,0 16.45964,40.84896,0 16.46339,40.85111,0
16.46678,40.85275,0 16.46746,40.85328,0 16.47097,40.85536,0 16.47297,40.85661,0 16.47352,40.85713,0
16.47438,40.85734,0 16.4785,40.85908,0 16.48066,40.86043,0 16.48387,40.86279,0 16.48797,40.86618,0
16.49047,40.86815,0 16.49222,40.86935,0 16.49455,40.87061,0 16.49569,40.87109,0 16.50159,40.87312,0
16.5033,40.87353,0 16.50633,40.87468,0 16.50942,40.87615,0 16.51059,40.87636,0 16.51308,40.87736,0
16.51392,40.87782,0 16.51559,40.87637,0 16.51762,40.87477,0 16.52204,40.86973,0 16.5282,40.86144,0
16.53046,40.85856,0 16.53364,40.85538,0 16.53449,40.85424,0 16.53568,40.85304,0 16.538,40.8512,0
16.54341,40.8473,0 16.54577,40.84492,0 16.55005,40.83905,0 16.55077,40.83833,0 16.55269,40.83804,0
16.55382,40.83798,0 16.55428,40.83751,0 16.55377,40.83735,0 16.55514,40.83272,0 16.55534,40.83189,0
16.55591,40.83147,0 16.55383,40.82983,0 16.55351,40.82808,0 16.55313,40.82713,0 16.55224,40.82242,0
16.55138,40.81945,0 16.54961,40.81522,0 16.5504,40.81484,0 16.55103,40.81373,0 16.55176,40.81298,0
16.55357,40.812,0 16.55525,40.81039,0 16.55561,40.80972,0 16.55573,40.80889,0 16.55548,40.80732,0
16.55401,40.79948,0 16.55346,40.7974,0 16.55299,40.79712,0 16.55156,40.79703,0 16.55154,40.79644,0
16.55104,40.79623,0 16.55176,40.79422,0 16.55304,40.79335,0 16.55247,40.78851,0 16.55393,40.78839,0
16.55457,40.78784,0 16.55508,40.78565,0 16.55638,40.78194,0 16.55908,40.7745,0 16.56004,40.77197,0
16.55943,40.77056,0 16.55653,40.76728,0 16.55559,40.76649,0 16.55349,40.76418,0 16.55327,40.76214,0
16.55243,40.75967,0 16.55233,40.75848,0 16.55256,40.75768,0 16.55305,40.75699,0 16.55377,40.75442,0
16.55319,40.74988,0 16.55278,40.74985,0 16.55262,40.749,0 16.55321,40.74762,0 16.55284,40.74637,0
16.55308,40.74413,0 16.55161,40.74203,0 16.55158,40.74171,0 16.55246,40.73804,0 16.55246,40.73497,0
16.55286,40.73195,0 16.55254,40.73117,0 16.55191,40.73057,0 16.55168,40.72981,0 16.55189,40.72944,0
16.55957,40.72935,0 16.56234,40.72901,0 16.56642,40.72859,0 16.57039,40.72972,0 16.57074,40.72938,0
16.5717,40.72975,0 16.57237,40.72838,0 16.57305,40.72856,0 16.57439,40.7263,0 16.57556,40.72388,0
16.57689,40.72066,0 16.57705,40.72047,0 16.57865,40.71992,0 16.57872,40.7197,0 16.57785,40.71887,0
16.57854,40.71657,0 16.57897,40.71589,0 16.58039,40.71503,0 16.58487,40.71342,0 16.58614,40.71307,0
16.58866,40.71271,0 16.59374,40.71151,0 16.5948,40.71071,0 16.59665,40.70718,0 16.59826,40.70378,0
16.59829,40.70327,0 16.59736,40.6991,0 16.59743,40.69785,0 16.60118,40.69118,0 16.60422,40.68425,0
16.60489,40.68152,0 16.60462,40.68127,0 16.59866,40.68201,0 16.59694,40.68269,0 16.59482,40.683,0
16.59365,40.68363,0 16.59319,40.68365,0 16.59181,40.68319,0 16.59066,40.68209,0 16.59021,40.68189,0
16.59007,40.68048,0 16.58903,40.6799,0 16.58883,40.67952,0 16.58975,40.679,0 16.5917,40.67758,0
16.59338,40.6782,0 16.59401,40.67812,0 16.59577,40.67756,0 16.59655,40.67692,0 16.59732,40.67662,0
16.59905,40.67678,0 16.59943,40.67591,0 16.60002,40.67604,0 16.60026,40.67543,0 16.60143,40.67554,0
16.60584,40.6744,0 16.60727,40.67305,0 16.60809,40.67243,0 16.60904,40.67071,0 16.60882,40.67025,0
16.60906,40.6696,0 16.60891,40.66886,0 16.60785,40.6674,0 16.60628,40.6669,0 16.60639,40.66627,0
16.60849,40.66531,0 16.60998,40.66315,0 16.61008,40.66184,0 16.61037,40.66133,0 16.61086,40.66182,0
16.61309,40.66078,0
</coordinates>
   </LineString>
  </Placemark>
  <Placemark>
   <name>D4_Loop Matera Torre Spagnola Belvedere Matera (traced)</name>
   <description><![CDATA[
distance: 20 miles
<br>
elevation: 1217 feet
<br>
link: https://ridewithgps.com/api/v1/routes/45983111.json?privacy_code=KV4zzJEIdbz0I1yht8yiYDBBr01cVCMe
   ]]></description>
   <Style>
    <LineStyle>
     <color>ffa70fbc</color>
     <width>3</width>
    </LineStyle>
   </Style>
   <LineString>
    <tessellate>1</tessellate>
    <coordinates>
16.60619,40.66695,0 16.6061,40.66826,0 16.60629,40.67022,0 16.60597,40.67048,0 16.6077,40.67178,0
16.60727,40.67305,0 16.60584,40.6744,0 16.60143,40.67554,0 16.60066,40.67561,0 16.59972,40.67525,0
16.59899,40.67714,0 16.59967,40.67871,0 16.60094,40.67907,0 16.60187,40.6789,0 16.60223,40.67927,0
16.6015,40.68073,0 16.60224,40.68134,0 16.60306,40.68145,0 16.6049,40.68123,0 16.60422,40.68425,0
16.60246,40.68831,0 16.60112,40.69128,0 16.59743,40.69785,0 16.59728,40.69833,0 16.5974,40.69932,0
16.59829,40.70327,0 16.59826,40.70378,0 16.59665,40.70718,0 16.59726,40.70748,0 16.60169,40.71123,0
16.60451,40.7132,0 16.60632,40.71419,0 16.61046,40.7155,0 16.61093,40.71576,0 16.61777,40.7228,0
16.62146,40.72705,0 16.62238,40.7296,0 16.62354,40.73013,0 16.62412,40.73012,0 16.6254,40.72974,0
16.63047,40.72648,0 16.6398,40.72183,0 16.6408,40.72108,0 16.64341,40.71845,0 16.64544,40.71653,0
16.64853,40.71686,0 16.64899,40.71657,0 16.65117,40.7127,0 16.65214,40.71187,0 16.66152,40.70771,0
16.66199,40.70727,0 16.66478,40.70206,0 16.66577,40.70128,0 16.66628,40.70065,0 16.66765,40.69834,0
16.66929,40.69581,0 16.66948,40.69417,0 16.67007,40.69337,0 16.67172,40.69179,0 16.67302,40.68929,0
16.67086,40.68858,0 16.66757,40.68829,0 16.66426,40.68768,0 16.66267,40.68719,0 16.65826,40.68659,0
16.64605,40.68417,0 16.64473,40.68404,0 16.64182,40.68339,0 16.63943,40.68303,0 16.63482,40.68204,0
16.62972,40.68224,0 16.62903,40.68206,0 16.62681,40.68187,0 16.62377,40.68187,0 16.6219,40.68212,0
16.61969,40.68225,0 16.61735,40.68227,0 16.61569,40.68211,0 16.61149,40.68231,0 16.61095,40.68164,0
16.60941,40.68148,0 16.60792,40.68162,0 16.6076,40.68137,0 16.60504,40.68123,0 16.60012,40.68179,0
16.59866,40.68201,0 16.59694,40.68269,0 16.59482,40.683,0 16.59365,40.68363,0 16.59319,40.68365,0
16.59187,40.68323,0 16.59066,40.68209,0 16.59021,40.68189,0 16.59007,40.68048,0 16.58903,40.6799,0
16.58883,40.67952,0 16.59015,40.67873,0 16.5917,40.67758,0 16.59338,40.6782,0 16.59401,40.67812,0
16.59577,40.67756,0 16.59655,40.67692,0 16.59732,40.67662,0 16.59905,40.67678,0 16.59972,40.67525,0
16.60066,40.67561,0 16.60143,40.67554,0 16.60584,40.6744,0 16.60672,40.67362,0 16.60605,40.67306,0
16.60591,40.67044,0 16.60628,40.66964,0 16.60591,40.66843,0 16.60452,40.6674,0 16.60445,40.66719,0
16.60612,40.66729,0 16.6062,40.66692,0
</coordinates>
   </LineString>
  </Placemark>
  <Placemark>
   <name>Matera_San_Giuliano_Lake_Crypt_of_Original_Sin_(loop)</name>
   <description><![CDATA[
loop to the lake moving from Ferula Bike Shop. You can find some traffic at the exit of Matera, be careful. You can extend your tour once you are by the lake
<br>
distance: 21 miles
<br>
elevation: 1663 feet
<br>
link: https://ridewithgps.com/api/v1/routes/46105430.json
   ]]></description>
   <Style>
    <LineStyle>
     <color>ff9fbc0f</color>
     <width>3</width>
    </LineStyle>
   </Style>
   <LineString>
    <tessellate>1</tessellate>
    <coordinates>
16.60021,40.66425,0 16.59998,40.66438,0 16.59966,40.66359,0 16.59925,40.66354,0 16.59832,40.66422,0
16.59684,40.665,0 16.59577,40.66587,0 16.59501,40.66671,0 16.5941,40.66807,0 16.59452,40.6693,0
16.59557,40.66952,0 16.59716,40.67053,0 16.59677,40.6716,0 16.59705,40.67205,0 16.59801,40.67245,0
16.59845,40.67286,0 16.59895,40.6739,0 16.59588,40.67534,0 16.59595,40.67542,0 16.59234,40.67716,0
16.5917,40.67758,0 16.58689,40.67581,0 16.58566,40.6744,0 16.58395,40.67511,0 16.58299,40.67674,0
16.58214,40.67763,0 16.58202,40.67742,0 16.58012,40.67643,0 16.57907,40.67563,0 16.57681,40.67508,0
16.57625,40.67517,0 16.5743,40.67398,0 16.57349,40.6738,0 16.57319,40.6717,0 16.57379,40.66931,0
16.57336,40.66871,0 16.57205,40.66865,0 16.56912,40.66736,0 16.56785,40.66577,0 16.56779,40.66512,0
16.56933,40.6625,0 16.57056,40.66098,0 16.57031,40.65997,0 16.56869,40.65969,0 16.56524,40.66033,0
16.56433,40.65959,0 16.56409,40.65819,0 16.56383,40.65773,0 16.56378,40.65559,0 16.56526,40.65232,0
16.56592,40.65107,0 16.56763,40.6489,0 16.56754,40.64798,0 16.56578,40.64635,0 16.56376,40.64422,0
16.56071,40.64051,0 16.55871,40.63879,0 16.55807,40.63788,0 16.55739,40.63622,0 16.55562,40.63405,0
16.5547,40.63228,0 16.55402,40.63175,0 16.55368,40.63082,0 16.55151,40.63022,0 16.55023,40.62966,0
16.54941,40.62907,0 16.54875,40.62887,0 16.5473,40.62884,0 16.54635,40.62842,0 16.54014,40.62385,0
16.53988,40.62321,0 16.54046,40.62251,0 16.54225,40.62171,0 16.54252,40.62129,0 16.54204,40.62071,0
16.54052,40.62032,0 16.53805,40.61886,0 16.53585,40.61548,0 16.53862,40.61309,0 16.53872,40.61279,0
16.53788,40.61166,0 16.53752,40.61058,0 16.53705,40.60973,0 16.53733,40.60934,0 16.53839,40.60892,0
16.53865,40.60852,0 16.53844,40.60759,0 16.53903,40.60687,0 16.54105,40.60591,0 16.54186,40.60594,0
16.54237,40.60645,0 16.54304,40.60648,0 16.54492,40.60569,0 16.54598,40.60646,0 16.54781,40.60589,0
16.54899,40.60536,0 16.54975,40.60567,0 16.55161,40.60787,0 16.55265,40.60744,0 16.55587,40.60657,0
16.55694,40.60644,0 16.55782,40.60703,0 16.55774,40.60744,0 16.55695,40.60827,0 16.55747,40.60884,0
16.55724,40.60925,0 16.55473,40.61236,0 16.5548,40.61281,0 16.55853,40.61544,0 16.55864,40.61577,0
16.55709,40.61797,0 16.55855,40.61572,0 16.55829,40.61539,0 16.55599,40.61378,0 16.55516,40.61333,0
16.55413,40.61222,0 16.5532,40.6121,0 16.55192,40.61142,0 16.55075,40.61101,0 16.54521,40.60877,0
16.54446,40.60842,0 16.54232,40.60708,0 16.54242,40.60646,0 16.54186,40.60594,0 16.54105,40.60591,0
16.53903,40.60687,0 16.53851,40.60739,0 16.53865,40.60852,0 16.53839,40.60892,0 16.53733,40.60934,0
16.53705,40.60973,0 16.53752,40.61058,0 16.53788,40.61166,0 16.53868,40.61269,0 16.53826,40.61343,0
16.53585,40.61548,0 16.53805,40.61886,0 16.54052,40.62032,0 16.54204,40.62071,0 16.54252,40.62129,0
16.54225,40.62171,0 16.54046,40.62251,0 16.53988,40.62321,0 16.54014,40.62385,0 16.54635,40.62842,0
16.5473,40.62884,0 16.54875,40.62887,0 16.54941,40.62907,0 16.55023,40.62966,0 16.55151,40.63022,0
16.55368,40.63082,0 16.55402,40.63175,0 16.5547,40.63228,0 16.55562,40.63405,0 16.55739,40.63622,0
16.55807,40.63788,0 16.55871,40.63879,0 16.56071,40.64051,0 16.56376,40.64422,0 16.56578,40.64635,0
16.56754,40.64798,0 16.56763,40.6489,0 16.56592,40.65107,0 16.56526,40.65232,0 16.56391,40.65526,0
16.56372,40.65587,0 16.56385,40.65729,0 16.56433,40.65959,0 16.56492,40.66017,0 16.56566,40.66025,0
16.56869,40.65969,0 16.57016,40.6599,0 16.57051,40.66023,0 16.57056,40.66098,0 16.56933,40.6625,0
16.56779,40.66511,0 16.56785,40.66577,0 16.56912,40.66736,0 16.57205,40.66865,0 16.57398,40.66861,0
16.57561,40.66935,0 16.57713,40.66965,0 16.57677,40.67099,0 16.57607,40.67301,0 16.57659,40.67491,0
16.57681,40.67508,0 16.57907,40.67563,0 16.58012,40.67643,0 16.58202,40.67742,0 16.58288,40.67671,0
16.58388,40.67506,0 16.58579,40.67415,0 16.58626,40.67337,0 16.58816,40.67433,0 16.58941,40.6748,0
16.59001,40.67479,0 16.59117,40.67406,0 16.59172,40.67341,0 16.59215,40.67348,0 16.5931,40.67289,0
16.59299,40.67231,0 16.59537,40.67126,0 16.59564,40.67134,0 16.59892,40.66932,0 16.60006,40.66773,0
16.60017,40.66731,0 16.60122,40.6667,0 16.60219,40.66638,0 16.60234,40.6666,0 16.60448,40.66638,0
16.60092,40.66497,0 16.60027,40.66462,0
</coordinates>
   </LineString>
  </Placemark>
  <Placemark>
   <name>from Matera to Noci</name>
   <description><![CDATA[
distance: 36 miles
<br>
elevation: 1194 feet
<br>
link: https://ridewithgps.com/api/v1/routes/54201021.json?privacy_code=PtBQPwaAg2GWpFfyGJOfnffZsLVxc9Id
   ]]></description>
   <Style>
    <LineStyle>
     <color>ff0f6dbc</color>
     <width>3</width>
    </LineStyle>
   </Style>
   <LineString>
    <tessellate>1</tessellate>
    <coordinates>
16.60621,40.66685,0 16.6061,40.66864,0 16.60636,40.67003,0 16.60597,40.67047,0 16.60773,40.67182,0
16.60727,40.67305,0 16.60584,40.6744,0 16.60143,40.67554,0 16.60026,40.67543,0 16.60002,40.67604,0
16.59943,40.67591,0 16.59898,40.67714,0 16.59967,40.67871,0 16.60094,40.67907,0 16.60187,40.6789,0
16.60223,40.67927,0 16.60162,40.68025,0 16.60155,40.68085,0 16.60232,40.68136,0 16.60306,40.68145,0
16.6049,40.68123,0 16.60547,40.68133,0 16.60625,40.68208,0 16.60791,40.6816,0 16.60941,40.68148,0
16.61095,40.68164,0 16.61149,40.68231,0 16.61569,40.68211,0 16.61735,40.68227,0 16.61969,40.68225,0
16.6219,40.68212,0 16.62377,40.68187,0 16.62681,40.68187,0 16.62903,40.68206,0 16.62972,40.68224,0
16.63482,40.68204,0 16.63943,40.68303,0 16.64182,40.68339,0 16.64473,40.68404,0 16.64605,40.68417,0
16.65826,40.68659,0 16.66267,40.68719,0 16.66426,40.68768,0 16.66757,40.68829,0 16.67086,40.68858,0
16.67138,40.68869,0 16.67509,40.69005,0 16.6779,40.69089,0 16.68185,40.69255,0 16.68228,40.6933,0
16.68125,40.69761,0 16.68136,40.69821,0 16.68312,40.70064,0 16.6834,40.70082,0 16.686,40.70121,0
16.68686,40.70103,0 16.69276,40.69704,0 16.69362,40.69673,0 16.70052,40.69681,0 16.70462,40.69675,0
16.71158,40.69762,0 16.71257,40.69795,0 16.71507,40.69915,0 16.71669,40.70017,0 16.71957,40.70166,0
16.72602,40.70598,0 16.72736,40.70669,0 16.72951,40.70816,0 16.73164,40.70988,0 16.73289,40.71061,0
16.73449,40.71065,0 16.73783,40.71249,0 16.74492,40.71528,0 16.74701,40.71625,0 16.75123,40.71896,0
16.75244,40.71966,0 16.75666,40.72156,0 16.75838,40.72222,0 16.76162,40.72324,0 16.76445,40.72386,0
16.77041,40.72539,0 16.77375,40.72614,0 16.77443,40.72636,0 16.77528,40.7273,0 16.77939,40.72911,0
16.78578,40.73228,0 16.7868,40.73305,0 16.78877,40.73351,0 16.79142,40.73392,0 16.79602,40.73435,0
16.79676,40.73447,0 16.79819,40.73519,0 16.8014,40.73704,0 16.80384,40.73782,0 16.80535,40.73796,0
16.81062,40.74134,0 16.81385,40.74294,0 16.81765,40.74436,0 16.81821,40.74446,0 16.82619,40.74443,0
16.82706,40.74472,0 16.82817,40.7458,0 16.8284,40.74624,0 16.83545,40.74594,0 16.83695,40.74595,0
16.83901,40.74623,0 16.84026,40.74694,0 16.84209,40.74718,0 16.84441,40.74719,0 16.84529,40.74871,0
16.8474,40.7518,0 16.8473,40.75226,0 16.84837,40.75317,0 16.84956,40.7546,0 16.85095,40.75584,0
16.85256,40.75672,0 16.85427,40.75804,0 16.85522,40.75894,0 16.85807,40.76136,0 16.86169,40.76563,0
16.86209,40.76584,0 16.86282,40.76682,0 16.86464,40.76744,0 16.86618,40.76757,0 16.86801,40.76864,0
16.87051,40.76958,0 16.87116,40.76997,0 16.87287,40.77189,0 16.87352,40.77244,0 16.8754,40.77458,0
16.87706,40.7755,0 16.88005,40.77755,0 16.88238,40.77812,0 16.88356,40.77883,0 16.88547,40.78134,0
16.88665,40.78219,0 16.89074,40.7838,0 16.89289,40.78502,0 16.89476,40.78568,0 16.8959,40.78588,0
16.89828,40.78563,0 16.90237,40.7863,0 16.90383,40.78688,0 16.90477,40.78756,0 16.90784,40.78922,0
16.90963,40.78997,0 16.9111,40.79078,0 16.91321,40.79092,0 16.91446,40.79126,0 16.91504,40.79176,0
16.91619,40.79222,0 16.91534,40.79518,0 16.91523,40.79736,0 16.91527,40.79997,0 16.91544,40.8008,0
16.91775,40.8005,0 16.91785,40.79954,0 16.91852,40.79949,0 16.91853,40.79908,0 16.92203,40.79906,0
16.92429,40.79852,0 16.92417,40.7944,0 16.92791,40.79453,0 16.93091,40.79484,0 16.93227,40.79458,0
16.93362,40.79351,0 16.93493,40.79301,0 16.93619,40.79233,0 16.93864,40.79084,0 16.94141,40.78963,0
16.94303,40.78866,0 16.94363,40.78845,0 16.94611,40.78686,0 16.94697,40.78594,0 16.94943,40.78394,0
16.95111,40.78305,0 16.95176,40.78239,0 16.95336,40.78144,0 16.95423,40.78078,0 16.95522,40.78037,0
16.95802,40.77882,0 16.95838,40.77792,0 16.95994,40.77581,0 16.96271,40.77348,0 16.96416,40.7728,0
16.96546,40.77237,0 16.9749,40.77214,0 16.97496,40.77352,0 16.98677,40.77326,0 16.98857,40.77275,0
16.991,40.77193,0 16.99532,40.77063,0 16.99718,40.77032,0 16.99981,40.77001,0 17.00117,40.76972,0
17.00419,40.76819,0 17.00698,40.76784,0 17.00962,40.76789,0 17.01019,40.76807,0 17.01297,40.76782,0
17.01328,40.76728,0 17.01768,40.76688,0 17.02446,40.76161,0 17.02661,40.76077,0 17.02826,40.75983,0
17.03166,40.75903,0 17.03368,40.75868,0 17.03736,40.75855,0 17.0389,40.75838,0 17.0401,40.75905,0
17.0415,40.75959,0 17.04282,40.76102,0 17.04381,40.76275,0 17.04502,40.76402,0 17.04614,40.76612,0
17.04676,40.76684,0 17.04802,40.7679,0 17.04919,40.76929,0 17.05087,40.77036,0 17.05171,40.77118,0
17.05258,40.77231,0 17.05441,40.77385,0 17.05741,40.77616,0 17.05916,40.77694,0 17.05998,40.77706,0
17.0621,40.77674,0 17.06281,40.77674,0 17.06585,40.77727,0 17.06755,40.77722,0 17.07045,40.77652,0
17.07271,40.77566,0 17.07365,40.7756,0 17.07714,40.77637,0 17.07921,40.77732,0 17.08139,40.77778,0
17.08341,40.77832,0 17.0857,40.7787,0 17.08759,40.77883,0 17.09038,40.77946,0 17.09167,40.78001,0
17.09314,40.78026,0 17.09573,40.78099,0 17.09736,40.78177,0 17.09839,40.78208,0 17.10049,40.78242,0
17.10197,40.78253,0 17.10269,40.78298,0 17.10364,40.78421,0 17.10579,40.78528,0 17.10765,40.78641,0
17.10892,40.78705,0 17.11061,40.78819,0 17.1123,40.78856,0 17.11307,40.78903,0 17.11461,40.7906,0
17.1153,40.79147,0 17.11595,40.79191,0 17.11771,40.79239,0 17.11894,40.79285,0 17.11941,40.79282,0
17.11852,40.79437,0 17.11884,40.79506,0 17.11868,40.79603,0 17.12009,40.79642,0 17.12148,40.79562,0
17.12224,40.79622,0 17.12285,40.79542,0 17.12355,40.79494,0 17.12385,40.79514,0 17.12492,40.79482,0
</coordinates>
   </LineString>
  </Placemark>
  <Placemark>
   <name>Noci - Alberobello - Locorotondo - Masseria Le Torri</name>
   <description><![CDATA[
distance: 39 miles
<br>
elevation: 1421 feet
<br>
link: https://ridewithgps.com/api/v1/routes/54201130.json?privacy_code=Gx0eGtABprGwubZcy9VSYRtPZ5hgcAPU
   ]]></description>
   <Style>
    <LineStyle>
     <color>ffbc0f3a</color>
     <width>3</width>
    </LineStyle>
   </Style>
   <LineString>
    <tessellate>1</tessellate>
    <coordinates>
17.1252,40.79481,0 17.12621,40.79357,0 17.12851,40.79343,0 17.13065,40.79283,0 17.13153,40.79208,0
17.1343,40.78995,0 17.13565,40.79061,0 17.13942,40.79127,0 17.14127,40.791,0 17.1436,40.79045,0
17.1446,40.79076,0 17.14594,40.79082,0 17.14679,40.79156,0 17.14816,40.79161,0 17.14982,40.7919,0
17.1521,40.79214,0 17.15306,40.79189,0 17.15422,40.7919,0 17.15636,40.79234,0 17.15801,40.7929,0
17.15943,40.79296,0 17.16024,40.79321,0 17.16159,40.79395,0 17.1645,40.79453,0 17.16672,40.79536,0
17.16769,40.79589,0 17.16842,40.79658,0 17.17005,40.79757,0 17.17227,40.79872,0 17.17347,40.79881,0
17.17475,40.79867,0 17.17615,40.79882,0 17.17902,40.79962,0 17.17985,40.79993,0 17.18178,40.80101,0
17.18377,40.80143,0 17.18336,40.8025,0 17.183,40.8062,0 17.18276,40.80682,0 17.18236,40.80693,0
17.18427,40.80811,0 17.18521,40.80843,0 17.1862,40.80841,0 17.1888,40.80758,0 17.18975,40.80751,0
17.19165,40.80775,0 17.19232,40.80772,0 17.19309,40.80737,0 17.19407,40.80605,0 17.19489,40.80527,0
17.19575,40.80491,0 17.19672,40.80485,0 17.19753,40.80501,0 17.19961,40.80581,0 17.19963,40.80524,0
17.20093,40.80482,0 17.20146,40.80488,0 17.20159,40.80439,0 17.20284,40.80431,0 17.20379,40.80456,0
17.20546,40.80449,0 17.2064,40.80419,0 17.2075,40.8041,0 17.20954,40.80291,0 17.21352,40.79951,0
17.21528,40.79869,0 17.2161,40.79795,0 17.21742,40.79722,0 17.21852,40.79689,0 17.22027,40.79593,0
17.22117,40.7937,0 17.22151,40.79333,0 17.22304,40.79228,0 17.22662,40.78924,0 17.2273,40.78846,0
17.22931,40.78657,0 17.23174,40.78504,0 17.23309,40.78441,0 17.23248,40.784,0 17.233,40.78307,0
17.23552,40.78347,0 17.23824,40.78283,0 17.23925,40.78206,0 17.24127,40.78119,0 17.24377,40.78052,0
17.2441,40.78221,0 17.24327,40.78325,0 17.24371,40.78379,0 17.24441,40.78408,0 17.24477,40.78472,0
17.24469,40.78523,0 17.24706,40.78548,0 17.2497,40.78563,0 17.25158,40.78752,0 17.25231,40.78765,0
17.25369,40.78747,0 17.25463,40.78697,0 17.25556,40.786,0 17.25739,40.78497,0 17.25921,40.78338,0
17.25933,40.7827,0 17.25983,40.78214,0 17.26068,40.78165,0 17.26377,40.7833,0 17.26725,40.78643,0
17.26853,40.78513,0 17.2689,40.78416,0 17.26957,40.78343,0 17.27097,40.78299,0 17.27107,40.78214,0
17.27195,40.78141,0 17.27223,40.78017,0 17.27308,40.77952,0 17.27518,40.77839,0 17.2758,40.77826,0
17.27625,40.77853,0 17.2772,40.77837,0 17.27945,40.77768,0 17.28128,40.77696,0 17.28231,40.77773,0
17.28389,40.77804,0 17.28606,40.77708,0 17.28763,40.77668,0 17.28795,40.77611,0 17.28879,40.77555,0
17.28954,40.77535,0 17.29077,40.774,0 17.29138,40.77298,0 17.29212,40.77273,0 17.29236,40.77207,0
17.29353,40.77122,0 17.29424,40.77088,0 17.29543,40.76951,0 17.29671,40.7685,0 17.29851,40.76774,0
17.30042,40.7676,0 17.30159,40.76724,0 17.30191,40.76629,0 17.3026,40.76603,0 17.30356,40.76604,0
17.30498,40.76535,0 17.30649,40.76385,0 17.30658,40.76346,0 17.3085,40.7641,0 17.30992,40.76498,0
17.31127,40.76617,0 17.31277,40.76542,0 17.31424,40.76492,0 17.31406,40.76454,0 17.31484,40.76378,0
17.31595,40.76197,0 17.31641,40.76218,0 17.31923,40.76225,0 17.32079,40.7627,0 17.32135,40.7624,0
17.32261,40.76127,0 17.32353,40.76064,0 17.32467,40.75883,0 17.3255,40.75788,0 17.32629,40.75655,0
17.32627,40.7559,0 17.32825,40.75298,0 17.32832,40.75257,0 17.32912,40.75207,0 17.33052,40.75221,0
17.33099,40.75271,0 17.331,40.75339,0 17.33174,40.75427,0 17.33387,40.7538,0 17.33568,40.75446,0
17.33561,40.75493,0 17.33623,40.75527,0 17.33779,40.75574,0 17.33903,40.75728,0 17.34085,40.75786,0
17.34134,40.7582,0 17.3415,40.75873,0 17.34228,40.75959,0 17.3428,40.7599,0 17.34426,40.75994,0
17.34653,40.76138,0 17.34774,40.76153,0 17.34869,40.76236,0 17.34937,40.76264,0 17.35079,40.76233,0
17.3517,40.76249,0 17.35404,40.76357,0 17.35562,40.76505,0 17.35604,40.76632,0 17.35696,40.76705,0
17.35808,40.76684,0 17.3604,40.76763,0 17.36416,40.76756,0 17.36453,40.76851,0 17.36383,40.76918,0
17.36398,40.76958,0 17.36473,40.76982,0 17.36516,40.77025,0 17.36761,40.7715,0 17.36779,40.77199,0
17.36733,40.77396,0 17.36741,40.77475,0 17.36629,40.77623,0 17.36582,40.77749,0 17.36658,40.7787,0
17.36572,40.78048,0 17.36474,40.78209,0 17.36444,40.78291,0 17.36489,40.78368,0 17.36509,40.78458,0
17.36408,40.78591,0 17.36057,40.7869,0 17.36047,40.78726,0 17.3596,40.78793,0 17.35838,40.78918,0
17.35509,40.79326,0 17.35388,40.7945,0 17.35287,40.79534,0 17.35051,40.79585,0 17.34983,40.79666,0
17.35108,40.79736,0 17.35062,40.79797,0 17.34982,40.79822,0 17.34821,40.79921,0 17.34672,40.80028,0
17.34647,40.80075,0 17.34428,40.80283,0 17.34493,40.80366,0 17.34689,40.80491,0 17.34574,40.80596,0
17.34583,40.80647,0 17.34491,40.8078,0 17.34409,40.80821,0 17.34375,40.81013,0 17.34337,40.81065,0
17.34211,40.8111,0 17.34168,40.81184,0 17.3403,40.8127,0 17.33966,40.81343,0 17.33838,40.81393,0
17.33627,40.81594,0 17.33559,40.81579,0 17.33399,40.81619,0 17.33333,40.8169,0 17.33162,40.81834,0
17.33101,40.81906,0 17.32977,40.82015,0 17.32905,40.82056,0 17.32746,40.82181,0 17.32701,40.82262,0
17.32608,40.823,0 17.32581,40.82393,0 17.31964,40.82694,0 17.31773,40.82771,0 17.3168,40.82686,0
17.31412,40.82881,0 17.31291,40.82763,0 17.31237,40.82798,0 17.31079,40.82992,0 17.31008,40.83066,0
17.30882,40.83154,0 17.30856,40.832,0 17.30897,40.83387,0 17.30949,40.83442,0 17.30945,40.83552,0
17.30858,40.83854,0 17.3083,40.83904,0 17.3086,40.83972,0 17.30726,40.84082,0 17.30487,40.84166,0
17.30399,40.84237,0 17.30153,40.84621,0 17.29997,40.84735,0 17.29915,40.84823,0 17.29867,40.84986,0
17.29761,40.85166,0 17.29696,40.85307,0 17.29497,40.85651,0 17.29422,40.85725,0 17.29389,40.85787,0
17.29363,40.85917,0 17.29322,40.85993,0 17.29224,40.86121,0 17.29225,40.86288,0 17.29169,40.86336,0
17.29078,40.86359,0 17.28962,40.86355,0 17.28824,40.86329,0 17.28753,40.86342,0 17.28634,40.86461,0
17.28188,40.86642,0 17.28039,40.86732,0 17.27997,40.86774,0 17.27863,40.87016,0 17.27807,40.8723,0
17.27673,40.874,0 17.27518,40.87528,0 17.27284,40.87577,0 17.27065,40.87707,0 17.26899,40.87851,0
17.26836,40.88027,0 17.26819,40.88155,0 17.26737,40.88196,0 17.26707,40.88174,0 17.26495,40.88165,0
17.26078,40.88094,0 17.25981,40.88104,0 17.25972,40.88012,0 17.25946,40.87985,0 17.25835,40.88003,0
17.25756,40.87935,0 17.25682,40.87935,0 17.25589,40.88065,0 17.25588,40.88275,0 17.25506,40.88382,0
17.25302,40.88344,0 17.25246,40.88369,0 17.25186,40.88451,0 17.25132,40.88487,0 17.24998,40.88507,0
17.24877,40.88558,0 17.24807,40.88617,0 17.24752,40.88702,0 17.24689,40.88761,0 17.24625,40.88878,0
17.24604,40.88971,0 17.24538,40.89061,0 17.24347,40.89118,0 17.24248,40.89214,0 17.24159,40.8926,0
17.24004,40.89242,0 17.23826,40.89461,0 17.23594,40.89833,0 17.23581,40.89902,0 17.23526,40.9003,0
17.23327,40.90263,0 17.2329,40.90329,0 17.23278,40.90414,0 17.23147,40.90391,0 17.23072,40.90503,0
17.23015,40.90476,0 17.22864,40.90612,0 17.22764,40.90574,0 17.22598,40.90667,0 17.22529,40.90693,0
17.22131,40.90589,0 17.22075,40.90702,0 17.21947,40.90854,0 17.21808,40.90963,0 17.21763,40.90947,0
17.21384,40.90885,0 17.21228,40.91176,0 17.21007,40.91394,0 17.20867,40.91607,0 17.20788,40.91765,0
17.20778,40.91835,0 17.2068,40.91932,0 17.20404,40.9201,0 17.20188,40.92114,0 17.20183,40.92141,0
17.19926,40.92296,0 17.19935,40.92344,0 17.19741,40.92465,0 17.19652,40.92508,0 17.19444,40.9258,0
17.1936,40.92649,0 17.19281,40.92599,0 17.19152,40.92671,0 17.19173,40.92768,0 17.19046,40.92782,0
17.18827,40.92843,0 17.18773,40.92973,0 17.18825,40.93081,0 17.18841,40.93209,0 17.18706,40.93309,0
17.187,40.93331,0 17.18718,40.93607,0 17.18751,40.93756,0 17.18768,40.93903,0 17.18787,40.94311,0
17.18779,40.94393,0 17.18716,40.94551,0 17.18695,40.94655,0 17.18698,40.95038,0 17.18632,40.9507,0
17.1874,40.95168,0 17.18831,40.95312,0 17.18931,40.95503,0 17.19007,40.95624,0 17.18804,40.95724,0
17.1855,40.95786,0 17.18385,40.958,0 17.18296,40.95853,0 17.1812,40.95918,0 17.17976,40.95986,0
17.17837,40.96017,0 17.17769,40.96203,0 17.17766,40.96294,0 17.17804,40.96423,0 17.17882,40.96512,0
17.17935,40.96534,0 17.18068,40.9677,0 17.18062,40.97049,0 17.18146,40.97162,0 17.18004,40.97165,0
17.1792,40.97107,0 17.1787,40.97017,0 17.17772,40.97033,0 17.17534,40.97104,0 17.1735,40.97118,0
17.17274,40.97065,0
</coordinates>
   </LineString>
  </Placemark>
  <Placemark>
   <name>LOOP Masseria Le Torri, Polignano a Mare, Monopoli</name>
   <description><![CDATA[
distance: 20 miles
<br>
elevation: 745 feet
<br>
link: https://ridewithgps.com/api/v1/routes/54201251.json?privacy_code=dj7Nc7G2VKrDEHZeczR9glAd57GMQuLO
   ]]></description>
   <Style>
    <LineStyle>
     <color>ff0fbc16</color>
     <width>3</width>
    </LineStyle>
   </Style>
   <LineString>
    <tessellate>1</tessellate>
    <coordinates>
17.17274,40.97065,0 17.1735,40.97118,0 17.17534,40.97104,0 17.17772,40.97033,0 17.1787,40.97017,0
17.1792,40.97107,0 17.18004,40.97165,0 17.18146,40.97162,0 17.18194,40.97231,0 17.18239,40.97247,0
17.18313,40.97363,0 17.18391,40.97403,0 17.185,40.97364,0 17.18612,40.97588,0 17.18706,40.97674,0
17.18725,40.97715,0 17.18833,40.97813,0 17.18892,40.97909,0 17.19113,40.97983,0 17.19263,40.98105,0
17.19294,40.98212,0 17.1935,40.98273,0 17.19603,40.9828,0 17.19665,40.9829,0 17.19849,40.98367,0
17.19885,40.98457,0 17.19999,40.98606,0 17.20047,40.98629,0 17.2012,40.98741,0 17.20277,40.98824,0
17.20435,40.98872,0 17.20596,40.98963,0 17.206,40.99067,0 17.20742,40.99093,0 17.20872,40.99179,0
17.20982,40.99322,0 17.21101,40.99392,0 17.21364,40.99505,0 17.2149,40.99491,0 17.21534,40.99516,0
17.21635,40.99517,0 17.21716,40.99619,0 17.21767,40.99566,0 17.21868,40.99542,0 17.21911,40.9963,0
17.21873,40.99707,0 17.21955,40.99669,0 17.21938,40.99639,0 17.22032,40.99618,0 17.22083,40.99577,0
17.22425,40.99602,0 17.22424,40.99628,0 17.2259,40.99607,0 17.22781,40.99551,0 17.22826,40.99526,0
17.22929,40.99337,0 17.22984,40.99318,0 17.22969,40.99269,0 17.2307,40.99163,0 17.22939,40.98976,0
17.23345,40.98761,0 17.23545,40.98731,0 17.23603,40.98712,0 17.23691,40.98648,0 17.23805,40.98532,0
17.24179,40.98336,0 17.24658,40.98077,0 17.24786,40.98052,0 17.24892,40.97997,0 17.24952,40.97919,0
17.25535,40.97599,0 17.25749,40.97487,0 17.25844,40.97533,0 17.25906,40.97466,0 17.25885,40.97407,0
17.261,40.97275,0 17.26124,40.97231,0 17.26198,40.97221,0 17.26578,40.97016,0 17.26885,40.97231,0
17.26973,40.97171,0 17.27244,40.97089,0 17.27345,40.9705,0 17.27574,40.96879,0 17.27749,40.96782,0
17.27991,40.96662,0 17.28125,40.96608,0 17.2833,40.96585,0 17.28453,40.9651,0 17.28543,40.96373,0
17.28626,40.96311,0 17.28733,40.96205,0 17.29151,40.95947,0 17.29401,40.95779,0 17.29431,40.9581,0
17.29688,40.95852,0 17.29801,40.9581,0 17.29872,40.9583,0 17.29937,40.95776,0 17.29897,40.95723,0
17.29902,40.95552,0 17.30026,40.95565,0 17.30032,40.95476,0 17.30153,40.95475,0 17.30154,40.95391,0
17.30188,40.95376,0 17.30282,40.95443,0 17.30403,40.95332,0 17.30424,40.95287,0 17.30464,40.95309,0
17.305,40.95408,0 17.30602,40.95362,0 17.30649,40.95259,0 17.3056,40.95196,0 17.30518,40.95206,0
17.30423,40.95171,0 17.30379,40.95217,0 17.3031,40.95171,0 17.30203,40.95165,0 17.3015,40.95264,0
17.30073,40.95242,0 17.30044,40.95303,0 17.2954,40.95167,0 17.29566,40.95109,0 17.29301,40.95038,0
17.2913,40.949,0 17.28977,40.949,0 17.288,40.94811,0 17.28708,40.94785,0 17.28593,40.94779,0
17.28389,40.9481,0 17.28343,40.94837,0 17.28287,40.94823,0 17.28062,40.94818,0 17.27869,40.94782,0
17.2766,40.94773,0 17.27183,40.94773,0 17.27095,40.94757,0 17.26779,40.94668,0 17.26666,40.94622,0
17.2665,40.94709,0 17.26586,40.94828,0 17.26618,40.94921,0 17.26374,40.95055,0 17.26171,40.9522,0
17.25944,40.95278,0 17.25867,40.95274,0 17.25586,40.95301,0 17.25472,40.953,0 17.25322,40.95274,0
17.25246,40.95285,0 17.25151,40.95338,0 17.24924,40.95351,0 17.24689,40.95311,0 17.2442,40.95284,0
17.24269,40.9526,0 17.24112,40.95213,0 17.23957,40.95228,0 17.23581,40.95285,0 17.232,40.95418,0
17.23121,40.9541,0 17.23037,40.95451,0 17.22792,40.95369,0 17.22738,40.95292,0 17.22647,40.95235,0
17.22545,40.95289,0 17.22378,40.95352,0 17.22155,40.95399,0 17.22037,40.95366,0 17.2197,40.95377,0
17.21912,40.95418,0 17.21596,40.95517,0 17.21501,40.95446,0 17.21287,40.95383,0 17.21145,40.95472,0
17.21029,40.95518,0 17.20736,40.95486,0 17.20635,40.95451,0 17.20383,40.95424,0 17.20154,40.95467,0
17.20027,40.95513,0 17.19849,40.95529,0 17.19785,40.95487,0 17.1972,40.95482,0 17.19575,40.95525,0
17.19425,40.95519,0 17.19369,40.95595,0 17.19091,40.95607,0 17.19007,40.95624,0 17.18804,40.95724,0
17.1855,40.95786,0 17.18385,40.958,0 17.18296,40.95853,0 17.1812,40.95918,0 17.17976,40.95986,0
17.17837,40.96017,0 17.17769,40.96203,0 17.17766,40.96294,0 17.17804,40.96423,0 17.17882,40.96512,0
17.17935,40.96534,0 17.18068,40.9677,0 17.18062,40.97049,0 17.18146,40.97162,0 17.18004,40.97165,0
17.1792,40.97107,0 17.1787,40.97017,0 17.17772,40.97033,0 17.17534,40.97104,0 17.1735,40.97118,0
17.17306,40.97095,0
</coordinates>
   </LineString>
  </Placemark>
  <Placemark>
   <name>from Masseria Le Torri to Ostuni</name>
   <description><![CDATA[
distance: 35 miles
<br>
elevation: 1004 feet
<br>
link: https://ridewithgps.com/api/v1/routes/54201325.json?privacy_code=K9DLw5f1XiiRxZCDhKq97hYvtSGWP8QC
   ]]></description>
   <Style>
    <LineStyle>
     <color>ff490fbc</color>
     <width>3</width>
    </LineStyle>
   </Style>
   <LineString>
    <tessellate>1</tessellate>
    <coordinates>
17.17274,40.97065,0 17.1735,40.97118,0 17.17534,40.97104,0 17.17772,40.97033,0 17.1787,40.97017,0
17.1792,40.97107,0 17.18004,40.97165,0 17.18146,40.97162,0 17.18062,40.97049,0 17.18068,40.9677,0
17.17935,40.96534,0 17.17882,40.96512,0 17.17804,40.96423,0 17.17766,40.96294,0 17.17769,40.96203,0
17.17837,40.96017,0 17.17976,40.95986,0 17.1812,40.95918,0 17.18296,40.95853,0 17.18385,40.958,0
17.1855,40.95786,0 17.18804,40.95724,0 17.19007,40.95624,0 17.19091,40.95607,0 17.19369,40.95595,0
17.19425,40.95519,0 17.19575,40.95525,0 17.1972,40.95482,0 17.19785,40.95487,0 17.19849,40.95529,0
17.20027,40.95513,0 17.20154,40.95467,0 17.20383,40.95424,0 17.20635,40.95451,0 17.20736,40.95486,0
17.21029,40.95518,0 17.21145,40.95472,0 17.21287,40.95383,0 17.21501,40.95446,0 17.21596,40.95517,0
17.21912,40.95418,0 17.2197,40.95377,0 17.22037,40.95366,0 17.22155,40.95399,0 17.22378,40.95352,0
17.22545,40.95289,0 17.22647,40.95235,0 17.22738,40.95292,0 17.22792,40.95369,0 17.23037,40.95451,0
17.23121,40.9541,0 17.232,40.95418,0 17.23581,40.95285,0 17.23957,40.95228,0 17.24112,40.95213,0
17.24269,40.9526,0 17.2442,40.95284,0 17.24689,40.95311,0 17.24924,40.95351,0 17.25151,40.95338,0
17.25246,40.95285,0 17.25322,40.95274,0 17.25472,40.953,0 17.25586,40.95301,0 17.25867,40.95274,0
17.25944,40.95278,0 17.26171,40.9522,0 17.26374,40.95055,0 17.26618,40.94921,0 17.26586,40.94828,0
17.2665,40.94709,0 17.26666,40.94622,0 17.26779,40.94668,0 17.27095,40.94757,0 17.27183,40.94773,0
17.2766,40.94773,0 17.27869,40.94782,0 17.28062,40.94818,0 17.28287,40.94823,0 17.28414,40.94806,0
17.28422,40.94834,0 17.28535,40.94905,0 17.2892,40.95095,0 17.29122,40.95203,0 17.29211,40.95207,0
17.29482,40.95087,0 17.29793,40.95169,0 17.29681,40.95411,0 17.29769,40.95434,0 17.29915,40.95132,0
17.30002,40.95156,0 17.30088,40.94975,0 17.30001,40.94951,0 17.30018,40.94915,0 17.30105,40.94937,0
17.3014,40.94862,0 17.30223,40.94848,0 17.30408,40.94901,0 17.3046,40.94837,0 17.30457,40.94791,0
17.30504,40.94788,0 17.30647,40.94704,0 17.31038,40.94437,0 17.31224,40.94272,0 17.31216,40.94246,0
17.3145,40.94071,0 17.31515,40.94011,0 17.31554,40.93941,0 17.31642,40.93861,0 17.31778,40.93794,0
17.31907,40.93747,0 17.32037,40.93499,0 17.32153,40.93437,0 17.32188,40.93379,0 17.32452,40.93165,0
17.32637,40.93045,0 17.32807,40.92957,0 17.3284,40.92845,0 17.32123,40.92709,0 17.32067,40.92717,0
17.32129,40.92595,0 17.32178,40.92457,0 17.32498,40.92276,0 17.32674,40.92188,0 17.32915,40.92006,0
17.33131,40.91897,0 17.33325,40.91827,0 17.3347,40.9179,0 17.3359,40.91779,0 17.3392,40.91704,0
17.34325,40.91484,0 17.34361,40.91458,0 17.3448,40.913,0 17.34499,40.91169,0 17.34435,40.91037,0
17.34525,40.90949,0 17.34606,40.9092,0 17.34676,40.90848,0 17.34895,40.90567,0 17.35094,40.90464,0
17.36032,40.90052,0 17.36618,40.89755,0 17.36745,40.89707,0 17.37141,40.89607,0 17.38041,40.89278,0
17.38191,40.89215,0 17.38337,40.89195,0 17.38479,40.89154,0 17.38566,40.89112,0 17.38396,40.89036,0
17.38641,40.88802,0 17.38707,40.88779,0 17.38981,40.88508,0 17.3903,40.88415,0 17.39134,40.88339,0
17.39186,40.88271,0 17.39385,40.88053,0 17.39541,40.87868,0 17.39596,40.87819,0 17.39754,40.87619,0
17.3985,40.87411,0 17.39934,40.87167,0 17.40007,40.87025,0 17.40149,40.86709,0 17.40172,40.86611,0
17.40219,40.86522,0 17.4035,40.86397,0 17.40368,40.86344,0 17.4059,40.86084,0 17.40598,40.86048,0
17.40675,40.85963,0 17.40936,40.85745,0 17.41022,40.85578,0 17.41111,40.85489,0 17.41198,40.85447,0
17.41234,40.85404,0 17.41399,40.85303,0 17.41543,40.85257,0 17.41842,40.85099,0 17.41911,40.85104,0
17.42149,40.85037,0 17.42331,40.84926,0 17.42424,40.8498,0 17.42729,40.84859,0 17.42969,40.8481,0
17.4312,40.84805,0 17.43207,40.84779,0 17.43252,40.84736,0 17.4342,40.84628,0 17.43493,40.84563,0
17.43613,40.84511,0 17.43835,40.84466,0 17.44065,40.8438,0 17.44119,40.84333,0 17.4426,40.84322,0
17.44446,40.8416,0 17.44621,40.84167,0 17.44895,40.84159,0 17.44936,40.84147,0 17.45132,40.84158,0
17.45231,40.84216,0 17.45415,40.84376,0 17.45584,40.84213,0 17.45621,40.84157,0 17.45623,40.84086,0
17.45753,40.83869,0 17.4586,40.83772,0 17.46085,40.83618,0 17.46113,40.8355,0 17.46234,40.83441,0
17.46434,40.8331,0 17.46619,40.83218,0 17.46746,40.83173,0 17.46828,40.82868,0 17.47114,40.82481,0
17.4722,40.8228,0 17.47161,40.8226,0 17.47095,40.81973,0 17.47056,40.8186,0 17.47133,40.81728,0
17.47218,40.81507,0 17.47256,40.81445,0 17.4727,40.81297,0 17.473,40.81228,0 17.4742,40.81061,0
17.47413,40.80994,0 17.47266,40.80874,0 17.47174,40.80897,0 17.47496,40.80731,0 17.4753,40.80606,0
17.47566,40.80572,0 17.47517,40.8053,0 17.47431,40.80409,0 17.47347,40.80322,0 17.4729,40.802,0
17.47164,40.80002,0 17.47189,40.79962,0 17.47474,40.79824,0 17.47594,40.79812,0 17.4778,40.79711,0
17.47802,40.79602,0 17.47789,40.79519,0 17.47817,40.79486,0 17.47929,40.79454,0 17.48001,40.79413,0
17.48137,40.79276,0 17.4832,40.79109,0 17.48798,40.78783,0 17.48904,40.78794,0 17.49478,40.78589,0
17.49861,40.78419,0 17.50261,40.78353,0 17.50281,40.78314,0 17.50536,40.78293,0 17.50633,40.78274,0
17.50806,40.78266,0 17.50841,40.78321,0 17.51065,40.78477,0 17.51031,40.78518,0 17.51074,40.78551,0
17.51115,40.78502,0 17.51627,40.78137,0 17.51792,40.78083,0 17.51825,40.78043,0 17.5196,40.77986,0
17.52308,40.77856,0 17.52538,40.77796,0 17.52677,40.77808,0 17.52948,40.77793,0 17.5324,40.77845,0
17.53352,40.77837,0 17.53471,40.7776,0 17.5363,40.77696,0 17.53925,40.7779,0 17.54235,40.77862,0
17.54346,40.77846,0 17.54541,40.77844,0 17.54558,40.7781,0 17.54657,40.77748,0 17.54828,40.77669,0
17.54947,40.77602,0 17.55065,40.77504,0 17.55242,40.77249,0 17.55334,40.77144,0 17.55564,40.76947,0
17.55632,40.76877,0 17.55729,40.76552,0 17.558,40.76484,0 17.56139,40.76282,0 17.5637,40.76126,0
17.56448,40.75985,0 17.56483,40.75831,0 17.56342,40.75299,0 17.56362,40.75146,0 17.56467,40.74899,0
17.56505,40.74837,0 17.56665,40.7471,0 17.56798,40.74586,0 17.57121,40.74341,0 17.57164,40.74286,0
17.57206,40.7418,0 17.5725,40.74136,0 17.5761,40.74009,0 17.57697,40.73963,0 17.5775,40.73958,0
17.57895,40.73905,0 17.57941,40.73828,0 17.57925,40.73719,0 17.57996,40.73668,0 17.58072,40.73541,0
17.58054,40.73503,0 17.58059,40.73401,0 17.58028,40.7335,0 17.57953,40.73297,0 17.57816,40.73285,0
17.57881,40.73341,0 17.57798,40.73364,0
</coordinates>
   </LineString>
  </Placemark>
  <Placemark>
   <name>Ostuni - Martina Franca Loop</name>
   <description><![CDATA[
distance: 32 miles
<br>
elevation: 1614 feet
<br>
link: https://ridewithgps.com/api/v1/routes/54205333.json?privacy_code=qEDGUNpdqzR2EKQtqIgNOj5TmLdJp4hr
   ]]></description>
   <Style>
    <LineStyle>
     <color>ffbc7b0f</color>
     <width>3</width>
    </LineStyle>
   </Style>
   <LineString>
    <tessellate>1</tessellate>
    <coordinates>
17.57874,40.73191,0 17.58055,40.7292,0 17.58044,40.72839,0 17.58075,40.72734,0 17.57997,40.72721,0
17.57916,40.72597,0 17.57841,40.72619,0 17.57396,40.72794,0 17.57285,40.7266,0 17.57172,40.72559,0
17.5696,40.72454,0 17.56907,40.72407,0 17.56827,40.72288,0 17.56735,40.72198,0 17.56633,40.7212,0
17.56552,40.71993,0 17.56403,40.71913,0 17.56317,40.71845,0 17.5625,40.71765,0 17.56213,40.7164,0
17.56157,40.71588,0 17.56,40.7154,0 17.55808,40.71437,0 17.55639,40.71389,0 17.55491,40.71373,0
17.55415,40.71338,0 17.55322,40.71244,0 17.55228,40.71188,0 17.54921,40.71126,0 17.5468,40.71097,0
17.54576,40.71019,0 17.54264,40.70879,0 17.5403,40.7074,0 17.53962,40.70731,0 17.53772,40.70769,0
17.53612,40.70716,0 17.53431,40.70681,0 17.5334,40.70623,0 17.53254,40.70609,0 17.53087,40.70656,0
17.52846,40.70752,0 17.5285,40.70851,0 17.52876,40.70897,0 17.52749,40.70968,0 17.52697,40.70947,0
17.52556,40.70989,0 17.52451,40.71059,0 17.52333,40.71091,0 17.52336,40.71144,0 17.52242,40.71235,0
17.52214,40.71292,0 17.52024,40.71456,0 17.51804,40.71553,0 17.51685,40.71574,0 17.51392,40.71651,0
17.51253,40.71671,0 17.51071,40.71765,0 17.50897,40.7183,0 17.50749,40.71927,0 17.50668,40.71942,0
17.50628,40.71981,0 17.50498,40.72047,0 17.50352,40.72164,0 17.50212,40.722,0 17.5004,40.72342,0
17.50097,40.7239,0 17.50125,40.72465,0 17.50112,40.7253,0 17.50033,40.72621,0 17.50037,40.72649,0
17.49713,40.72649,0 17.49657,40.72667,0 17.49524,40.72756,0 17.49334,40.72824,0 17.49182,40.72932,0
17.48896,40.73208,0 17.48803,40.73254,0 17.48543,40.73322,0 17.48457,40.73335,0 17.48384,40.73382,0
17.4813,40.73493,0 17.48024,40.73571,0 17.47845,40.73604,0 17.47759,40.73634,0 17.47572,40.73727,0
17.47451,40.73721,0 17.47237,40.73811,0 17.47122,40.73813,0 17.46941,40.73869,0 17.46852,40.73915,0
17.46675,40.73939,0 17.46467,40.7393,0 17.46334,40.73964,0 17.46184,40.73979,0 17.46027,40.73979,0
17.45956,40.74031,0 17.45794,40.74121,0 17.4571,40.74129,0 17.45504,40.7399,0 17.45429,40.73967,0
17.45293,40.73995,0 17.45217,40.73995,0 17.44787,40.74034,0 17.44664,40.74058,0 17.4453,40.7405,0
17.44417,40.74072,0 17.4436,40.7412,0 17.44198,40.74159,0 17.44115,40.7416,0 17.43893,40.74206,0
17.43762,40.74189,0 17.43711,40.74203,0 17.43651,40.74175,0 17.43519,40.74157,0 17.43315,40.74097,0
17.432,40.74123,0 17.43145,40.74091,0 17.43063,40.74086,0 17.42974,40.73985,0 17.4303,40.7392,0
17.429,40.73879,0 17.42808,40.73867,0 17.42684,40.73884,0 17.42333,40.7399,0 17.4214,40.74072,0
17.42049,40.74087,0 17.41982,40.74076,0 17.41869,40.74002,0 17.4178,40.73887,0 17.41641,40.73798,0
17.41458,40.73721,0 17.41325,40.73583,0 17.41162,40.735,0 17.41073,40.73406,0 17.40977,40.73349,0
17.40876,40.73324,0 17.40594,40.73309,0 17.40323,40.73228,0 17.4015,40.73215,0 17.40097,40.73189,0
17.39958,40.7308,0 17.39736,40.72949,0 17.39673,40.72928,0 17.39392,40.72918,0 17.39103,40.72807,0
17.39004,40.72722,0 17.38533,40.72535,0 17.38492,40.725,0 17.38373,40.72332,0 17.38282,40.72244,0
17.37977,40.7202,0 17.37786,40.71973,0 17.37517,40.71878,0 17.37281,40.71705,0 17.37193,40.71665,0
17.37104,40.7155,0 17.37004,40.71479,0 17.36706,40.71368,0 17.36597,40.71356,0 17.36345,40.71381,0
17.36169,40.71342,0 17.35981,40.71365,0 17.35934,40.71356,0 17.3574,40.71273,0 17.3558,40.71146,0
17.35516,40.71109,0 17.3518,40.70992,0 17.34895,40.70978,0 17.34698,40.70926,0 17.34525,40.70866,0
17.34265,40.70799,0 17.34175,40.70761,0 17.34142,40.70667,0 17.34189,40.70648,0 17.34174,40.70596,0
17.34282,40.70524,0 17.34041,40.70457,0 17.33967,40.70336,0 17.33957,40.70393,0 17.33867,40.70415,0
17.33928,40.70474,0 17.33797,40.70529,0 17.33659,40.70549,0 17.33637,40.7049,0 17.33769,40.70448,0
17.33866,40.70448,0 17.33836,40.70371,0 17.339,40.70353,0 17.33879,40.70303,0 17.34335,40.70174,0
17.34401,40.70148,0 17.34551,40.70018,0 17.34844,40.69934,0 17.35095,40.69886,0 17.35174,40.69927,0
17.35408,40.6987,0 17.35553,40.69854,0 17.35758,40.69869,0 17.36,40.69807,0 17.36165,40.69743,0
17.36359,40.69647,0 17.37452,40.6894,0 17.37518,40.6892,0 17.37693,40.68932,0 17.37905,40.69069,0
17.38037,40.6906,0 17.38627,40.68985,0 17.38853,40.68936,0 17.39084,40.68979,0 17.39189,40.69014,0
17.39278,40.69019,0 17.39769,40.68973,0 17.40176,40.68926,0 17.40843,40.68648,0 17.41663,40.68298,0
17.41744,40.6828,0 17.42246,40.68218,0 17.42468,40.68107,0 17.4257,40.6826,0 17.42566,40.68298,0
17.42649,40.6844,0 17.42632,40.68692,0 17.42603,40.68741,0 17.42599,40.68817,0 17.42688,40.68942,0
17.42718,40.69072,0 17.42796,40.69308,0 17.42911,40.6943,0 17.4301,40.69617,0 17.43208,40.69619,0
17.43535,40.69634,0 17.44067,40.69595,0 17.44264,40.69595,0 17.44445,40.69572,0 17.44843,40.69637,0
17.44964,40.6964,0 17.45241,40.69595,0 17.4542,40.69597,0 17.45534,40.69582,0 17.45698,40.6954,0
17.45916,40.69523,0 17.46038,40.69534,0 17.46168,40.69514,0 17.46206,40.6953,0 17.46602,40.69289,0
17.47152,40.69117,0 17.47383,40.6909,0 17.4755,40.69104,0 17.47654,40.69132,0 17.47752,40.6919,0
17.47862,40.69285,0 17.48013,40.69387,0 17.48286,40.69618,0 17.48441,40.69762,0 17.48662,40.69865,0
17.48879,40.69995,0 17.49111,40.70062,0 17.49363,40.70122,0 17.49477,40.70106,0 17.49562,40.70128,0
17.49677,40.70197,0 17.49761,40.70212,0 17.49844,40.70254,0 17.49983,40.70402,0 17.50097,40.70456,0
17.50221,40.70463,0 17.50346,40.70506,0 17.50443,40.70514,0 17.50515,40.70541,0 17.50621,40.7062,0
17.50712,40.70661,0 17.50868,40.70758,0 17.50928,40.70763,0 17.51135,40.70743,0 17.51271,40.70775,0
17.51447,40.70761,0 17.51722,40.70848,0 17.51948,40.70884,0 17.52018,40.70881,0 17.52312,40.70783,0
17.52445,40.7078,0 17.52515,40.70747,0 17.52704,40.70767,0 17.52846,40.70752,0 17.53087,40.70656,0
17.53254,40.70609,0 17.5334,40.70623,0 17.53431,40.70681,0 17.53612,40.70716,0 17.53772,40.70769,0
17.53962,40.70731,0 17.5403,40.7074,0 17.54264,40.70879,0 17.54576,40.71019,0 17.5468,40.71097,0
17.54921,40.71126,0 17.55228,40.71188,0 17.55322,40.71244,0 17.55415,40.71338,0 17.55491,40.71373,0
17.55639,40.71389,0 17.55808,40.71437,0 17.56,40.7154,0 17.56157,40.71588,0 17.56213,40.7164,0
17.5625,40.71765,0 17.56317,40.71845,0 17.56403,40.71913,0 17.56552,40.71993,0 17.56633,40.7212,0
17.56735,40.72198,0 17.56827,40.72288,0 17.56907,40.72407,0 17.5696,40.72454,0 17.5708,40.72516,0
17.57132,40.72516,0 17.57285,40.7266,0 17.57428,40.72848,0 17.57472,40.72864,0 17.57617,40.72827,0
17.57655,40.72902,0 17.57765,40.73013,0 17.57861,40.73133,0 17.5786,40.73164,0
</coordinates>
   </LineString>
  </Placemark>
  <Placemark>
   <name>D4_Ostuni - Avetrana (Masseria Bosco) (ENGLISH)</name>
   <description><![CDATA[
distance: 38 miles
<br>
elevation: 807 feet
<br>
link: https://ridewithgps.com/api/v1/routes/46268839.json
   ]]></description>
   <Style>
    <LineStyle>
     <color>ff0fbcae</color>
     <width>3</width>
    </LineStyle>
   </Style>
   <LineString>
    <tessellate>1</tessellate>
    <coordinates>
17.57845,40.73215,0 17.57948,40.73093,0 17.58054,40.72926,0 17.58044,40.72839,0 17.58124,40.72548,0
17.58144,40.7237,0 17.58109,40.72314,0 17.58192,40.72124,0 17.58207,40.7205,0 17.58189,40.71907,0
17.58268,40.71812,0 17.58309,40.71636,0 17.58349,40.71631,0 17.58504,40.71384,0 17.5863,40.713,0
17.58674,40.71228,0 17.58763,40.70707,0 17.58837,40.70445,0 17.58855,40.70274,0 17.59055,40.69909,0
17.59243,40.69749,0 17.5931,40.69612,0 17.59375,40.69582,0 17.59529,40.69593,0 17.59566,40.69578,0
17.59653,40.69343,0 17.59679,40.6931,0 17.59872,40.69154,0 17.60056,40.69088,0 17.60184,40.68952,0
17.60404,40.68833,0 17.60463,40.68765,0 17.60596,40.68342,0 17.60716,40.68149,0 17.60757,40.6811,0
17.60975,40.67971,0 17.61145,40.67942,0 17.61227,40.67946,0 17.61352,40.67989,0 17.61442,40.67982,0
17.61636,40.67889,0 17.62022,40.67723,0 17.62236,40.67581,0 17.62427,40.67245,0 17.6255,40.6689,0
17.62618,40.66623,0 17.62653,40.66533,0 17.6266,40.66377,0 17.62747,40.6613,0 17.63099,40.65631,0
17.6321,40.65371,0 17.63301,40.65182,0 17.63437,40.64802,0 17.63422,40.64722,0 17.63324,40.6443,0
17.63185,40.64458,0 17.63164,40.64439,0 17.63192,40.64359,0 17.63213,40.63311,0 17.63219,40.63142,0
17.63193,40.63067,0 17.62836,40.63047,0 17.6209,40.62991,0 17.61792,40.63056,0 17.61709,40.62966,0
17.61637,40.62814,0 17.61547,40.62724,0 17.61342,40.62584,0 17.61265,40.62459,0 17.6118,40.62264,0
17.60734,40.62293,0 17.60508,40.6238,0 17.60329,40.62395,0 17.60119,40.62454,0 17.59891,40.62531,0
17.59573,40.62672,0 17.59515,40.62733,0 17.59459,40.62852,0 17.59182,40.62905,0 17.58677,40.62946,0
17.58529,40.62989,0 17.58333,40.63104,0 17.58149,40.6313,0 17.58007,40.63117,0 17.57837,40.63179,0
17.5768,40.63108,0 17.57662,40.62977,0 17.57603,40.62864,0 17.5751,40.62606,0 17.57454,40.62321,0
17.57308,40.61978,0 17.57229,40.61859,0 17.57171,40.61811,0 17.56958,40.61867,0 17.56839,40.61925,0
17.56795,40.61891,0 17.5666,40.61834,0 17.56529,40.61819,0 17.56397,40.6178,0 17.56511,40.61646,0
17.56667,40.61568,0 17.56755,40.61473,0 17.56841,40.61326,0 17.5688,40.61289,0 17.57045,40.61197,0
17.57075,40.61081,0 17.57104,40.60506,0 17.57178,40.60384,0 17.57388,40.60164,0 17.57304,40.60133,0
17.57469,40.59849,0 17.57514,40.59507,0 17.5757,40.59343,0 17.5775,40.59045,0 17.57791,40.58963,0
17.58079,40.57731,0 17.5814,40.57494,0 17.58235,40.57055,0 17.58302,40.56883,0 17.58321,40.56776,0
17.58355,40.56145,0 17.5837,40.56094,0 17.58413,40.55666,0 17.58498,40.55232,0 17.58615,40.54501,0
17.586,40.5433,0 17.58573,40.54194,0 17.58546,40.5414,0 17.58519,40.53947,0 17.58381,40.53883,0
17.58292,40.53789,0 17.58266,40.53681,0 17.58259,40.53567,0 17.58283,40.53466,0 17.58252,40.5334,0
17.58466,40.53302,0 17.58406,40.53131,0 17.58289,40.53051,0 17.58399,40.52961,0 17.58519,40.5293,0
17.58675,40.52861,0 17.58944,40.52814,0 17.59045,40.52811,0 17.59259,40.52829,0 17.59526,40.52795,0
17.59804,40.52772,0 17.59871,40.52707,0 17.60048,40.52675,0 17.60224,40.52584,0 17.60459,40.52577,0
17.60597,40.52517,0 17.6067,40.52426,0 17.60826,40.52286,0 17.61025,40.52129,0 17.6121,40.52018,0
17.61406,40.51992,0 17.61552,40.5199,0 17.61609,40.5197,0 17.61749,40.5187,0 17.61852,40.51831,0
17.61963,40.51765,0 17.62128,40.51645,0 17.62287,40.51569,0 17.62444,40.51474,0 17.62616,40.51431,0
17.62846,40.51256,0 17.62928,40.51216,0 17.63094,40.51097,0 17.63288,40.51034,0 17.63488,40.50847,0
17.63585,40.50773,0 17.63777,40.50546,0 17.63987,40.50365,0 17.64104,40.50171,0 17.64006,40.50099,0
17.6398,40.5004,0 17.63988,40.49871,0 17.63974,40.49783,0 17.63991,40.49715,0 17.64042,40.49678,0
17.6421,40.49608,0 17.64286,40.49607,0 17.64362,40.49658,0 17.64487,40.4963,0 17.64672,40.49566,0
17.65522,40.49254,0 17.65533,40.49202,0 17.65335,40.49051,0 17.65502,40.488,0 17.65576,40.4867,0
17.65825,40.48135,0 17.65879,40.48061,0 17.66388,40.47546,0 17.67081,40.46741,0 17.67372,40.4641,0
17.67418,40.4634,0 17.6753,40.4609,0 17.67687,40.46083,0 17.67701,40.46154,0 17.6774,40.46173,0
17.68608,40.46161,0 17.68654,40.46131,0 17.68885,40.45724,0 17.68941,40.45645,0 17.69095,40.45518,0
17.69465,40.45247,0 17.69631,40.45087,0 17.6975,40.4489,0 17.69835,40.44776,0 17.70102,40.44547,0
17.7026,40.4447,0 17.70624,40.44388,0 17.71468,40.44137,0 17.72004,40.44057,0 17.72407,40.43954,0
17.72679,40.4389,0 17.73522,40.43917,0 17.73544,40.4361,0 17.73584,40.43226,0 17.74011,40.41909,0
17.74019,40.41904,0 17.74195,40.41363,0 17.74283,40.41068,0 17.74242,40.41025,0 17.7408,40.41008,0
17.73426,40.40952,0 17.72917,40.40905,0 17.72811,40.40955,0 17.72628,40.40961,0 17.72547,40.40975,0
17.72549,40.40701,0 17.72562,40.40402,0 17.72629,40.38535,0 17.72645,40.38178,0 17.7271,40.36542,0
17.72398,40.36521,0 17.72388,40.36527,0 17.7239,40.36749,0 17.72232,40.36781,0 17.72136,40.37131,0
17.71958,40.37127,0
</coordinates>
   </LineString>
  </Placemark>
  <Placemark>
   <name>D5_Avetrana-Sant Isidoro-Gallipoli (ENGLISH)</name>
   <description><![CDATA[
distance: 36 miles
<br>
elevation: 889 feet
<br>
link: https://ridewithgps.com/api/v1/routes/53002745.json?privacy_code=gpSI79gNYeKgLp9kTsSyaDuUztybBIRh
   ]]></description>
   <Style>
    <LineStyle>
     <color>ffbc0f98</color>
     <width>3</width>
    </LineStyle>
   </Style>
   <LineString>
    <tessellate>1</tessellate>
    <coordinates>
17.7196,40.37127,0 17.72136,40.37131,0 17.72232,40.36781,0 17.7239,40.36749,0 17.72388,40.36527,0
17.72398,40.36521,0 17.7271,40.36542,0 17.7273,40.36008,0 17.72562,40.35979,0 17.72624,40.35754,0
17.72651,40.35101,0 17.72668,40.3485,0 17.72695,40.34851,0 17.72891,40.34568,0 17.72906,40.34498,0
17.73073,40.34317,0 17.73278,40.34065,0 17.73641,40.33735,0 17.73891,40.33434,0 17.74227,40.33059,0
17.74246,40.33021,0 17.74276,40.32828,0 17.74241,40.32701,0 17.74205,40.32442,0 17.74266,40.32142,0
17.74311,40.32035,0 17.74372,40.31513,0 17.7436,40.31291,0 17.74489,40.30807,0 17.7445,40.30418,0
17.74397,40.30378,0 17.74905,40.30344,0 17.7541,40.3025,0 17.76263,40.30096,0 17.76575,40.30085,0
17.76622,40.30053,0 17.76669,40.30084,0 17.7685,40.3008,0 17.77799,40.29969,0 17.7917,40.29659,0
17.79405,40.29615,0 17.80319,40.29463,0 17.81085,40.29328,0 17.8187,40.29194,0 17.82023,40.29162,0
17.82433,40.29057,0 17.83867,40.28782,0 17.84419,40.28674,0 17.84429,40.28667,0 17.85152,40.28853,0
17.85258,40.28862,0 17.86329,40.285,0 17.86849,40.28239,0 17.87011,40.28143,0 17.87961,40.27437,0
17.88054,40.27379,0 17.88804,40.27037,0 17.88862,40.26967,0 17.88891,40.27005,0 17.88823,40.26995,0
17.88966,40.26713,0 17.88947,40.26687,0 17.88755,40.26625,0 17.88593,40.26719,0 17.88497,40.26738,0
17.88494,40.26612,0 17.88666,40.26484,0 17.88931,40.26241,0 17.88886,40.26213,0 17.8906,40.26047,0
17.89141,40.26015,0 17.89158,40.25943,0 17.89123,40.25907,0 17.89123,40.25805,0 17.89103,40.25748,0
17.89289,40.25698,0 17.89337,40.25781,0 17.89433,40.25858,0 17.89388,40.25922,0 17.8944,40.25991,0
17.895,40.26012,0 17.89609,40.25979,0 17.89661,40.26002,0 17.89587,40.26102,0 17.89947,40.26261,0
17.90314,40.25761,0 17.90451,40.25654,0 17.90568,40.25486,0 17.9062,40.25436,0 17.91065,40.25066,0
17.91105,40.2502,0 17.91437,40.24377,0 17.91698,40.23749,0 17.92477,40.22771,0 17.92749,40.2212,0
17.92748,40.22024,0 17.92692,40.21829,0 17.92636,40.21731,0 17.92553,40.21681,0 17.92396,40.21642,0
17.92341,40.21569,0 17.92355,40.2153,0 17.92724,40.21071,0 17.92744,40.21,0 17.92768,40.20142,0
17.92786,40.19406,0 17.9282,40.19324,0 17.92899,40.19268,0 17.93222,40.19128,0 17.93289,40.19068,0
17.93547,40.18767,0 17.93601,40.18668,0 17.93633,40.18533,0 17.93669,40.18455,0 17.94095,40.17854,0
17.94224,40.17749,0 17.94502,40.17577,0 17.94552,40.17519,0 17.94788,40.17087,0 17.95065,40.16783,0
17.95178,40.16695,0 17.95214,40.16492,0 17.95362,40.16192,0 17.95402,40.16137,0 17.95559,40.16014,0
17.95654,40.1598,0 17.96036,40.15961,0 17.96117,40.15969,0 17.96427,40.16046,0 17.96661,40.16045,0
17.96732,40.16061,0 17.97062,40.16203,0 17.97171,40.16183,0 17.97312,40.16047,0 17.97609,40.1583,0
17.97769,40.15669,0 17.97855,40.15552,0 17.98135,40.15198,0 17.98191,40.14996,0 17.98381,40.14732,0
17.98396,40.1468,0 17.98547,40.14588,0 17.98609,40.14578,0 17.98702,40.14605,0 17.98759,40.14518,0
17.98601,40.14375,0 17.9842,40.14392,0 17.98381,40.14354,0 17.98348,40.14247,0 17.98289,40.1418,0
17.98215,40.14148,0 17.98068,40.14117,0 17.98089,40.14025,0 17.98058,40.13889,0 17.98121,40.13867,0
17.98204,40.13942,0 17.98342,40.14014,0 17.98452,40.13984,0 17.98705,40.14068,0 17.98739,40.14057,0
17.98761,40.13979,0 17.98871,40.13909,0 17.98899,40.13824,0 17.98956,40.13733,0 17.9893,40.1359,0
17.98967,40.13518,0 17.99169,40.1347,0 17.99309,40.13409,0 17.99352,40.13352,0 17.99459,40.13265,0
17.99611,40.13182,0 17.99681,40.13164,0 17.99688,40.1312,0 17.99608,40.13035,0 17.99482,40.13086,0
17.99384,40.12966,0 17.99384,40.12922,0 17.99562,40.12851,0 17.99623,40.1278,0 17.99709,40.12567,0
17.99844,40.12459,0 17.99886,40.12299,0 18.00001,40.12044,0 18.00174,40.11894,0 18.00236,40.11817,0
18.00313,40.11648,0 18.00355,40.11467,0 18.00399,40.11388,0 18.00509,40.1136,0 18.00551,40.11392,0
18.00771,40.11231,0 18.00731,40.11199,0 18.0106,40.10955,0 18.01115,40.10928,0 18.01518,40.1083,0
18.01613,40.10789,0 18.01745,40.10684,0 18.01789,40.10628,0 18.01932,40.10362,0 18.01921,40.10292,0
18.01976,40.10272,0 18.01992,40.09953,0 18.02001,40.09901,0 18.02096,40.0973,0 18.02141,40.0941,0
18.02105,40.09275,0 18.02048,40.09218,0 18.01938,40.09165,0 18.01713,40.09118,0 18.01614,40.09015,0
18.01572,40.0895,0 18.01498,40.08757,0 18.01441,40.08651,0 18.01085,40.08257,0 18.00881,40.07962,0
18.00768,40.07822,0 18.0061,40.07321,0 18.00389,40.06861,0 18.00328,40.06752,0 17.99533,40.06131,0
17.99422,40.06073,0 17.99393,40.06031,0 17.9929,40.05668,0 17.99207,40.05596,0 17.98731,40.05605,0
17.98698,40.05544,0
</coordinates>
   </LineString>
  </Placemark>
  <Placemark>
   <name>D6_Gallipoli - Santa Maria di Leuca (Masseria Palane)</name>
   <description><![CDATA[
distance: 36 miles
<br>
elevation: 781 feet
<br>
link: https://ridewithgps.com/api/v1/routes/45814197.json?privacy_code=ULPzcxHXWm3zvwwLvhgpLK0W5O2P88Pi
   ]]></description>
   <Style>
    <LineStyle>
     <color>ff65bc0f</color>
     <width>3</width>
    </LineStyle>
   </Style>
   <LineString>
    <tessellate>1</tessellate>
    <coordinates>
17.98109,40.05612,0 17.98795,40.05402,0 17.98986,40.0538,0 17.99769,40.05119,0 18.00057,40.04937,0
18.00223,40.04856,0 18.00369,40.04802,0 18.00552,40.04704,0 18.01051,40.04265,0 18.01105,40.04211,0
18.01412,40.03811,0 18.01624,40.03504,0 18.01797,40.03191,0 18.01846,40.03037,0 18.01957,40.02781,0
18.0202,40.02549,0 18.02133,40.02414,0 18.02162,40.02315,0 18.0227,40.01781,0 18.02279,40.01715,0
18.02261,40.01425,0 18.02266,40.01274,0 18.02323,40.00413,0 18.02311,40.00336,0 18.0214,39.99831,0
18.02142,39.99773,0 18.02186,39.99676,0 18.02173,39.99602,0 18.01842,39.99047,0 18.01672,39.98411,0
18.01648,39.9837,0 18.01334,39.98038,0 18.01294,39.97906,0 18.01314,39.97832,0 18.01508,39.9754,0
18.0155,39.97343,0 18.01826,39.9701,0 18.01856,39.9699,0 18.02059,39.9694,0 18.02401,39.96615,0
18.02465,39.96507,0 18.02621,39.96354,0 18.027,39.96227,0 18.02788,39.96131,0 18.02772,39.96008,0
18.02804,39.95941,0 18.02982,39.95761,0 18.03117,39.95143,0 18.03165,39.95079,0 18.0332,39.94987,0
18.03357,39.94946,0 18.03421,39.94804,0 18.03539,39.94688,0 18.03466,39.94643,0 18.03459,39.94537,0
18.03514,39.94409,0 18.03716,39.94237,0 18.03907,39.94128,0 18.03966,39.94041,0 18.04318,39.93711,0
18.04428,39.93772,0 18.04689,39.93374,0 18.04707,39.93305,0 18.04685,39.93152,0 18.04701,39.93091,0
18.04773,39.92967,0 18.04857,39.92905,0 18.05196,39.92835,0 18.05337,39.92762,0 18.0536,39.92714,0
18.0545,39.92672,0 18.05483,39.92595,0 18.05552,39.92569,0 18.05646,39.92499,0 18.0569,39.92497,0
18.05831,39.92369,0 18.05957,39.92301,0 18.06021,39.92309,0 18.06123,39.92282,0 18.06155,39.92239,0
18.06268,39.9221,0 18.06385,39.92149,0 18.06455,39.92075,0 18.06571,39.92021,0 18.06671,39.91923,0
18.06768,39.91886,0 18.06854,39.91898,0 18.06919,39.91965,0 18.07088,39.91487,0 18.07344,39.91279,0
18.07506,39.91223,0 18.0759,39.91032,0 18.0776,39.90764,0 18.07794,39.90728,0 18.08078,39.90544,0
18.08401,39.90417,0 18.08442,39.90391,0 18.08624,39.90151,0 18.0866,39.9012,0 18.09013,39.89978,0
18.09061,39.89967,0 18.09267,39.8997,0 18.0948,39.89896,0 18.0982,39.89697,0 18.09958,39.89643,0
18.1004,39.89555,0 18.10437,39.89403,0 18.10637,39.89234,0 18.10685,39.89078,0 18.10719,39.89062,0
18.10828,39.89087,0 18.10942,39.89077,0 18.11086,39.8898,0 18.11198,39.88877,0 18.11262,39.8872,0
18.11335,39.88663,0 18.114,39.88663,0 18.11402,39.88699,0 18.11541,39.88759,0 18.11693,39.88776,0
18.11662,39.88821,0 18.1177,39.88867,0 18.1169,39.88963,0 18.11579,39.8903,0 18.12436,39.8938,0
18.12508,39.89405,0 18.13717,39.88514,0 18.14542,39.87929,0 18.14862,39.87705,0 18.15642,39.87272,0
18.15808,39.87173,0 18.1596,39.87056,0 18.16553,39.86583,0 18.16784,39.86447,0 18.17969,39.85806,0
18.18622,39.85444,0 18.18868,39.85278,0 18.18888,39.85255,0 18.18997,39.85307,0 18.19353,39.85065,0
18.19269,39.85005,0 18.19403,39.84925,0 18.20275,39.84534,0 18.20692,39.84469,0 18.20712,39.84527,0
18.20953,39.84492,0 18.20967,39.84529,0 18.21011,39.84501,0 18.21195,39.84436,0 18.21177,39.84399,0
18.21264,39.84385,0 18.22084,39.84165,0 18.23029,39.83908,0 18.239,39.83767,0 18.23975,39.83767,0
18.24804,39.83848,0 18.25117,39.83847,0 18.25143,39.83835,0 18.25146,39.83746,0 18.25704,39.8373,0
18.25874,39.83672,0 18.25989,39.83661,0 18.26199,39.83685,0 18.26312,39.83682,0 18.26472,39.83644,0
18.26646,39.83555,0 18.26798,39.83512,0 18.27183,39.83437,0 18.27405,39.83309,0 18.27376,39.83282,0
18.27558,39.83137,0 18.27654,39.83086,0 18.27716,39.83115,0 18.27803,39.83007,0 18.27906,39.83024,0
18.28031,39.82955,0 18.28018,39.82885,0 18.28331,39.8272,0 18.28384,39.82699,0 18.28664,39.8263,0
18.28737,39.82602,0 18.295,39.82274,0 18.29961,39.82124,0 18.30424,39.81912,0 18.30704,39.81803,0
18.31278,39.8151,0 18.31688,39.81164,0 18.3179,39.81122,0 18.32148,39.81058,0 18.32352,39.80936,0
18.32479,39.80931,0 18.32541,39.80911,0 18.32682,39.80825,0 18.3277,39.80754,0 18.32846,39.80626,0
18.32887,39.8045,0 18.3318,39.80081,0 18.33229,39.80007,0 18.33347,39.79771,0 18.33428,39.7968,0
18.33587,39.79627,0 18.34014,39.79621,0 18.34126,39.7957,0 18.34314,39.79341,0 18.34442,39.79268,0
18.34576,39.79248,0 18.34664,39.7926,0 18.34895,39.79354,0 18.35148,39.79357,0 18.35283,39.79558,0
18.35341,39.79597,0 18.35471,39.79605,0 18.35453,39.7967,0 18.35731,39.79751,0 18.35857,39.79799,0
18.35862,39.79862,0 18.35657,39.80321,0 18.35671,39.80416,0 18.35628,39.80495,0 18.35468,39.8065,0
18.3532,39.80815,0 18.35442,39.81167,0 18.35533,39.81314,0 18.35601,39.81478,0 18.35641,39.81638,0
18.35617,39.81965,0 18.35515,39.82114,0 18.35399,39.82203,0 18.35363,39.8225,0 18.35218,39.82315,0
18.34962,39.824,0 18.34871,39.82519,0 18.34795,39.82583,0 18.34689,39.82572,0 18.34623,39.82627,0
18.34533,39.82752,0 18.34434,39.82815,0 18.34434,39.82906,0 18.34394,39.83048,0 18.34316,39.83148,0
18.34173,39.83286,0
</coordinates>
   </LineString>
  </Placemark>
  <Placemark>
   <name>D12_Santa Maria di Leuca - Otranto</name>
   <description><![CDATA[
distance: 32 miles
<br>
elevation: 2110 feet
<br>
link: https://ridewithgps.com/api/v1/routes/51883637.json?privacy_code=H5ywvQYxALCBcfjPwsl6Uaay8MDfYpLE
   ]]></description>
   <Style>
    <LineStyle>
     <color>ff0f33bc</color>
     <width>3</width>
    </LineStyle>
   </Style>
   <LineString>
    <tessellate>1</tessellate>
    <coordinates>
18.36204,39.79826,0 18.36299,39.79837,0 18.36498,39.80018,0 18.36588,39.80053,0 18.36693,39.80019,0
18.36811,39.79863,0 18.36952,39.79762,0 18.37064,39.79766,0 18.37276,39.79914,0 18.37362,39.79992,0
18.37533,39.80186,0 18.37558,39.80291,0 18.37507,39.80428,0 18.37511,39.80491,0 18.37656,39.80784,0
18.37755,39.809,0 18.3792,39.80921,0 18.37975,39.80947,0 18.38167,39.81178,0 18.38307,39.81411,0
18.3844,39.81576,0 18.38528,39.81651,0 18.38858,39.81871,0 18.38912,39.81962,0 18.38907,39.8216,0
18.3887,39.82399,0 18.38832,39.82508,0 18.38499,39.83055,0 18.38461,39.83157,0 18.38442,39.83425,0
18.38418,39.83578,0 18.38426,39.83676,0 18.38416,39.83895,0 18.38449,39.83959,0 18.3845,39.84025,0
18.38418,39.84107,0 18.38423,39.84175,0 18.38561,39.84264,0 18.38607,39.84364,0 18.38593,39.84441,0
18.38636,39.84483,0 18.38742,39.84527,0 18.38822,39.84613,0 18.38847,39.84807,0 18.38914,39.85027,0
18.38936,39.8519,0 18.38976,39.85289,0 18.38972,39.85365,0 18.38937,39.85485,0 18.3873,39.85701,0
18.38698,39.8582,0 18.38719,39.8588,0 18.38996,39.86229,0 18.39033,39.86285,0 18.39054,39.86433,0
18.39094,39.86461,0 18.39069,39.86541,0 18.3919,39.86604,0 18.39293,39.86709,0 18.39277,39.86784,0
18.39191,39.86811,0 18.39114,39.86911,0 18.39115,39.86981,0 18.39164,39.87013,0 18.39353,39.87045,0
18.39456,39.87076,0 18.39547,39.87158,0 18.39586,39.87258,0 18.39608,39.87435,0 18.39606,39.87735,0
18.39622,39.87976,0 18.39603,39.88141,0 18.39391,39.88551,0 18.39375,39.88634,0 18.39387,39.88715,0
18.39469,39.88914,0 18.39463,39.89028,0 18.39356,39.89601,0 18.39331,39.89672,0 18.39248,39.89789,0
18.39117,39.90056,0 18.39109,39.90121,0 18.3906,39.90165,0 18.39012,39.90342,0 18.38919,39.90445,0
18.38765,39.90537,0 18.38711,39.90598,0 18.38707,39.90731,0 18.38579,39.90938,0 18.38584,39.90989,0
18.38652,39.9104,0 18.38939,39.91203,0 18.39068,39.91423,0 18.39062,39.91511,0 18.39197,39.9165,0
18.39228,39.91863,0 18.39131,39.92032,0 18.3905,39.92088,0 18.3899,39.92155,0 18.38946,39.92238,0
18.39038,39.92341,0 18.39151,39.92326,0 18.39189,39.92367,0 18.39208,39.92444,0 18.39266,39.92481,0
18.39373,39.92487,0 18.39407,39.9251,0 18.39446,39.92641,0 18.39482,39.92562,0 18.39514,39.92574,0
18.39426,39.92704,0 18.39409,39.928,0 18.39424,39.92965,0 18.3956,39.93175,0 18.39577,39.93235,0
18.39529,39.93298,0 18.39571,39.93433,0 18.39638,39.93445,0 18.39702,39.93399,0 18.39774,39.9345,0
18.39818,39.93767,0 18.39811,39.93851,0 18.39871,39.94128,0 18.40069,39.94496,0 18.40066,39.94685,0
18.40077,39.94825,0 18.40119,39.94935,0 18.402,39.95278,0 18.40227,39.95461,0 18.4022,39.95532,0
18.40263,39.95632,0 18.40259,39.95742,0 18.40222,39.95856,0 18.40256,39.96055,0 18.40249,39.96161,0
18.40334,39.96312,0 18.40433,39.96447,0 18.40435,39.96746,0 18.40485,39.9696,0 18.40504,39.9713,0
18.4058,39.97259,0 18.40569,39.97425,0 18.40581,39.97527,0 18.40606,39.97563,0 18.40649,39.97747,0
18.40727,39.97894,0 18.40815,39.97988,0 18.40933,39.98086,0 18.4108,39.98226,0 18.41124,39.98286,0
18.41211,39.98524,0 18.41205,39.98678,0 18.41227,39.98789,0 18.41356,39.99001,0 18.41378,39.99055,0
18.41356,39.99092,0 18.41267,39.99087,0 18.4116,39.99117,0 18.41178,39.99178,0 18.41288,39.99182,0
18.41418,39.9923,0 18.41482,39.99295,0 18.41564,39.9946,0 18.41579,39.99545,0 18.41625,39.99564,0
18.41847,39.99839,0 18.4213,40.0003,0 18.42162,40.00091,0 18.42141,40.00175,0 18.42159,40.00232,0
18.42225,40.00282,0 18.42354,40.00345,0 18.42352,40.00471,0 18.42197,40.00614,0 18.42196,40.00648,0
18.42384,40.00544,0 18.42432,40.0059,0 18.42473,40.00571,0 18.42615,40.00391,0 18.42823,40.00226,0
18.42879,40.00239,0 18.42916,40.0037,0 18.42935,40.00597,0 18.42998,40.00723,0 18.42993,40.00853,0
18.42956,40.00944,0 18.42945,40.01069,0 18.43016,40.01205,0 18.43007,40.01262,0 18.43114,40.01341,0
18.43127,40.01393,0 18.43234,40.01547,0 18.43247,40.0165,0 18.43308,40.01806,0 18.43345,40.01961,0
18.43411,40.02042,0 18.4343,40.02115,0 18.43415,40.02201,0 18.43373,40.02274,0 18.43404,40.02372,0
18.43447,40.02406,0 18.43492,40.02497,0 18.43603,40.02579,0 18.43732,40.02649,0 18.44038,40.02831,0
18.44172,40.02959,0 18.44231,40.03052,0 18.44343,40.03183,0 18.4438,40.03264,0 18.44442,40.03294,0
18.44563,40.03294,0 18.44639,40.03351,0 18.44876,40.03248,0 18.44938,40.03242,0 18.45062,40.03282,0
18.45162,40.03332,0 18.45225,40.03464,0 18.45306,40.03506,0 18.45616,40.03518,0 18.46104,40.03618,0
18.46088,40.03697,0 18.46335,40.03779,0 18.46507,40.03795,0 18.46563,40.03818,0 18.4674,40.03946,0
18.46792,40.03996,0 18.46822,40.04103,0 18.46929,40.04135,0 18.47036,40.04233,0 18.47075,40.0425,0
18.47162,40.04348,0 18.47246,40.04505,0 18.47311,40.04522,0 18.47327,40.04595,0 18.47403,40.04754,0
18.47433,40.04872,0 18.47428,40.04928,0 18.47481,40.05066,0 18.47422,40.05358,0 18.47429,40.05392,0
18.47518,40.05535,0 18.47552,40.05626,0 18.47506,40.05759,0 18.47535,40.05827,0 18.47494,40.05956,0
18.47423,40.06063,0 18.47416,40.06165,0 18.47476,40.06346,0 18.47522,40.06398,0 18.4792,40.06611,0
18.47986,40.06664,0 18.47979,40.06758,0 18.47873,40.06904,0 18.47908,40.06948,0 18.48027,40.06961,0
18.48058,40.07012,0 18.4802,40.07065,0 18.4809,40.07188,0 18.48051,40.07265,0 18.48091,40.07326,0
18.48081,40.07379,0 18.4822,40.0758,0 18.4822,40.07626,0 18.48165,40.07672,0 18.48156,40.07727,0
18.4832,40.07992,0 18.4832,40.08066,0 18.48198,40.08108,0 18.48132,40.08161,0 18.48055,40.08182,0
18.48112,40.08303,0 18.4811,40.08353,0 18.48281,40.08396,0 18.48533,40.08579,0 18.48563,40.08611,0
18.4889,40.0903,0 18.48928,40.09098,0 18.49034,40.09432,0 18.49047,40.09507,0 18.49008,40.09772,0
18.49021,40.09839,0 18.49109,40.09951,0 18.49278,40.10068,0 18.49543,40.10202,0 18.49612,40.10288,0
18.49699,40.10334,0 18.50072,40.10359,0 18.50131,40.10337,0 18.50187,40.10247,0 18.50332,40.10185,0
18.5041,40.1019,0 18.50508,40.10238,0 18.50657,40.10205,0 18.50734,40.10214,0 18.51517,40.10646,0
18.5161,40.10712,0 18.51648,40.10782,0 18.5163,40.10894,0 18.5144,40.11134,0 18.51257,40.11456,0
18.51124,40.11595,0 18.50952,40.11664,0 18.50743,40.11702,0 18.50636,40.11745,0 18.50314,40.11791,0
18.50164,40.11863,0 18.50117,40.11921,0 18.50018,40.12172,0 18.50002,40.12378,0 18.49968,40.12477,0
18.49778,40.12802,0 18.49751,40.1287,0 18.49731,40.13074,0 18.4968,40.13228,0 18.49685,40.13283,0
18.49805,40.13391,0 18.49843,40.13446,0 18.50003,40.13871,0 18.50051,40.13918,0 18.50041,40.13975,0
18.49933,40.14035,0 18.49779,40.14189,0 18.49722,40.14226,0 18.49494,40.14311,0 18.49419,40.1435,0
18.49355,40.14427,0 18.49228,40.14386,0 18.49132,40.14418,0 18.49283,40.14536,0
</coordinates>
   </LineString>
  </Placemark>
  <Placemark>
   <name>D7_Otranto - Lecce</name>
   <description><![CDATA[
distance: 34 miles
<br>
elevation: 955 feet
<br>
link: https://ridewithgps.com/api/v1/routes/52712450.json?privacy_code=Q6eIYtmrAZEo7ncx0EFNSeEmxustJEu2
   ]]></description>
   <Style>
    <LineStyle>
     <color>ffbc1e0f</color>
     <width>3</width>
    </LineStyle>
   </Style>
   <LineString>
    <tessellate>1</tessellate>
    <coordinates>
18.48882,40.14626,0 18.48896,40.14608,0 18.4879,40.14587,0 18.48663,40.14735,0 18.48586,40.14801,0
18.48487,40.14813,0 18.48444,40.14755,0 18.48393,40.14773,0 18.48342,40.14861,0 18.48342,40.14963,0
18.4828,40.15062,0 18.48231,40.15086,0 18.48084,40.15216,0 18.4792,40.15281,0 18.47702,40.15331,0
18.47389,40.15414,0 18.47109,40.15543,0 18.4702,40.15563,0 18.47026,40.15677,0 18.47003,40.15738,0
18.46862,40.15943,0 18.46751,40.16064,0 18.46704,40.16147,0 18.46472,40.16884,0 18.46585,40.16909,0
18.46561,40.16942,0 18.46504,40.17266,0 18.46486,40.17306,0 18.46017,40.16955,0 18.4598,40.16947,0
18.45796,40.16993,0 18.4579,40.17052,0 18.45659,40.17564,0 18.45586,40.17759,0 18.4552,40.17901,0
18.4529,40.18133,0 18.45258,40.18187,0 18.45043,40.18667,0 18.44913,40.19014,0 18.44881,40.19077,0
18.44706,40.19032,0 18.44529,40.19074,0 18.44587,40.19196,0 18.44586,40.19234,0 18.44188,40.19891,0
18.44026,40.20121,0 18.43986,40.20291,0 18.43348,40.20128,0 18.43275,40.20306,0 18.43094,40.20718,0
18.42956,40.20807,0 18.42306,40.21061,0 18.42201,40.21135,0 18.42168,40.21197,0 18.42115,40.21484,0
18.42118,40.21537,0 18.42312,40.2201,0 18.42357,40.22067,0 18.42468,40.22127,0 18.42755,40.22189,0
18.43165,40.22443,0 18.43297,40.22486,0 18.43494,40.22477,0 18.43696,40.22547,0 18.43752,40.22542,0
18.43862,40.2248,0 18.4412,40.2227,0 18.44154,40.22281,0 18.44103,40.22403,0 18.4411,40.22465,0
18.44196,40.22679,0 18.44327,40.22868,0 18.44349,40.22943,0 18.4435,40.2313,0 18.44435,40.2391,0
18.44426,40.23966,0 18.43893,40.25321,0 18.43889,40.2538,0 18.43826,40.25451,0 18.43588,40.25846,0
18.4319,40.26536,0 18.4317,40.26741,0 18.43135,40.2682,0 18.42927,40.27041,0 18.42836,40.27227,0
18.42821,40.2735,0 18.42835,40.27419,0 18.42976,40.27443,0 18.43054,40.27533,0 18.43024,40.27596,0
18.42895,40.2764,0 18.42922,40.27704,0 18.43113,40.27907,0 18.43075,40.27935,0 18.43002,40.28209,0
18.43115,40.28215,0 18.43088,40.2832,0 18.43008,40.28375,0 18.42672,40.28517,0 18.42642,40.28611,0
18.42565,40.28698,0 18.42444,40.28792,0 18.42355,40.28939,0 18.4244,40.28957,0 18.42434,40.29121,0
18.42239,40.29343,0 18.42146,40.29292,0 18.42054,40.29342,0 18.41421,40.29621,0 18.41081,40.29684,0
18.40983,40.29732,0 18.40885,40.29816,0 18.40783,40.29802,0 18.40558,40.30008,0 18.40418,40.30205,0
18.40464,40.3021,0 18.40419,40.30273,0 18.40321,40.3029,0 18.40104,40.30352,0 18.3984,40.30553,0
18.39666,40.30718,0 18.39604,40.30761,0 18.38592,40.31366,0 18.37874,40.32123,0 18.37664,40.32358,0
18.37462,40.3277,0 18.36949,40.3337,0 18.36855,40.33469,0 18.36736,40.33527,0 18.35962,40.33729,0
18.35532,40.33916,0 18.35474,40.33953,0 18.3512,40.34269,0 18.35067,40.34333,0 18.34861,40.34824,0
18.34813,40.34883,0 18.34626,40.34997,0 18.33648,40.35316,0 18.32955,40.35462,0 18.32885,40.3549,0
18.32572,40.35679,0 18.32514,40.35735,0 18.32382,40.3595,0 18.32258,40.36018,0 18.3173,40.361,0
18.31601,40.36141,0 18.31545,40.36187,0 18.31154,40.36652,0 18.31003,40.36816,0 18.3054,40.36544,0
18.30473,40.36519,0 18.30248,40.36469,0 18.30167,40.36442,0 18.30228,40.36333,0 18.30205,40.36232,0
18.30272,40.36068,0 18.30268,40.35977,0 18.30332,40.35851,0 18.30361,40.3568,0 18.30355,40.35614,0
18.30392,40.35435,0 18.30333,40.35339,0 18.30361,40.3521,0 18.30444,40.35041,0 18.30509,40.34952,0
18.305,40.34826,0 18.30412,40.34698,0 18.30316,40.34659,0 18.30197,40.34569,0 18.30182,40.34443,0
18.30063,40.34203,0 18.30088,40.34156,0 18.30061,40.34074,0 18.29937,40.33907,0 18.29933,40.33825,0
18.29894,40.33725,0 18.29886,40.33621,0 18.2979,40.33601,0 18.29822,40.33496,0 18.29658,40.33457,0
18.29645,40.33421,0 18.29687,40.33313,0 18.29387,40.3328,0 18.2874,40.33409,0 18.28548,40.33499,0
18.28088,40.33609,0 18.27722,40.33672,0 18.27304,40.33663,0 18.27147,40.33711,0 18.26918,40.3371,0
18.26818,40.33682,0 18.26615,40.33648,0 18.26442,40.33634,0 18.26133,40.33563,0 18.26041,40.33576,0
18.25874,40.33665,0 18.25815,40.33677,0 18.25505,40.33668,0 18.25329,40.33691,0 18.25028,40.33692,0
18.24791,40.33737,0 18.24661,40.33747,0 18.24491,40.33715,0 18.24395,40.33648,0 18.24304,40.33624,0
18.24152,40.33616,0 18.23884,40.33564,0 18.23731,40.33525,0 18.23632,40.33515,0 18.2361,40.33464,0
18.23461,40.33346,0 18.2329,40.33305,0 18.23202,40.3325,0 18.22813,40.33261,0 18.22699,40.33299,0
18.22587,40.33298,0 18.22581,40.33378,0 18.22539,40.33471,0 18.22497,40.33506,0 18.22393,40.33533,0
18.22296,40.33533,0 18.22081,40.33495,0 18.21821,40.33525,0 18.21684,40.33562,0 18.216,40.33621,0
18.21373,40.33631,0 18.21271,40.33672,0 18.209,40.33702,0 18.20734,40.33791,0 18.20581,40.33828,0
18.20281,40.3401,0 18.20001,40.34201,0 18.19856,40.34275,0 18.19623,40.34373,0 18.19383,40.34486,0
18.19363,40.3452,0 18.19282,40.34529,0 18.19008,40.34622,0 18.18602,40.34749,0 18.18297,40.34821,0
18.18225,40.34643,0 18.18034,40.34707,0 18.17875,40.34741,0 18.17314,40.34931,0 18.17291,40.34928,0
18.17377,40.35028,0 18.17252,40.35052,0 18.17296,40.35241,0 18.17294,40.35305,0
</coordinates>
   </LineString>
  </Placemark>
 </Folder>
</Document>
</kml>
