<?xml version="1.0" ?>
<kml xmlns="http://www.opengis.net/kml/2.2">
<Document>
 <Folder>
  <name>Ride With GPS Routes</name>
  <description>bike routes from hotel to hotel</description>
  <Placemark>
   <name>Ride 1: Trani to Castel del Monte</name>
   <description><![CDATA[
route description
   ]]></description>
   <Style>
    <LineStyle>
     <color>ff090975</color>
     <width>3</width>
    </LineStyle>
   </Style>
   <LineString>
    <tessellate>1</tessellate>
    <coordinates>
16.4225,41.27705,0 16.4208,41.27556,0 16.41821,41.2731,0 16.41588,41.27452,0 16.41599,41.27399,0
16.41561,41.27352,0 16.41746,41.2724,0 16.41719,41.27177,0 16.41747,41.2713,0 16.41751,41.26944,0
16.41765,41.2683,0 16.41686,41.26656,0 16.41495,41.26711,0 16.41444,41.26642,0 16.41331,41.26552,0
16.41351,41.26358,0 16.41333,41.26227,0 16.41382,41.26113,0 16.41487,41.25808,0 16.41437,41.25645,0
16.41414,41.25395,0 16.41467,41.25383,0 16.4147,41.2524,0 16.41538,41.24949,0 16.41543,41.24869,0
16.41531,41.24587,0 16.41508,41.24369,0 16.4143,41.24288,0 16.41332,41.24059,0 16.41302,41.23837,0
16.41231,41.23603,0 16.4119,41.23579,0 16.41226,41.23539,0 16.41192,41.23399,0 16.41008,41.23165,0
16.40814,41.22831,0 16.40707,41.2271,0 16.40705,41.22655,0 16.40566,41.22428,0 16.40437,41.22289,0
16.4037,41.22194,0 16.40302,41.22142,0 16.40072,41.21769,0 16.39926,41.21608,0 16.39791,41.2153,0
16.39536,41.21242,0 16.39212,41.20798,0 16.39175,41.2066,0 16.39129,41.20573,0 16.38936,41.20456,0
16.38761,41.20291,0 16.38933,41.20008,0 16.38981,41.19906,0 16.38969,41.19413,0 16.38947,41.19313,0
16.38941,41.19179,0 16.38953,41.19054,0 16.39023,41.18855,0 16.39026,41.18786,0 16.3895,41.18413,0
16.38946,41.18287,0 16.39001,41.18046,0 16.39112,41.17698,0 16.3921,41.17512,0 16.39338,41.17336,0
16.39384,41.17253,0 16.39542,41.17188,0 16.39621,41.17055,0 16.39842,41.16782,0 16.40048,41.16601,0
16.40251,41.16483,0 16.40366,41.16385,0 16.40457,41.16278,0 16.40637,41.16162,0 16.4086,41.16064,0
16.40975,41.16032,0 16.40988,41.15855,0 16.40972,41.15591,0 16.40998,41.15477,0 16.40992,41.15411,0
16.40906,41.15295,0 16.40915,41.15255,0 16.40726,41.15239,0 16.40736,41.15155,0 16.40876,41.14966,0
16.40606,41.14633,0 16.40555,41.14584,0 16.40059,41.14191,0 16.39519,41.14153,0 16.39048,41.14017,0
16.39013,41.13839,0 16.38913,41.13809,0 16.38682,41.13666,0 16.38639,41.13441,0 16.38507,41.13353,0
16.3837,41.13194,0 16.38239,41.12978,0 16.37903,41.12916,0 16.37834,41.12621,0 16.37583,41.12588,0
16.37009,41.12402,0 16.3683,41.12243,0 16.3645,41.12145,0 16.36211,41.1203,0 16.36033,41.11899,0
16.35949,41.11853,0 16.3523,41.11878,0 16.34677,41.1186,0 16.33997,41.11853,0 16.33778,41.11561,0
16.33946,41.1145,0 16.33964,41.10862,0 16.34014,41.10738,0 16.34197,41.10506,0 16.34247,41.09925,0
16.3462,41.09815,0 16.34771,41.09078,0 16.34945,41.08867,0 16.35115,41.08584,0 16.35115,41.08403,0
16.3539,41.08374,0 16.35586,41.07825,0 16.35683,41.06867,0 16.35824,41.06601,0 16.35868,41.06288,0
16.35948,41.06049,0 16.36042,41.05698,0 16.36645,41.05382,0 16.36938,41.04626,0 16.37046,41.04313,0
16.37223,41.04094,0 16.37396,41.03456,0 16.37612,41.03046,0 16.37242,41.02436,0 16.36913,41.02249,0
16.36712,41.02183,0 16.36141,41.02149,0 16.35809,41.02065,0 16.35616,41.01947,0 16.35246,41.01851,0
16.35173,41.01612,0 16.35004,41.01598,0 16.34937,41.01629,0 16.34784,41.01601,0 16.34731,41.01432,0
16.3462,41.01439,0 16.34365,41.01543,0 16.34249,41.01701,0 16.34018,41.01722,0 16.33814,41.01682,0
16.33753,41.01564,0 16.33338,41.01547,0 16.33024,41.01598,0 16.3284,41.00637,0 16.32825,41.00166,0
16.32752,41.00125,0 16.32254,40.99687,0 16.32165,40.99622,0 16.32083,40.99589,0 16.31406,40.9945,0
16.31298,40.994,0 16.31197,40.99298,0 16.3114,40.99277,0 16.30876,40.99237,0 16.30806,40.99203,0
16.30217,40.98669,0 16.30249,40.98652,0 16.32282,40.9824,0 16.33012,40.98095,0 16.34092,40.97876,0
16.36105,40.97584,0 16.36016,40.97343,0 16.35996,40.97224,0 16.35864,40.97022,0 16.35791,40.96862,0
16.35428,40.966,0
</coordinates>
   </LineString>
  </Placemark>
 </Folder>
</Document>
</kml>
